,Company Name,Address,Phone,votes,ratings,latitude,longitude
0,Mantri Square Mall,"No.1, Sampige Road, Malleswaram, Bangalore - 560003, Near Nataraj Theatre",+(91)-80-30160000,125274Votes,4.4,12.991607,77.571336
1,Phoenix Market City Mall,"1st Cross, Whitefield Main Road, Mahadevapura, Bangalore - 560048, Opposite Bbmp Office",+(91)-080-67266111,123723Votes,4.5,12.997638,77.69634
2,Orion Mall,"No.26/1, Brigade Gateway Campus, Dr Rajkumar Road, Malleswaram West, Bangalore - 560055, Next to Metro Cash &amp; Carry",+(91)-080-67282222,93113Votes,4.5,13.011023,77.554715
3,The Forum Mall,"No.21, Hosur Main Road, Koramangala, Bangalore - 560095, Opposite Bosch",+(91)-080-22067803,71382Votes,4.3,12.934172,77.610966
4,Garuda Shopping Mall,"No.15, Ashok Nagar, Magrath Road, Bangalore - 560025, Opposite Home Stop",+(91)-80-40698888,58982Votes,4.1,12.9700713,77.6098644
5,Vr Bengaluru Mall,"Whitefield Main Road, Mahadevapura, Bangalore - 560048, Near Phoenix Market City",+(91)-080-46693467,55759Votes,4.4,12.996029,77.695261
6,Vega City Mall,"No.172/1, Srinivas Industrial Area, Bannerghatta Road, Bangalore - 560076, Near JD Mall Signal",+(91)-080-67922333,52043Votes,4.3,12.907467,77.600853
7,Ub City Mall,"No 24, KG Halli, Vittal Mallya Road, Bangalore - 560001, Near Mallya Hospital, Cubbon Park Police Station, D Souza Layout, Ashok Nagar",+(91)-080-22711488,50119Votes,4.5,12.971589,77.595782
8,Elements Mall,"No.132/133/134 P, 100 Feet Main Road, Thanisandra, Bangalore - 560045, Behind Manyata Tech Park",+(91)-080-67294444,46736Votes,4.0,13.044897,77.626646
9,Gopalan Innovation Mall,"No.22, Jayadeva Hospital Circle, Bannerghatta Road, Bangalore - 560076, Near Shoppers Stop",+(91)-80-26580566,39745Votes,3.9,12.914328,77.599588
10,Gt World Mall,"No.92, Vijayanagar, Bangalore - 560040, Next to Prasanna Theater",+(91)-080-46329003,35276Votes,4.3,12.973289,77.551365
11,Gopalan Arcade Mall,"No.447/1812, 1st Block, Pantharapalya, Mysore Road, Rajarajeshwari Nagar, Bangalore - 560098",+(91)-080-28602945,33839Votes,4.0,12.935603,77.517814
12,The Forum Neighbourhood Mal..,"No.62, Whitefield Main Road, Bangalore - 560066, Near Varthur Lake",+(91)-080-25043800,32837Votes,4.2,12.959765,77.747283
13,Gopalan Signature Mall,"No.6, Old Madras Road, Nagavarapalya, Bangalore - 560093, Opposite  Rmz",+(91)-80-25246246,32479Votes,4.0,12.993105,77.661557
14,Lido Shopping Mall,"No.1/1, Ista Compound, Vivekananda Road, Ulsoor, Bangalore - 560008, Near Trinity Circle",+(91)-080-22086573,28959Votes,4.0,12.97352,77.620277
15,Eta Mall,"No. 1, Hosakere Road, Binnypete, Bangalore - 560026, Opposite Balekayi Mandi",+(91)-080-67410009,28796Votes,4.0,12.965487,77.562072
16,Bangalore Central Mall,"No.45/1/45/2, 45th Cross, Jp Nagar 2nd Phase, Bangalore - 560078, Near Ragigudda Temple",18002107777,26379Votes,4.2,12.916358,77.592643
17,Inorbit Mall,"Plot No. 75, Epip Industrial Park, Whitefield, Bangalore - 560066, Next To Sathya Sai Hospital",+(91)-080-67280000,25790Votes,4.0,12.979204,77.728195
18,Orion East,"No.10/34, Banaswadi Main Road, Maruthi Sevanagar, Bangalore - 560033",+(91)-080-23094444,25313Votes,4.2,13.001731,77.632705
19,Kempfort,"No.97, Old Airport Road, Bangalore - 560017",+(91)-9845166666,23467Votes,3.9,12.958664,77.65687
20,Forum Shantiniketan,"Whitefield Main Road, Bangalore - 560067, Opposite Manipal Hospital",+(91)-080-25018225,23260Votes,4.4,12.989372,77.728227
21,Gopalan Legacy Mall,"No. 148, Mysore Road, Bangalore - 560026, Near Sirsi Circle",+(91)-80-26752122,22559Votes,3.9,12.958267,77.553552
22,Brookefield Mall,"ITPL Main Road, Brookefield, Bangalore - 560037",+(91)-080-41188997,21515Votes,3.9,12.966054,77.718134
23,One Mg Mall,"No.1/2, Swami Vivekananda Road, M G Road, Bangalore - 560001, Opposite Vivanta By Taj",+(91)-80-22086565,20344Votes,4.0,12.97352,77.620277
24,Sri Garuda Swagath Mall,"Tilak Nagar, Jayanagar 4th Block, Bangalore - 560011, Opposite Police Station",+(91)-080-41309058,16519Votes,3.9,12.929108,77.591354
25,Ascendas Park Square Mall,"International Tech Park, Whitefield, Bangalore - 560066",+(91)-080-41880888,16329Votes,4.1,12.98729,77.736413
26,Rockline Mall,"No 8, Jalahalli Cross, T Dasarahalli, Bangalore - 560057, Chokkasandra",+(91)-9113939690,16159Votes,3.8,13.040947,77.518342
27,Gopalan Grand Mall,"Gopalan Grand Mall, Nagavar Palya, Old Madras Road, Bangalore - 560016, Above More Supermarket",+(91)-080-25242484,16006Votes,4.1,12.993416,77.663828
28,Presto Kemp Fort Mall,"No 97, 1st Floor, Kemp Fort Mall, Ramagiri, Murugesh Palya, Old Airport Road, Bangalore - 560017, Near Kemp Fort Shiv Temple",+(91)-8217690383,15235Votes,3.8,12.9587516,77.6568341
29,RMZ Galleria Mall,"Ambedkar Colony, Yelahanka, Bangalore - 560064, Opposite Yelahanka Police Station",+(91)-080-68137475,15176Votes,4.4,13.093264,77.59521
30,Sigma Central,"No.15, 16 &amp; 17, Cunningham Road, Bangalore - 560052, Near Westminister",,12576Votes,3.7,12.98803,77.594578
31,Arena Mall,"Out Ring Road, Doddanekundi Extension, Bangalore - 560037",+(91)-080-33569555,10879Votes,4.1,12.9797323,77.6937706
32,Market Square Mall,"Market Square Mall, Madiwala, Bangalore - 560068, Opposite Police Station",+(91)-9900098971,10538Votes,4.0,12.921655,77.620458
33,Esteem Mall,"No.127/128, Bellary Road, Hebbal, Bangalore - 560024, Near Hebbal Fly Over",,9908Votes,3.6,13.049294,77.592998
34,Market Square Mall,"Sarjapur Main Rd, Harlur, Bengaluru, Ambalipura, Bangalore - 560103",+(91)-9741511885,8953Votes,4.0,12.91692,77.671501
35,Golden Height Mall,"Dr Rajkumar Road, 4m Block, Rajajinagar, Bangalore - 560010",,6960Votes,3.9,12.982868,77.55981
36,Virginia Mall,"Whitefield, Bangalore - 560066, Near Varthur Lake &amp; Next To Columbia Asia Hospital",+(91)-080-67424950,6681Votes,3.6,12.957276,77.745286
37,KLM Fashion Mall,"No 518, Varthur Road Marathahalli Village Marathahalli, Marathahalli, Bangalore - 560037, Near to Marathahalli Village",+(91)-80-43746553,4173Votes,3.7,12.9567993,77.7007577
38,South India Shopping Mall,"Survey No 194, 195, Ground Floor, Sarala Grand, Bannerghatta Main Road, Arakere, Bangalore - 560076, Opposite to HSBC",+(91)-080-26489990,3439Votes,3.8,12.8908367,77.5975071
39,Royal Meenakshi Mall,"No. E1/16, 1st Cross, Bannerghatta Road, Bangalore - 560076, Opposite Meenakshi Temple",+(91)-080-67080100,2991Votes,4.2,12.876198,77.59544
40,Grand Majestic Commercial C..,"No.12, 2nd Cross, 6th Main, Gandhi Nagar, Bangalore - 560009, Opposite Gubbi Rang Mandir, Near Sukh Sagar",+(91)-8880874000,2939Votes,3.7,12.977204,77.576348
41,Eva Mall,"No.60, Brigade Road, Bangalore - 560025, Next To Hm Towers",+(91)-9902622668,2321Votes,3.9,12.970991,77.607258
42,South INDIA Shopping Mall,"Survey No. 35, 35/1, 35/2, Subbarama Chetty Road, Nettakallappa Circle, Basavanagudi, Bangalore - 560004, Opposite Anand Sagar Restaurant",+(91)-80-22426666,1934Votes,3.6,12.9389798,77.5717467
43,Arya Hub Mall,"No.92, Itpl Main Road, Prasanth Extension, Whitefield, Bangalore - 560066",+(91)-9902078287,1608Votes,3.5,12.983362,77.752012
44,Klm Fashion Mall,"No. 515, 47th Cross, 5th Block, Tmc Layout, Jayanagar, Bangalore - 560041, Near Renuka Theatre",+(91)-80-43746551,1455Votes,3.8,12.91685,77.582067
45,South India Shopping Mall,"Sy No.57/1, Whitefield Road, Dodsworth Layout, Whitefield, Bangalore - 560066, Opposite Whitefield Busstop",+(91)-80-28452222,1418Votes,3.5,12.969741,77.7497526
46,Palace Mall,"36, Bharati Nagar, Bengaluru, Seppings Road, Shivaji Nagar, Bangalore - 560051",,1417Votes,3.8,12.986316,77.608131
47,Prestige Forum Mall,"Thigalarapalya, Hoodi, Bengaluru, Bangalore - 560067",,1376Votes,4.4,12.9892207,77.7279723
48,KLM Fashion Mall,"No 1676, 27th Main Road Hsr Layout, HSR Layout, Bangalore - 560102",+(91)-80-43746552,1153Votes,3.6,12.9083796,77.6515421
49,Westgate Value Mall,"1032, Dr Rajkumar Rd,, 4th M Block, Manjunath Nagar,, Rajajinagar 4th Block, Bangalore - 560010",+(91)-80-23144856,1120Votes,3.8,12.982549,77.559381
50,Tibet Mall,"No.47, 5th Block Industrial Layout, Koramangala, Bangalore - 560095, Opp Jyoti Nivas College",+(91)-80-41677429,1062Votes,3.7,12.93429,77.616034
51,Forum Mall,"Shop No. 008 Forum Mall, 21, Koramangala, Bengaluru, Hosur Road, Bangalore - 560029",+(91)-80-22067621,902Votes,4.6,12.9345341,77.6113399
52,Garuda Mall,"Yelahanka New Town, Bangalore - 560064, Opposite IDBI Bank",+(91)-9986693305,693Votes,4.0,13.097481,77.583984
53,Tvs Bike Showroom,"3, Sidharata Colony, Santhosapuram, 2nd Block, Btm Layout, Bengaluru, Hosur Road, Madiwala, Bangalore - 560034",+(91)-80-33724405,420Votes,3.5,12.9225362,77.6196756
54,Farico Family Mall,"No. 215, Arakere Gate, Bannerghatta Road, Bangalore - 560076, Next to Araker Gate Signal",+(91)-80-41109884,414Votes,3.8,12.8889666,77.5971899
55,Vaishnavi Sapphire Mall,"No. 9/36, Tumkur Road, Phase 1, Yeshwanthpur Industrial Suburb, Bangalore - 560022, Behind Metro Station",+(91)-80-29724422,320Votes,4.0,13.024716,77.548832
56,Coupon Shopping Mall,"No.505, MS Towers, Garvebhavi Palya, Hosur Road, Bommanahalli, Bangalore - 560068, Next To Htmt, Near Rns Motors",+(91)-9980667143,303Votes,3.8,12.898456,77.633659
57,Gopalan Promenade Mall,"No.9, 92, 80 Feet Road, 8 Block, Kathriguppe, Banashankari 3rd Stage, Bangalore - 560085",+(91)-080-49314931,159Votes,3.9,12.926537,77.550832
58,Coupon Mall,"No. 13 and 14 Kempegowda Commercial Arcade, Bangalore, Bengaluru, Kg Road, Kempegowda Road, Bangalore - 560009",+(91)-80-42815345,146Votes,3.7,12.974294,77.577925
59,Fish Spa In Gopalan Mall,"3, Swamy Vivekananda Road, Sadanandanagar, Benniganahalli, Bangalore - 560016",+(91)-9739677929,138Votes,3.6,12.993033,77.661751
60,Family Mall,"No 110 1st Stage, Sorahunse Village Madhuranagar Varthur, Uttarahalli Hobli, Bengaluru, Varthur, Bangalore - 560087",+(91)-8884510999,126Votes,4.0,12.9431043,77.7546561
61,Sri Sri Mall,"No.121,Abhiksh Complex,Ground Floor, Bull Temple Road, Basavanagudi, Bangalore - 560004, Near Halli Thindi Hotel",+(91)-80-26677087,104Votes,4.4,12.9441155,77.5676959
62,Happy Home Shopping Mall,"2nd Cross, 1st Main, Durga Parameshwari Layout, Kenchanahalli, Bangalore - 560098",+(91)-80-28602464,104Votes,4.0,12.9190278,77.5137538
63,Ramraj Cotton Magestic Mall,"Shop No.5, 6 Ground Floor Grand Majestic Mall No.12, Bengaluru, 2nd Cross Road, 2nd Cross Road6thmain Road, Gandhi Nagar, Bangalore - 560009",+(91)-9585554147,101Votes,3.6,12.977275,77.5762702
64,Total Mall,"Varthur Road, Challaghatta, Bangalore - 560095, Near Hindustan Airport",,91Votes,3.8,12.921604,77.620484
65,Adhar Shopping Mall,"24 10'11.6n 72 26'04.4e, 912, 18th Main Road, Bengaluru, Ejipura, Bangalore - 560047",+(91)-9104564753,82Votes,4.2,12.956364,77.61675
66,Kdm Shopping Mall,"Kammavari Pete, Hoskote, Bangalore - 562114",+(91)-80-27931222,78Votes,3.4,13.0733428,77.7878792
67,My Shopping Mall,"33, 6th Cross Road, Hmt Layout, Hebbal, Bengaluru, Dinnur, Bangalore - 560032",+(91)-7386174707,76Votes,3.8,13.028257,77.594303
68,Mantri Jupiter Mall,"Khb Games Village, Koramangala, Bengaluru, National Games Housing Complex, Bangalore - 560047",+(91)-9035267246,73Votes,4.1,12.945369,77.619991
69,Pcr Garden Mall,"Doddathoguru Cross Junction, Electronics City Phase 1, Bengaluru, Bangalore - 560100",+(91)-7022044477,70Votes,3.9,12.8434142,77.6444294
70,SRT Mall,"No.151/154, Hosur Main Road, Anekal Taluk, Chandapura, Bangalore - 560081, Near Karur Vysya Bank",+(91)-80-27834556,57Votes,3.5,12.801873,77.705563
71,Global Mall,"M.G., 184, M.G. Railway Colony, Sevashrama, Bengaluru, Old Mysuru Road, Bangalore - 560023",,47Votes,4.1,12.9814809,77.5633961
72,Compu Mall,"No 1/1 1st Floor, 14th Main Road, Vijayanagar, Bangalore - 560040, Next Kodandarama Temple,Behind Metro",+(91)-080-23106178,41Votes,4.2,12.9703502,77.5375455
73,Metro Mall,"Chamrajpet, Bangalore - 562135",,28Votes,4.1,13.24535,77.795884
74,Pro Fx Bengaluru Pheonix Ma..,"G 15, Phoenix Market City, Whitefield Road, Mahadevapura, Bangalore - 560048",+(91)-8067265991,25Votes,4.3,12.99771,77.696408
75,Fab Mall India Pvt Ltd,"New #92/1, Mosque Road, Frazer Town, Bangalore - 560005",+(91)-080-25804997,14Votes,3.4,12.997052,77.613469
76,Yelahanka Central,"Garuda Mall, 3rd Stage, Yelahanka, Bangalore - 560064, Opposite IDBI Bank",+(91)-80-22365147,12Votes,4.2,13.097481,77.583984
77,Shan Fashion Mall,"Geleyara Balaga Layout, Jalahalli West, Hessargatta Main Road, Bangalore - 560090",+(91)-9740008887,11Votes,4.1,13.0702941,77.5039174
78,Silicon Foot Mall,"Shop no. 5, Dr. Vishnuvardhan road, Uttarahalli, Bangalore - 560061, Next to Shanthi sagar",+(91)-80-26395786,11Votes,4.0,12.908529,77.548271
79,Princess Mall,"No.32, Hennur Main Road, Lingarajapuram, Bangalore - 560084, Near Axis Bank ATM",+(91)-080-25492857,10Votes,3.7,13.01128037,77.6255483
80,World Market,"17th Km, Old Madras Road, White Filed, Avalahali, Bangalore - 560026, Near Ravindu Toyota",+(91)-80-42699000,9Votes,3.8,12.9759797,77.547214
81,Sjr Kalpana Mall,"Balepete, Chickpet, Bengaluru, Kempegowda Road, Bangalore - 560009",+(91)-80-40405599,9Votes,3.3,12.9741082,77.5771291
82,Kabab Mall,"Bengaluru, Bangalore - 560082",+(91)-9901621058,7Votes,4.7,12.7927393,77.5053048
83,Amit World Wide,"Viveka Nagar, Bengaluru, Vivek Nagar, Bangalore - 560047",+(91)-9945154276,4Votes,4.0,12.9529217,77.6239121
84,Bubble Gummers Mantri Mall,"Unit No.S62, 2nd Floor, Mantri Square, No.1, Bengaluru, Sampige Road, Malleswaram, Bangalore - 560003",+(91)-8150830892,3Votes,4.3,12.991597,77.571222
85,Neo Mall,"1st Phase, Electronic City, Bangalore - 560100",,3Votes,3.3,12.82356,77.659906
86,Jaivika Mall,"Sampangi Rama Nagara, Bengaluru, Kasturba Road, Bangalore - 560001, Behind High Court Of Karnataka Ambedkar Veedhi",+(91)-9008373985,2Votes,2.5,12.9764035,77.5929534
87,D MALL,Bangalore - 560001,+(91)-7204828579,1Votes,5.0,12.966793871553,77.598405772589
88,Ht Palace,"Sarbandapalya, Banashankari Temple Ward, Bengaluru, Bangalore - 560078",+(91)-9606793253,1Votes,5.0,12.9157952,77.5702525
89,VR Mall,"Ugf -15,Upper Ground Floor,Vr Mall,Plot No 11 B,Survey No 40/9,Dyavasandra Villa, Bengaluru, Bangalore - 560048",+(91)-80-42565735,1Votes,4.0,12.9961532487,77.6953091
90,Total Hyper Mall,"BMP Commercial Plaza, Madiwala, Bangalore - 560068, Opposite Madivala Police",,1Votes,3.0,12.921029,77.613686
91,Ruthus Stop & Shop,"Horamavu Flyover, Bengaluru, Horamavu, Bangalore - 560043, Near Nellre Mess",,1Votes,3.0,13.0195064,77.6563875
92,Loky- Shoping Mall,"Sun City Layout, Sankranthi Layout, Arekere, Bengaluru, 5th Main Road, Bangalore - 560076",+(91)-9590455999,1Votes,3.0,12.8849198,77.5875615
93,Saikam Skyee,"54/6, Devarabisanahalli, Bengaluru, Marathahalli Sarjapur Outer Ring Road, Bellandur, Bangalore - 560103",+(91)-9731599993,1Votes,3.0,12.9321908,77.6868321
94,Gt World Mall,"No.92, Vijayanagar, Bangalore - 560040, Next to Prasanna Theater",+(91)-080-46329003,35276Votes,4.3,12.973289,77.551365
95,Gopalan Arcade Mall,"No.447/1812, 1st Block, Pantharapalya, Mysore Road, Rajarajeshwari Nagar, Bangalore - 560098",+(91)-080-28602945,33839Votes,4.0,12.935603,77.517814
96,The Forum Neighbourhood Mal..,"No.62, Whitefield Main Road, Bangalore - 560066, Near Varthur Lake",+(91)-080-25043800,32837Votes,4.2,12.959765,77.747283
97,Gopalan Signature Mall,"No.6, Old Madras Road, Nagavarapalya, Bangalore - 560093, Opposite  Rmz",+(91)-80-25246246,32479Votes,4.0,12.993105,77.661557
98,Lido Shopping Mall,"No.1/1, Ista Compound, Vivekananda Road, Ulsoor, Bangalore - 560008, Near Trinity Circle",+(91)-080-22086573,28959Votes,4.0,12.97352,77.620277
99,Eta Mall,"No. 1, Hosakere Road, Binnypete, Bangalore - 560026, Opposite Balekayi Mandi",+(91)-080-67410009,28796Votes,4.0,12.965487,77.562072
100,Bangalore Central Mall,"No.45/1/45/2, 45th Cross, Jp Nagar 2nd Phase, Bangalore - 560078, Near Ragigudda Temple",18002107777,26379Votes,4.2,12.916358,77.592643
101,Inorbit Mall,"Plot No. 75, Epip Industrial Park, Whitefield, Bangalore - 560066, Next To Sathya Sai Hospital",+(91)-080-67280000,25790Votes,4.0,12.979204,77.728195
102,Orion East,"No.10/34, Banaswadi Main Road, Maruthi Sevanagar, Bangalore - 560033",+(91)-080-23094444,25313Votes,4.2,13.001731,77.632705
103,Kempfort,"No.97, Old Airport Road, Bangalore - 560017",+(91)-9845166666,23467Votes,3.9,12.958664,77.65687
104,Forum Shantiniketan,"Whitefield Main Road, Bangalore - 560067, Opposite Manipal Hospital",+(91)-080-25018225,23260Votes,4.4,12.989372,77.728227
105,Gopalan Legacy Mall,"No. 148, Mysore Road, Bangalore - 560026, Near Sirsi Circle",+(91)-80-26752122,22559Votes,3.9,12.958267,77.553552
106,Brookefield Mall,"ITPL Main Road, Brookefield, Bangalore - 560037",+(91)-080-41188997,21515Votes,3.9,12.966054,77.718134
107,One Mg Mall,"No.1/2, Swami Vivekananda Road, M G Road, Bangalore - 560001, Opposite Vivanta By Taj",+(91)-80-22086565,20344Votes,4.0,12.97352,77.620277
108,Sri Garuda Swagath Mall,"Tilak Nagar, Jayanagar 4th Block, Bangalore - 560011, Opposite Police Station",+(91)-080-41309058,16519Votes,3.9,12.929108,77.591354
109,Ascendas Park Square Mall,"International Tech Park, Whitefield, Bangalore - 560066",+(91)-080-41880888,16329Votes,4.1,12.98729,77.736413
110,Rockline Mall,"No 8, Jalahalli Cross, T Dasarahalli, Bangalore - 560057, Chokkasandra",+(91)-9113939690,16159Votes,3.8,13.040947,77.518342
111,Gopalan Grand Mall,"Gopalan Grand Mall, Nagavar Palya, Old Madras Road, Bangalore - 560016, Above More Supermarket",+(91)-080-25242484,16006Votes,4.1,12.993416,77.663828
112,Presto Kemp Fort Mall,"No 97, 1st Floor, Kemp Fort Mall, Ramagiri, Murugesh Palya, Old Airport Road, Bangalore - 560017, Near Kemp Fort Shiv Temple",+(91)-8217690383,15235Votes,3.8,12.9587516,77.6568341
113,RMZ Galleria Mall,"Ambedkar Colony, Yelahanka, Bangalore - 560064, Opposite Yelahanka Police Station",+(91)-080-68137475,15176Votes,4.4,13.093264,77.59521
114,Sigma Central,"No.15, 16 &amp; 17, Cunningham Road, Bangalore - 560052, Near Westminister",,12576Votes,3.7,12.98803,77.594578
115,Arena Mall,"Out Ring Road, Doddanekundi Extension, Bangalore - 560037",+(91)-080-33569555,10879Votes,4.1,12.9797323,77.6937706
116,Market Square Mall,"Market Square Mall, Madiwala, Bangalore - 560068, Opposite Police Station",+(91)-9900098971,10538Votes,4.0,12.921655,77.620458
117,Esteem Mall,"No.127/128, Bellary Road, Hebbal, Bangalore - 560024, Near Hebbal Fly Over",,9908Votes,3.6,13.049294,77.592998
118,Market Square Mall,"Sarjapur Main Rd, Harlur, Bengaluru, Ambalipura, Bangalore - 560103",+(91)-9741511885,8953Votes,4.0,12.91692,77.671501
119,Golden Height Mall,"Dr Rajkumar Road, 4m Block, Rajajinagar, Bangalore - 560010",,6960Votes,3.9,12.982868,77.55981
120,Virginia Mall,"Whitefield, Bangalore - 560066, Near Varthur Lake &amp; Next To Columbia Asia Hospital",+(91)-080-67424950,6681Votes,3.6,12.957276,77.745286
121,KLM Fashion Mall,"No 518, Varthur Road Marathahalli Village Marathahalli, Marathahalli, Bangalore - 560037, Near to Marathahalli Village",+(91)-80-43746553,4173Votes,3.7,12.9567993,77.7007577
122,South India Shopping Mall,"Survey No 194, 195, Ground Floor, Sarala Grand, Bannerghatta Main Road, Arakere, Bangalore - 560076, Opposite to HSBC",+(91)-080-26489990,3439Votes,3.8,12.8908367,77.5975071
123,Royal Meenakshi Mall,"No. E1/16, 1st Cross, Bannerghatta Road, Bangalore - 560076, Opposite Meenakshi Temple",+(91)-080-67080100,2991Votes,4.2,12.876198,77.59544
124,Grand Majestic Commercial C..,"No.12, 2nd Cross, 6th Main, Gandhi Nagar, Bangalore - 560009, Opposite Gubbi Rang Mandir, Near Sukh Sagar",+(91)-8880874000,2939Votes,3.7,12.977204,77.576348
125,Eva Mall,"No.60, Brigade Road, Bangalore - 560025, Next To Hm Towers",+(91)-9902622668,2321Votes,3.9,12.970991,77.607258
126,South INDIA Shopping Mall,"Survey No. 35, 35/1, 35/2, Subbarama Chetty Road, Nettakallappa Circle, Basavanagudi, Bangalore - 560004, Opposite Anand Sagar Restaurant",+(91)-80-22426666,1934Votes,3.6,12.9389798,77.5717467
127,Arya Hub Mall,"No.92, Itpl Main Road, Prasanth Extension, Whitefield, Bangalore - 560066",+(91)-9902078287,1608Votes,3.5,12.983362,77.752012
128,Klm Fashion Mall,"No. 515, 47th Cross, 5th Block, Tmc Layout, Jayanagar, Bangalore - 560041, Near Renuka Theatre",+(91)-80-43746551,1455Votes,3.8,12.91685,77.582067
129,South India Shopping Mall,"Sy No.57/1, Whitefield Road, Dodsworth Layout, Whitefield, Bangalore - 560066, Opposite Whitefield Busstop",+(91)-80-28452222,1418Votes,3.5,12.969741,77.7497526
130,Palace Mall,"36, Bharati Nagar, Bengaluru, Seppings Road, Shivaji Nagar, Bangalore - 560051",,1417Votes,3.8,12.986316,77.608131
131,Prestige Forum Mall,"Thigalarapalya, Hoodi, Bengaluru, Bangalore - 560067",,1376Votes,4.4,12.9892207,77.7279723
132,KLM Fashion Mall,"No 1676, 27th Main Road Hsr Layout, HSR Layout, Bangalore - 560102",+(91)-80-43746552,1153Votes,3.6,12.9083796,77.6515421
133,Westgate Value Mall,"1032, Dr Rajkumar Rd,, 4th M Block, Manjunath Nagar,, Rajajinagar 4th Block, Bangalore - 560010",+(91)-80-23144856,1120Votes,3.8,12.982549,77.559381
134,Tibet Mall,"No.47, 5th Block Industrial Layout, Koramangala, Bangalore - 560095, Opp Jyoti Nivas College",+(91)-80-41677429,1062Votes,3.7,12.93429,77.616034
135,Forum Mall,"Shop No. 008 Forum Mall, 21, Koramangala, Bengaluru, Hosur Road, Bangalore - 560029",+(91)-80-22067621,902Votes,4.6,12.9345341,77.6113399
136,Garuda Mall,"Yelahanka New Town, Bangalore - 560064, Opposite IDBI Bank",+(91)-9986693305,693Votes,4.0,13.097481,77.583984
137,Tvs Bike Showroom,"3, Sidharata Colony, Santhosapuram, 2nd Block, Btm Layout, Bengaluru, Hosur Road, Madiwala, Bangalore - 560034",+(91)-80-33724405,420Votes,3.5,12.9225362,77.6196756
138,Farico Family Mall,"No. 215, Arakere Gate, Bannerghatta Road, Bangalore - 560076, Next to Araker Gate Signal",+(91)-80-41109884,414Votes,3.8,12.8889666,77.5971899
139,Vaishnavi Sapphire Mall,"No. 9/36, Tumkur Road, Phase 1, Yeshwanthpur Industrial Suburb, Bangalore - 560022, Behind Metro Station",+(91)-80-29724422,320Votes,4.0,13.024716,77.548832
140,Coupon Shopping Mall,"No.505, MS Towers, Garvebhavi Palya, Hosur Road, Bommanahalli, Bangalore - 560068, Next To Htmt, Near Rns Motors",+(91)-9980667143,303Votes,3.8,12.898456,77.633659
141,Gopalan Promenade Mall,"No.9, 92, 80 Feet Road, 8 Block, Kathriguppe, Banashankari 3rd Stage, Bangalore - 560085",+(91)-080-49314931,159Votes,3.9,12.926537,77.550832
142,Coupon Mall,"No. 13 and 14 Kempegowda Commercial Arcade, Bangalore, Bengaluru, Kg Road, Kempegowda Road, Bangalore - 560009",+(91)-80-42815345,146Votes,3.7,12.974294,77.577925
143,Fish Spa In Gopalan Mall,"3, Swamy Vivekananda Road, Sadanandanagar, Benniganahalli, Bangalore - 560016",+(91)-9739677929,138Votes,3.6,12.993033,77.661751
144,Family Mall,"No 110 1st Stage, Sorahunse Village Madhuranagar Varthur, Uttarahalli Hobli, Bengaluru, Varthur, Bangalore - 560087",+(91)-8884510999,126Votes,4.0,12.9431043,77.7546561
145,Sri Sri Mall,"No.121,Abhiksh Complex,Ground Floor, Bull Temple Road, Basavanagudi, Bangalore - 560004, Near Halli Thindi Hotel",+(91)-80-26677087,104Votes,4.4,12.9441155,77.5676959
146,Happy Home Shopping Mall,"2nd Cross, 1st Main, Durga Parameshwari Layout, Kenchanahalli, Bangalore - 560098",+(91)-80-28602464,104Votes,4.0,12.9190278,77.5137538
147,Ramraj Cotton Magestic Mall,"Shop No.5, 6 Ground Floor Grand Majestic Mall No.12, Bengaluru, 2nd Cross Road, 2nd Cross Road6thmain Road, Gandhi Nagar, Bangalore - 560009",+(91)-9585554147,101Votes,3.6,12.977275,77.5762702
148,Total Mall,"Varthur Road, Challaghatta, Bangalore - 560095, Near Hindustan Airport",,91Votes,3.8,12.921604,77.620484
149,Adhar Shopping Mall,"24 10'11.6n 72 26'04.4e, 912, 18th Main Road, Bengaluru, Ejipura, Bangalore - 560047",+(91)-9104564753,82Votes,4.2,12.956364,77.61675
150,Kdm Shopping Mall,"Kammavari Pete, Hoskote, Bangalore - 562114",+(91)-80-27931222,78Votes,3.4,13.0733428,77.7878792
151,My Shopping Mall,"33, 6th Cross Road, Hmt Layout, Hebbal, Bengaluru, Dinnur, Bangalore - 560032",+(91)-7386174707,76Votes,3.8,13.028257,77.594303
152,Mantri Jupiter Mall,"Khb Games Village, Koramangala, Bengaluru, National Games Housing Complex, Bangalore - 560047",+(91)-9035267246,73Votes,4.1,12.945369,77.619991
153,Pcr Garden Mall,"Doddathoguru Cross Junction, Electronics City Phase 1, Bengaluru, Bangalore - 560100",+(91)-7022044477,70Votes,3.9,12.8434142,77.6444294
154,SRT Mall,"No.151/154, Hosur Main Road, Anekal Taluk, Chandapura, Bangalore - 560081, Near Karur Vysya Bank",+(91)-80-27834556,57Votes,3.5,12.801873,77.705563
155,Global Mall,"M.G., 184, M.G. Railway Colony, Sevashrama, Bengaluru, Old Mysuru Road, Bangalore - 560023",,47Votes,4.1,12.9814809,77.5633961
156,Compu Mall,"No 1/1 1st Floor, 14th Main Road, Vijayanagar, Bangalore - 560040, Next Kodandarama Temple,Behind Metro",+(91)-080-23106178,41Votes,4.2,12.9703502,77.5375455
157,Metro Mall,"Chamrajpet, Bangalore - 562135",,28Votes,4.1,13.24535,77.795884
158,Pro Fx Bengaluru Pheonix Ma..,"G 15, Phoenix Market City, Whitefield Road, Mahadevapura, Bangalore - 560048",+(91)-8067265991,25Votes,4.3,12.99771,77.696408
159,Fab Mall India Pvt Ltd,"New #92/1, Mosque Road, Frazer Town, Bangalore - 560005",+(91)-080-25804997,14Votes,3.4,12.997052,77.613469
160,Yelahanka Central,"Garuda Mall, 3rd Stage, Yelahanka, Bangalore - 560064, Opposite IDBI Bank",+(91)-80-22365147,12Votes,4.2,13.097481,77.583984
161,Shan Fashion Mall,"Geleyara Balaga Layout, Jalahalli West, Hessargatta Main Road, Bangalore - 560090",+(91)-9740008887,11Votes,4.1,13.0702941,77.5039174
162,Silicon Foot Mall,"Shop no. 5, Dr. Vishnuvardhan road, Uttarahalli, Bangalore - 560061, Next to Shanthi sagar",+(91)-80-26395786,11Votes,4.0,12.908529,77.548271
163,Princess Mall,"No.32, Hennur Main Road, Lingarajapuram, Bangalore - 560084, Near Axis Bank ATM",+(91)-080-25492857,10Votes,3.7,13.01128037,77.6255483
164,World Market,"17th Km, Old Madras Road, White Filed, Avalahali, Bangalore - 560026, Near Ravindu Toyota",+(91)-80-42699000,9Votes,3.8,12.9759797,77.547214
165,Sjr Kalpana Mall,"Balepete, Chickpet, Bengaluru, Kempegowda Road, Bangalore - 560009",+(91)-80-40405599,9Votes,3.3,12.9741082,77.5771291
166,Kabab Mall,"Bengaluru, Bangalore - 560082",+(91)-9901621058,7Votes,4.7,12.7927393,77.5053048
167,Amit World Wide,"Viveka Nagar, Bengaluru, Vivek Nagar, Bangalore - 560047",+(91)-9945154276,4Votes,4.0,12.9529217,77.6239121
168,Bubble Gummers Mantri Mall,"Unit No.S62, 2nd Floor, Mantri Square, No.1, Bengaluru, Sampige Road, Malleswaram, Bangalore - 560003",+(91)-8150830892,3Votes,4.3,12.991597,77.571222
169,Neo Mall,"1st Phase, Electronic City, Bangalore - 560100",,3Votes,3.3,12.82356,77.659906
170,Jaivika Mall,"Sampangi Rama Nagara, Bengaluru, Kasturba Road, Bangalore - 560001, Behind High Court Of Karnataka Ambedkar Veedhi",+(91)-9008373985,2Votes,2.5,12.9764035,77.5929534
171,D MALL,Bangalore - 560001,+(91)-7204828579,1Votes,5.0,12.966793871553,77.598405772589
172,Ht Palace,"Sarbandapalya, Banashankari Temple Ward, Bengaluru, Bangalore - 560078",+(91)-9606793253,1Votes,5.0,12.9157952,77.5702525
173,VR Mall,"Ugf -15,Upper Ground Floor,Vr Mall,Plot No 11 B,Survey No 40/9,Dyavasandra Villa, Bengaluru, Bangalore - 560048",+(91)-80-42565735,1Votes,4.0,12.9961532487,77.6953091
174,Total Hyper Mall,"BMP Commercial Plaza, Madiwala, Bangalore - 560068, Opposite Madivala Police",,1Votes,3.0,12.921029,77.613686
175,Ruthus Stop & Shop,"Horamavu Flyover, Bengaluru, Horamavu, Bangalore - 560043, Near Nellre Mess",,1Votes,3.0,13.0195064,77.6563875
176,Loky- Shoping Mall,"Sun City Layout, Sankranthi Layout, Arekere, Bengaluru, 5th Main Road, Bangalore - 560076",+(91)-9590455999,1Votes,3.0,12.8849198,77.5875615
177,Saikam Skyee,"54/6, Devarabisanahalli, Bengaluru, Marathahalli Sarjapur Outer Ring Road, Bellandur, Bangalore - 560103",+(91)-9731599993,1Votes,3.0,12.9321908,77.6868321
178,Forum Shantiniketan,"Whitefield Main Road, Bangalore - 560067, Opposite Manipal Hospital",+(91)-080-25018225,23260Votes,4.4,12.989372,77.728227
179,Gopalan Legacy Mall,"No. 148, Mysore Road, Bangalore - 560026, Near Sirsi Circle",+(91)-80-26752122,22559Votes,3.9,12.958267,77.553552
180,Brookefield Mall,"ITPL Main Road, Brookefield, Bangalore - 560037",+(91)-080-41188997,21515Votes,3.9,12.966054,77.718134
181,One Mg Mall,"No.1/2, Swami Vivekananda Road, M G Road, Bangalore - 560001, Opposite Vivanta By Taj",+(91)-80-22086565,20344Votes,4.0,12.97352,77.620277
182,Sri Garuda Swagath Mall,"Tilak Nagar, Jayanagar 4th Block, Bangalore - 560011, Opposite Police Station",+(91)-080-41309058,16519Votes,3.9,12.929108,77.591354
183,Ascendas Park Square Mall,"International Tech Park, Whitefield, Bangalore - 560066",+(91)-080-41880888,16329Votes,4.1,12.98729,77.736413
184,Rockline Mall,"No 8, Jalahalli Cross, T Dasarahalli, Bangalore - 560057, Chokkasandra",+(91)-9113939690,16159Votes,3.8,13.040947,77.518342
185,Gopalan Grand Mall,"Gopalan Grand Mall, Nagavar Palya, Old Madras Road, Bangalore - 560016, Above More Supermarket",+(91)-080-25242484,16006Votes,4.1,12.993416,77.663828
186,Presto Kemp Fort Mall,"No 97, 1st Floor, Kemp Fort Mall, Ramagiri, Murugesh Palya, Old Airport Road, Bangalore - 560017, Near Kemp Fort Shiv Temple",+(91)-8217690383,15235Votes,3.8,12.9587516,77.6568341
187,RMZ Galleria Mall,"Ambedkar Colony, Yelahanka, Bangalore - 560064, Opposite Yelahanka Police Station",+(91)-080-68137475,15176Votes,4.4,13.093264,77.59521
188,Sigma Central,"No.15, 16 &amp; 17, Cunningham Road, Bangalore - 560052, Near Westminister",,12576Votes,3.7,12.98803,77.594578
189,Arena Mall,"Out Ring Road, Doddanekundi Extension, Bangalore - 560037",+(91)-080-33569555,10879Votes,4.1,12.9797323,77.6937706
190,Market Square Mall,"Market Square Mall, Madiwala, Bangalore - 560068, Opposite Police Station",+(91)-9900098971,10538Votes,4.0,12.921655,77.620458
191,Esteem Mall,"No.127/128, Bellary Road, Hebbal, Bangalore - 560024, Near Hebbal Fly Over",,9908Votes,3.6,13.049294,77.592998
192,Market Square Mall,"Sarjapur Main Rd, Harlur, Bengaluru, Ambalipura, Bangalore - 560103",+(91)-9741511885,8953Votes,4.0,12.91692,77.671501
193,Golden Height Mall,"Dr Rajkumar Road, 4m Block, Rajajinagar, Bangalore - 560010",,6960Votes,3.9,12.982868,77.55981
194,Virginia Mall,"Whitefield, Bangalore - 560066, Near Varthur Lake &amp; Next To Columbia Asia Hospital",+(91)-080-67424950,6681Votes,3.6,12.957276,77.745286
195,KLM Fashion Mall,"No 518, Varthur Road Marathahalli Village Marathahalli, Marathahalli, Bangalore - 560037, Near to Marathahalli Village",+(91)-80-43746553,4173Votes,3.7,12.9567993,77.7007577
196,South India Shopping Mall,"Survey No 194, 195, Ground Floor, Sarala Grand, Bannerghatta Main Road, Arakere, Bangalore - 560076, Opposite to HSBC",+(91)-080-26489990,3439Votes,3.8,12.8908367,77.5975071
197,Royal Meenakshi Mall,"No. E1/16, 1st Cross, Bannerghatta Road, Bangalore - 560076, Opposite Meenakshi Temple",+(91)-080-67080100,2991Votes,4.2,12.876198,77.59544
198,Grand Majestic Commercial C..,"No.12, 2nd Cross, 6th Main, Gandhi Nagar, Bangalore - 560009, Opposite Gubbi Rang Mandir, Near Sukh Sagar",+(91)-8880874000,2939Votes,3.7,12.977204,77.576348
199,Eva Mall,"No.60, Brigade Road, Bangalore - 560025, Next To Hm Towers",+(91)-9902622668,2321Votes,3.9,12.970991,77.607258
200,South INDIA Shopping Mall,"Survey No. 35, 35/1, 35/2, Subbarama Chetty Road, Nettakallappa Circle, Basavanagudi, Bangalore - 560004, Opposite Anand Sagar Restaurant",+(91)-80-22426666,1934Votes,3.6,12.9389798,77.5717467
201,Arya Hub Mall,"No.92, Itpl Main Road, Prasanth Extension, Whitefield, Bangalore - 560066",+(91)-9902078287,1608Votes,3.5,12.983362,77.752012
202,Klm Fashion Mall,"No. 515, 47th Cross, 5th Block, Tmc Layout, Jayanagar, Bangalore - 560041, Near Renuka Theatre",+(91)-80-43746551,1455Votes,3.8,12.91685,77.582067
203,South India Shopping Mall,"Sy No.57/1, Whitefield Road, Dodsworth Layout, Whitefield, Bangalore - 560066, Opposite Whitefield Busstop",+(91)-80-28452222,1418Votes,3.5,12.969741,77.7497526
204,Palace Mall,"36, Bharati Nagar, Bengaluru, Seppings Road, Shivaji Nagar, Bangalore - 560051",,1417Votes,3.8,12.986316,77.608131
205,Prestige Forum Mall,"Thigalarapalya, Hoodi, Bengaluru, Bangalore - 560067",,1376Votes,4.4,12.9892207,77.7279723
206,KLM Fashion Mall,"No 1676, 27th Main Road Hsr Layout, HSR Layout, Bangalore - 560102",+(91)-80-43746552,1153Votes,3.6,12.9083796,77.6515421
207,Westgate Value Mall,"1032, Dr Rajkumar Rd,, 4th M Block, Manjunath Nagar,, Rajajinagar 4th Block, Bangalore - 560010",+(91)-80-23144856,1120Votes,3.8,12.982549,77.559381
208,Tibet Mall,"No.47, 5th Block Industrial Layout, Koramangala, Bangalore - 560095, Opp Jyoti Nivas College",+(91)-80-41677429,1062Votes,3.7,12.93429,77.616034
209,Forum Mall,"Shop No. 008 Forum Mall, 21, Koramangala, Bengaluru, Hosur Road, Bangalore - 560029",+(91)-80-22067621,902Votes,4.6,12.9345341,77.6113399
210,Garuda Mall,"Yelahanka New Town, Bangalore - 560064, Opposite IDBI Bank",+(91)-9986693305,693Votes,4.0,13.097481,77.583984
211,Tvs Bike Showroom,"3, Sidharata Colony, Santhosapuram, 2nd Block, Btm Layout, Bengaluru, Hosur Road, Madiwala, Bangalore - 560034",+(91)-80-33724405,420Votes,3.5,12.9225362,77.6196756
212,Farico Family Mall,"No. 215, Arakere Gate, Bannerghatta Road, Bangalore - 560076, Next to Araker Gate Signal",+(91)-80-41109884,414Votes,3.8,12.8889666,77.5971899
213,Vaishnavi Sapphire Mall,"No. 9/36, Tumkur Road, Phase 1, Yeshwanthpur Industrial Suburb, Bangalore - 560022, Behind Metro Station",+(91)-80-29724422,320Votes,4.0,13.024716,77.548832
214,Coupon Shopping Mall,"No.505, MS Towers, Garvebhavi Palya, Hosur Road, Bommanahalli, Bangalore - 560068, Next To Htmt, Near Rns Motors",+(91)-9980667143,303Votes,3.8,12.898456,77.633659
215,Gopalan Promenade Mall,"No.9, 92, 80 Feet Road, 8 Block, Kathriguppe, Banashankari 3rd Stage, Bangalore - 560085",+(91)-080-49314931,159Votes,3.9,12.926537,77.550832
216,Coupon Mall,"No. 13 and 14 Kempegowda Commercial Arcade, Bangalore, Bengaluru, Kg Road, Kempegowda Road, Bangalore - 560009",+(91)-80-42815345,146Votes,3.7,12.974294,77.577925
217,Fish Spa In Gopalan Mall,"3, Swamy Vivekananda Road, Sadanandanagar, Benniganahalli, Bangalore - 560016",+(91)-9739677929,138Votes,3.6,12.993033,77.661751
218,Family Mall,"No 110 1st Stage, Sorahunse Village Madhuranagar Varthur, Uttarahalli Hobli, Bengaluru, Varthur, Bangalore - 560087",+(91)-8884510999,126Votes,4.0,12.9431043,77.7546561
219,Sri Sri Mall,"No.121,Abhiksh Complex,Ground Floor, Bull Temple Road, Basavanagudi, Bangalore - 560004, Near Halli Thindi Hotel",+(91)-80-26677087,104Votes,4.4,12.9441155,77.5676959
220,Happy Home Shopping Mall,"2nd Cross, 1st Main, Durga Parameshwari Layout, Kenchanahalli, Bangalore - 560098",+(91)-80-28602464,104Votes,4.0,12.9190278,77.5137538
221,Ramraj Cotton Magestic Mall,"Shop No.5, 6 Ground Floor Grand Majestic Mall No.12, Bengaluru, 2nd Cross Road, 2nd Cross Road6thmain Road, Gandhi Nagar, Bangalore - 560009",+(91)-9585554147,101Votes,3.6,12.977275,77.5762702
222,Total Mall,"Varthur Road, Challaghatta, Bangalore - 560095, Near Hindustan Airport",,91Votes,3.8,12.921604,77.620484
223,Adhar Shopping Mall,"24 10'11.6n 72 26'04.4e, 912, 18th Main Road, Bengaluru, Ejipura, Bangalore - 560047",+(91)-9104564753,82Votes,4.2,12.956364,77.61675
224,Kdm Shopping Mall,"Kammavari Pete, Hoskote, Bangalore - 562114",+(91)-80-27931222,78Votes,3.4,13.0733428,77.7878792
225,My Shopping Mall,"33, 6th Cross Road, Hmt Layout, Hebbal, Bengaluru, Dinnur, Bangalore - 560032",+(91)-7386174707,76Votes,3.8,13.028257,77.594303
226,Mantri Jupiter Mall,"Khb Games Village, Koramangala, Bengaluru, National Games Housing Complex, Bangalore - 560047",+(91)-9035267246,73Votes,4.1,12.945369,77.619991
227,Pcr Garden Mall,"Doddathoguru Cross Junction, Electronics City Phase 1, Bengaluru, Bangalore - 560100",+(91)-7022044477,70Votes,3.9,12.8434142,77.6444294
228,SRT Mall,"No.151/154, Hosur Main Road, Anekal Taluk, Chandapura, Bangalore - 560081, Near Karur Vysya Bank",+(91)-80-27834556,57Votes,3.5,12.801873,77.705563
229,Global Mall,"M.G., 184, M.G. Railway Colony, Sevashrama, Bengaluru, Old Mysuru Road, Bangalore - 560023",,47Votes,4.1,12.9814809,77.5633961
230,Compu Mall,"No 1/1 1st Floor, 14th Main Road, Vijayanagar, Bangalore - 560040, Next Kodandarama Temple,Behind Metro",+(91)-080-23106178,41Votes,4.2,12.9703502,77.5375455
231,Metro Mall,"Chamrajpet, Bangalore - 562135",,28Votes,4.1,13.24535,77.795884
232,Pro Fx Bengaluru Pheonix Ma..,"G 15, Phoenix Market City, Whitefield Road, Mahadevapura, Bangalore - 560048",+(91)-8067265991,25Votes,4.3,12.99771,77.696408
233,Fab Mall India Pvt Ltd,"New #92/1, Mosque Road, Frazer Town, Bangalore - 560005",+(91)-080-25804997,14Votes,3.4,12.997052,77.613469
234,Yelahanka Central,"Garuda Mall, 3rd Stage, Yelahanka, Bangalore - 560064, Opposite IDBI Bank",+(91)-80-22365147,12Votes,4.2,13.097481,77.583984
235,Shan Fashion Mall,"Geleyara Balaga Layout, Jalahalli West, Hessargatta Main Road, Bangalore - 560090",+(91)-9740008887,11Votes,4.1,13.0702941,77.5039174
236,Silicon Foot Mall,"Shop no. 5, Dr. Vishnuvardhan road, Uttarahalli, Bangalore - 560061, Next to Shanthi sagar",+(91)-80-26395786,11Votes,4.0,12.908529,77.548271
237,Princess Mall,"No.32, Hennur Main Road, Lingarajapuram, Bangalore - 560084, Near Axis Bank ATM",+(91)-080-25492857,10Votes,3.7,13.01128037,77.6255483
238,World Market,"17th Km, Old Madras Road, White Filed, Avalahali, Bangalore - 560026, Near Ravindu Toyota",+(91)-80-42699000,9Votes,3.8,12.9759797,77.547214
239,Sjr Kalpana Mall,"Balepete, Chickpet, Bengaluru, Kempegowda Road, Bangalore - 560009",+(91)-80-40405599,9Votes,3.3,12.9741082,77.5771291
240,Kabab Mall,"Bengaluru, Bangalore - 560082",+(91)-9901621058,7Votes,4.7,12.7927393,77.5053048
241,Amit World Wide,"Viveka Nagar, Bengaluru, Vivek Nagar, Bangalore - 560047",+(91)-9945154276,4Votes,4.0,12.9529217,77.6239121
242,Bubble Gummers Mantri Mall,"Unit No.S62, 2nd Floor, Mantri Square, No.1, Bengaluru, Sampige Road, Malleswaram, Bangalore - 560003",+(91)-8150830892,3Votes,4.3,12.991597,77.571222
243,Neo Mall,"1st Phase, Electronic City, Bangalore - 560100",,3Votes,3.3,12.82356,77.659906
244,Jaivika Mall,"Sampangi Rama Nagara, Bengaluru, Kasturba Road, Bangalore - 560001, Behind High Court Of Karnataka Ambedkar Veedhi",+(91)-9008373985,2Votes,2.5,12.9764035,77.5929534
245,D MALL,Bangalore - 560001,+(91)-7204828579,1Votes,5.0,12.966793871553,77.598405772589
246,Ht Palace,"Sarbandapalya, Banashankari Temple Ward, Bengaluru, Bangalore - 560078",+(91)-9606793253,1Votes,5.0,12.9157952,77.5702525
247,VR Mall,"Ugf -15,Upper Ground Floor,Vr Mall,Plot No 11 B,Survey No 40/9,Dyavasandra Villa, Bengaluru, Bangalore - 560048",+(91)-80-42565735,1Votes,4.0,12.9961532487,77.6953091
248,Total Hyper Mall,"BMP Commercial Plaza, Madiwala, Bangalore - 560068, Opposite Madivala Police",,1Votes,3.0,12.921029,77.613686
249,Ruthus Stop & Shop,"Horamavu Flyover, Bengaluru, Horamavu, Bangalore - 560043, Near Nellre Mess",,1Votes,3.0,13.0195064,77.6563875
250,Loky- Shoping Mall,"Sun City Layout, Sankranthi Layout, Arekere, Bengaluru, 5th Main Road, Bangalore - 560076",+(91)-9590455999,1Votes,3.0,12.8849198,77.5875615
251,Saikam Skyee,"54/6, Devarabisanahalli, Bengaluru, Marathahalli Sarjapur Outer Ring Road, Bellandur, Bangalore - 560103",+(91)-9731599993,1Votes,3.0,12.9321908,77.6868321
252,Sigma Central,"No.15, 16 &amp; 17, Cunningham Road, Bangalore - 560052, Near Westminister",,12576Votes,3.7,12.98803,77.594578
253,Arena Mall,"Out Ring Road, Doddanekundi Extension, Bangalore - 560037",+(91)-080-33569555,10879Votes,4.1,12.9797323,77.6937706
254,Market Square Mall,"Market Square Mall, Madiwala, Bangalore - 560068, Opposite Police Station",+(91)-9900098971,10538Votes,4.0,12.921655,77.620458
255,Esteem Mall,"No.127/128, Bellary Road, Hebbal, Bangalore - 560024, Near Hebbal Fly Over",,9908Votes,3.6,13.049294,77.592998
256,Market Square Mall,"Sarjapur Main Rd, Harlur, Bengaluru, Ambalipura, Bangalore - 560103",+(91)-9741511885,8953Votes,4.0,12.91692,77.671501
257,Golden Height Mall,"Dr Rajkumar Road, 4m Block, Rajajinagar, Bangalore - 560010",,6960Votes,3.9,12.982868,77.55981
258,Virginia Mall,"Whitefield, Bangalore - 560066, Near Varthur Lake &amp; Next To Columbia Asia Hospital",+(91)-080-67424950,6681Votes,3.6,12.957276,77.745286
259,KLM Fashion Mall,"No 518, Varthur Road Marathahalli Village Marathahalli, Marathahalli, Bangalore - 560037, Near to Marathahalli Village",+(91)-80-43746553,4173Votes,3.7,12.9567993,77.7007577
260,South India Shopping Mall,"Survey No 194, 195, Ground Floor, Sarala Grand, Bannerghatta Main Road, Arakere, Bangalore - 560076, Opposite to HSBC",+(91)-080-26489990,3439Votes,3.8,12.8908367,77.5975071
261,Royal Meenakshi Mall,"No. E1/16, 1st Cross, Bannerghatta Road, Bangalore - 560076, Opposite Meenakshi Temple",+(91)-080-67080100,2991Votes,4.2,12.876198,77.59544
262,Grand Majestic Commercial C..,"No.12, 2nd Cross, 6th Main, Gandhi Nagar, Bangalore - 560009, Opposite Gubbi Rang Mandir, Near Sukh Sagar",+(91)-8880874000,2939Votes,3.7,12.977204,77.576348
263,Eva Mall,"No.60, Brigade Road, Bangalore - 560025, Next To Hm Towers",+(91)-9902622668,2321Votes,3.9,12.970991,77.607258
264,South INDIA Shopping Mall,"Survey No. 35, 35/1, 35/2, Subbarama Chetty Road, Nettakallappa Circle, Basavanagudi, Bangalore - 560004, Opposite Anand Sagar Restaurant",+(91)-80-22426666,1934Votes,3.6,12.9389798,77.5717467
265,Arya Hub Mall,"No.92, Itpl Main Road, Prasanth Extension, Whitefield, Bangalore - 560066",+(91)-9902078287,1608Votes,3.5,12.983362,77.752012
266,Klm Fashion Mall,"No. 515, 47th Cross, 5th Block, Tmc Layout, Jayanagar, Bangalore - 560041, Near Renuka Theatre",+(91)-80-43746551,1455Votes,3.8,12.91685,77.582067
267,South India Shopping Mall,"Sy No.57/1, Whitefield Road, Dodsworth Layout, Whitefield, Bangalore - 560066, Opposite Whitefield Busstop",+(91)-80-28452222,1418Votes,3.5,12.969741,77.7497526
268,Palace Mall,"36, Bharati Nagar, Bengaluru, Seppings Road, Shivaji Nagar, Bangalore - 560051",,1417Votes,3.8,12.986316,77.608131
269,Prestige Forum Mall,"Thigalarapalya, Hoodi, Bengaluru, Bangalore - 560067",,1376Votes,4.4,12.9892207,77.7279723
270,KLM Fashion Mall,"No 1676, 27th Main Road Hsr Layout, HSR Layout, Bangalore - 560102",+(91)-80-43746552,1153Votes,3.6,12.9083796,77.6515421
271,Westgate Value Mall,"1032, Dr Rajkumar Rd,, 4th M Block, Manjunath Nagar,, Rajajinagar 4th Block, Bangalore - 560010",+(91)-80-23144856,1120Votes,3.8,12.982549,77.559381
272,Tibet Mall,"No.47, 5th Block Industrial Layout, Koramangala, Bangalore - 560095, Opp Jyoti Nivas College",+(91)-80-41677429,1062Votes,3.7,12.93429,77.616034
273,Forum Mall,"Shop No. 008 Forum Mall, 21, Koramangala, Bengaluru, Hosur Road, Bangalore - 560029",+(91)-80-22067621,902Votes,4.6,12.9345341,77.6113399
274,Garuda Mall,"Yelahanka New Town, Bangalore - 560064, Opposite IDBI Bank",+(91)-9986693305,693Votes,4.0,13.097481,77.583984
275,Tvs Bike Showroom,"3, Sidharata Colony, Santhosapuram, 2nd Block, Btm Layout, Bengaluru, Hosur Road, Madiwala, Bangalore - 560034",+(91)-80-33724405,420Votes,3.5,12.9225362,77.6196756
276,Farico Family Mall,"No. 215, Arakere Gate, Bannerghatta Road, Bangalore - 560076, Next to Araker Gate Signal",+(91)-80-41109884,414Votes,3.8,12.8889666,77.5971899
277,Vaishnavi Sapphire Mall,"No. 9/36, Tumkur Road, Phase 1, Yeshwanthpur Industrial Suburb, Bangalore - 560022, Behind Metro Station",+(91)-80-29724422,320Votes,4.0,13.024716,77.548832
278,Coupon Shopping Mall,"No.505, MS Towers, Garvebhavi Palya, Hosur Road, Bommanahalli, Bangalore - 560068, Next To Htmt, Near Rns Motors",+(91)-9980667143,303Votes,3.8,12.898456,77.633659
279,Gopalan Promenade Mall,"No.9, 92, 80 Feet Road, 8 Block, Kathriguppe, Banashankari 3rd Stage, Bangalore - 560085",+(91)-080-49314931,159Votes,3.9,12.926537,77.550832
280,Coupon Mall,"No. 13 and 14 Kempegowda Commercial Arcade, Bangalore, Bengaluru, Kg Road, Kempegowda Road, Bangalore - 560009",+(91)-80-42815345,146Votes,3.7,12.974294,77.577925
281,Fish Spa In Gopalan Mall,"3, Swamy Vivekananda Road, Sadanandanagar, Benniganahalli, Bangalore - 560016",+(91)-9739677929,138Votes,3.6,12.993033,77.661751
282,Family Mall,"No 110 1st Stage, Sorahunse Village Madhuranagar Varthur, Uttarahalli Hobli, Bengaluru, Varthur, Bangalore - 560087",+(91)-8884510999,126Votes,4.0,12.9431043,77.7546561
283,Sri Sri Mall,"No.121,Abhiksh Complex,Ground Floor, Bull Temple Road, Basavanagudi, Bangalore - 560004, Near Halli Thindi Hotel",+(91)-80-26677087,104Votes,4.4,12.9441155,77.5676959
284,Happy Home Shopping Mall,"2nd Cross, 1st Main, Durga Parameshwari Layout, Kenchanahalli, Bangalore - 560098",+(91)-80-28602464,104Votes,4.0,12.9190278,77.5137538
285,Ramraj Cotton Magestic Mall,"Shop No.5, 6 Ground Floor Grand Majestic Mall No.12, Bengaluru, 2nd Cross Road, 2nd Cross Road6thmain Road, Gandhi Nagar, Bangalore - 560009",+(91)-9585554147,101Votes,3.6,12.977275,77.5762702
286,Total Mall,"Varthur Road, Challaghatta, Bangalore - 560095, Near Hindustan Airport",,91Votes,3.8,12.921604,77.620484
287,Adhar Shopping Mall,"24 10'11.6n 72 26'04.4e, 912, 18th Main Road, Bengaluru, Ejipura, Bangalore - 560047",+(91)-9104564753,82Votes,4.2,12.956364,77.61675
288,Kdm Shopping Mall,"Kammavari Pete, Hoskote, Bangalore - 562114",+(91)-80-27931222,78Votes,3.4,13.0733428,77.7878792
289,My Shopping Mall,"33, 6th Cross Road, Hmt Layout, Hebbal, Bengaluru, Dinnur, Bangalore - 560032",+(91)-7386174707,76Votes,3.8,13.028257,77.594303
290,Mantri Jupiter Mall,"Khb Games Village, Koramangala, Bengaluru, National Games Housing Complex, Bangalore - 560047",+(91)-9035267246,73Votes,4.1,12.945369,77.619991
291,Pcr Garden Mall,"Doddathoguru Cross Junction, Electronics City Phase 1, Bengaluru, Bangalore - 560100",+(91)-7022044477,70Votes,3.9,12.8434142,77.6444294
292,SRT Mall,"No.151/154, Hosur Main Road, Anekal Taluk, Chandapura, Bangalore - 560081, Near Karur Vysya Bank",+(91)-80-27834556,57Votes,3.5,12.801873,77.705563
293,Global Mall,"M.G., 184, M.G. Railway Colony, Sevashrama, Bengaluru, Old Mysuru Road, Bangalore - 560023",,47Votes,4.1,12.9814809,77.5633961
294,Compu Mall,"No 1/1 1st Floor, 14th Main Road, Vijayanagar, Bangalore - 560040, Next Kodandarama Temple,Behind Metro",+(91)-080-23106178,41Votes,4.2,12.9703502,77.5375455
295,Metro Mall,"Chamrajpet, Bangalore - 562135",,28Votes,4.1,13.24535,77.795884
296,Pro Fx Bengaluru Pheonix Ma..,"G 15, Phoenix Market City, Whitefield Road, Mahadevapura, Bangalore - 560048",+(91)-8067265991,25Votes,4.3,12.99771,77.696408
297,Fab Mall India Pvt Ltd,"New #92/1, Mosque Road, Frazer Town, Bangalore - 560005",+(91)-080-25804997,14Votes,3.4,12.997052,77.613469
298,Yelahanka Central,"Garuda Mall, 3rd Stage, Yelahanka, Bangalore - 560064, Opposite IDBI Bank",+(91)-80-22365147,12Votes,4.2,13.097481,77.583984
299,Shan Fashion Mall,"Geleyara Balaga Layout, Jalahalli West, Hessargatta Main Road, Bangalore - 560090",+(91)-9740008887,11Votes,4.1,13.0702941,77.5039174
300,Silicon Foot Mall,"Shop no. 5, Dr. Vishnuvardhan road, Uttarahalli, Bangalore - 560061, Next to Shanthi sagar",+(91)-80-26395786,11Votes,4.0,12.908529,77.548271
301,Princess Mall,"No.32, Hennur Main Road, Lingarajapuram, Bangalore - 560084, Near Axis Bank ATM",+(91)-080-25492857,10Votes,3.7,13.01128037,77.6255483
302,World Market,"17th Km, Old Madras Road, White Filed, Avalahali, Bangalore - 560026, Near Ravindu Toyota",+(91)-80-42699000,9Votes,3.8,12.9759797,77.547214
303,Sjr Kalpana Mall,"Balepete, Chickpet, Bengaluru, Kempegowda Road, Bangalore - 560009",+(91)-80-40405599,9Votes,3.3,12.9741082,77.5771291
304,Kabab Mall,"Bengaluru, Bangalore - 560082",+(91)-9901621058,7Votes,4.7,12.7927393,77.5053048
305,Amit World Wide,"Viveka Nagar, Bengaluru, Vivek Nagar, Bangalore - 560047",+(91)-9945154276,4Votes,4.0,12.9529217,77.6239121
306,Bubble Gummers Mantri Mall,"Unit No.S62, 2nd Floor, Mantri Square, No.1, Bengaluru, Sampige Road, Malleswaram, Bangalore - 560003",+(91)-8150830892,3Votes,4.3,12.991597,77.571222
307,Neo Mall,"1st Phase, Electronic City, Bangalore - 560100",,3Votes,3.3,12.82356,77.659906
308,Jaivika Mall,"Sampangi Rama Nagara, Bengaluru, Kasturba Road, Bangalore - 560001, Behind High Court Of Karnataka Ambedkar Veedhi",+(91)-9008373985,2Votes,2.5,12.9764035,77.5929534
309,D MALL,Bangalore - 560001,+(91)-7204828579,1Votes,5.0,12.966793871553,77.598405772589
310,Ht Palace,"Sarbandapalya, Banashankari Temple Ward, Bengaluru, Bangalore - 560078",+(91)-9606793253,1Votes,5.0,12.9157952,77.5702525
311,VR Mall,"Ugf -15,Upper Ground Floor,Vr Mall,Plot No 11 B,Survey No 40/9,Dyavasandra Villa, Bengaluru, Bangalore - 560048",+(91)-80-42565735,1Votes,4.0,12.9961532487,77.6953091
312,Total Hyper Mall,"BMP Commercial Plaza, Madiwala, Bangalore - 560068, Opposite Madivala Police",,1Votes,3.0,12.921029,77.613686
313,Ruthus Stop & Shop,"Horamavu Flyover, Bengaluru, Horamavu, Bangalore - 560043, Near Nellre Mess",,1Votes,3.0,13.0195064,77.6563875
314,Loky- Shoping Mall,"Sun City Layout, Sankranthi Layout, Arekere, Bengaluru, 5th Main Road, Bangalore - 560076",+(91)-9590455999,1Votes,3.0,12.8849198,77.5875615
315,Saikam Skyee,"54/6, Devarabisanahalli, Bengaluru, Marathahalli Sarjapur Outer Ring Road, Bellandur, Bangalore - 560103",+(91)-9731599993,1Votes,3.0,12.9321908,77.6868321
316,Grand Majestic Commercial C..,"No.12, 2nd Cross, 6th Main, Gandhi Nagar, Bangalore - 560009, Opposite Gubbi Rang Mandir, Near Sukh Sagar",+(91)-8880874000,2939Votes,3.7,12.977204,77.576348
317,Eva Mall,"No.60, Brigade Road, Bangalore - 560025, Next To Hm Towers",+(91)-9902622668,2321Votes,3.9,12.970991,77.607258
318,South INDIA Shopping Mall,"Survey No. 35, 35/1, 35/2, Subbarama Chetty Road, Nettakallappa Circle, Basavanagudi, Bangalore - 560004, Opposite Anand Sagar Restaurant",+(91)-80-22426666,1934Votes,3.6,12.9389798,77.5717467
319,Arya Hub Mall,"No.92, Itpl Main Road, Prasanth Extension, Whitefield, Bangalore - 560066",+(91)-9902078287,1608Votes,3.5,12.983362,77.752012
320,Klm Fashion Mall,"No. 515, 47th Cross, 5th Block, Tmc Layout, Jayanagar, Bangalore - 560041, Near Renuka Theatre",+(91)-80-43746551,1455Votes,3.8,12.91685,77.582067
321,South India Shopping Mall,"Sy No.57/1, Whitefield Road, Dodsworth Layout, Whitefield, Bangalore - 560066, Opposite Whitefield Busstop",+(91)-80-28452222,1418Votes,3.5,12.969741,77.7497526
322,Palace Mall,"36, Bharati Nagar, Bengaluru, Seppings Road, Shivaji Nagar, Bangalore - 560051",,1417Votes,3.8,12.986316,77.608131
323,Prestige Forum Mall,"Thigalarapalya, Hoodi, Bengaluru, Bangalore - 560067",,1376Votes,4.4,12.9892207,77.7279723
324,KLM Fashion Mall,"No 1676, 27th Main Road Hsr Layout, HSR Layout, Bangalore - 560102",+(91)-80-43746552,1153Votes,3.6,12.9083796,77.6515421
325,Westgate Value Mall,"1032, Dr Rajkumar Rd,, 4th M Block, Manjunath Nagar,, Rajajinagar 4th Block, Bangalore - 560010",+(91)-80-23144856,1120Votes,3.8,12.982549,77.559381
326,Tibet Mall,"No.47, 5th Block Industrial Layout, Koramangala, Bangalore - 560095, Opp Jyoti Nivas College",+(91)-80-41677429,1062Votes,3.7,12.93429,77.616034
327,Forum Mall,"Shop No. 008 Forum Mall, 21, Koramangala, Bengaluru, Hosur Road, Bangalore - 560029",+(91)-80-22067621,902Votes,4.6,12.9345341,77.6113399
328,Garuda Mall,"Yelahanka New Town, Bangalore - 560064, Opposite IDBI Bank",+(91)-9986693305,693Votes,4.0,13.097481,77.583984
329,Tvs Bike Showroom,"3, Sidharata Colony, Santhosapuram, 2nd Block, Btm Layout, Bengaluru, Hosur Road, Madiwala, Bangalore - 560034",+(91)-80-33724405,420Votes,3.5,12.9225362,77.6196756
330,Farico Family Mall,"No. 215, Arakere Gate, Bannerghatta Road, Bangalore - 560076, Next to Araker Gate Signal",+(91)-80-41109884,414Votes,3.8,12.8889666,77.5971899
331,Vaishnavi Sapphire Mall,"No. 9/36, Tumkur Road, Phase 1, Yeshwanthpur Industrial Suburb, Bangalore - 560022, Behind Metro Station",+(91)-80-29724422,320Votes,4.0,13.024716,77.548832
332,Coupon Shopping Mall,"No.505, MS Towers, Garvebhavi Palya, Hosur Road, Bommanahalli, Bangalore - 560068, Next To Htmt, Near Rns Motors",+(91)-9980667143,303Votes,3.8,12.898456,77.633659
333,Gopalan Promenade Mall,"No.9, 92, 80 Feet Road, 8 Block, Kathriguppe, Banashankari 3rd Stage, Bangalore - 560085",+(91)-080-49314931,159Votes,3.9,12.926537,77.550832
334,Coupon Mall,"No. 13 and 14 Kempegowda Commercial Arcade, Bangalore, Bengaluru, Kg Road, Kempegowda Road, Bangalore - 560009",+(91)-80-42815345,146Votes,3.7,12.974294,77.577925
335,Fish Spa In Gopalan Mall,"3, Swamy Vivekananda Road, Sadanandanagar, Benniganahalli, Bangalore - 560016",+(91)-9739677929,138Votes,3.6,12.993033,77.661751
336,Family Mall,"No 110 1st Stage, Sorahunse Village Madhuranagar Varthur, Uttarahalli Hobli, Bengaluru, Varthur, Bangalore - 560087",+(91)-8884510999,126Votes,4.0,12.9431043,77.7546561
337,Sri Sri Mall,"No.121,Abhiksh Complex,Ground Floor, Bull Temple Road, Basavanagudi, Bangalore - 560004, Near Halli Thindi Hotel",+(91)-80-26677087,104Votes,4.4,12.9441155,77.5676959
338,Happy Home Shopping Mall,"2nd Cross, 1st Main, Durga Parameshwari Layout, Kenchanahalli, Bangalore - 560098",+(91)-80-28602464,104Votes,4.0,12.9190278,77.5137538
339,Ramraj Cotton Magestic Mall,"Shop No.5, 6 Ground Floor Grand Majestic Mall No.12, Bengaluru, 2nd Cross Road, 2nd Cross Road6thmain Road, Gandhi Nagar, Bangalore - 560009",+(91)-9585554147,101Votes,3.6,12.977275,77.5762702
340,Total Mall,"Varthur Road, Challaghatta, Bangalore - 560095, Near Hindustan Airport",,91Votes,3.8,12.921604,77.620484
341,Adhar Shopping Mall,"24 10'11.6n 72 26'04.4e, 912, 18th Main Road, Bengaluru, Ejipura, Bangalore - 560047",+(91)-9104564753,82Votes,4.2,12.956364,77.61675
342,Kdm Shopping Mall,"Kammavari Pete, Hoskote, Bangalore - 562114",+(91)-80-27931222,78Votes,3.4,13.0733428,77.7878792
343,My Shopping Mall,"33, 6th Cross Road, Hmt Layout, Hebbal, Bengaluru, Dinnur, Bangalore - 560032",+(91)-7386174707,76Votes,3.8,13.028257,77.594303
344,Mantri Jupiter Mall,"Khb Games Village, Koramangala, Bengaluru, National Games Housing Complex, Bangalore - 560047",+(91)-9035267246,73Votes,4.1,12.945369,77.619991
345,Pcr Garden Mall,"Doddathoguru Cross Junction, Electronics City Phase 1, Bengaluru, Bangalore - 560100",+(91)-7022044477,70Votes,3.9,12.8434142,77.6444294
346,SRT Mall,"No.151/154, Hosur Main Road, Anekal Taluk, Chandapura, Bangalore - 560081, Near Karur Vysya Bank",+(91)-80-27834556,57Votes,3.5,12.801873,77.705563
347,Global Mall,"M.G., 184, M.G. Railway Colony, Sevashrama, Bengaluru, Old Mysuru Road, Bangalore - 560023",,47Votes,4.1,12.9814809,77.5633961
348,Compu Mall,"No 1/1 1st Floor, 14th Main Road, Vijayanagar, Bangalore - 560040, Next Kodandarama Temple,Behind Metro",+(91)-080-23106178,41Votes,4.2,12.9703502,77.5375455
349,Metro Mall,"Chamrajpet, Bangalore - 562135",,28Votes,4.1,13.24535,77.795884
350,Pro Fx Bengaluru Pheonix Ma..,"G 15, Phoenix Market City, Whitefield Road, Mahadevapura, Bangalore - 560048",+(91)-8067265991,25Votes,4.3,12.99771,77.696408
351,Fab Mall India Pvt Ltd,"New #92/1, Mosque Road, Frazer Town, Bangalore - 560005",+(91)-080-25804997,14Votes,3.4,12.997052,77.613469
352,Yelahanka Central,"Garuda Mall, 3rd Stage, Yelahanka, Bangalore - 560064, Opposite IDBI Bank",+(91)-80-22365147,12Votes,4.2,13.097481,77.583984
353,Shan Fashion Mall,"Geleyara Balaga Layout, Jalahalli West, Hessargatta Main Road, Bangalore - 560090",+(91)-9740008887,11Votes,4.1,13.0702941,77.5039174
354,Silicon Foot Mall,"Shop no. 5, Dr. Vishnuvardhan road, Uttarahalli, Bangalore - 560061, Next to Shanthi sagar",+(91)-80-26395786,11Votes,4.0,12.908529,77.548271
355,Princess Mall,"No.32, Hennur Main Road, Lingarajapuram, Bangalore - 560084, Near Axis Bank ATM",+(91)-080-25492857,10Votes,3.7,13.01128037,77.6255483
356,World Market,"17th Km, Old Madras Road, White Filed, Avalahali, Bangalore - 560026, Near Ravindu Toyota",+(91)-80-42699000,9Votes,3.8,12.9759797,77.547214
357,Sjr Kalpana Mall,"Balepete, Chickpet, Bengaluru, Kempegowda Road, Bangalore - 560009",+(91)-80-40405599,9Votes,3.3,12.9741082,77.5771291
358,Kabab Mall,"Bengaluru, Bangalore - 560082",+(91)-9901621058,7Votes,4.7,12.7927393,77.5053048
359,Amit World Wide,"Viveka Nagar, Bengaluru, Vivek Nagar, Bangalore - 560047",+(91)-9945154276,4Votes,4.0,12.9529217,77.6239121
360,Bubble Gummers Mantri Mall,"Unit No.S62, 2nd Floor, Mantri Square, No.1, Bengaluru, Sampige Road, Malleswaram, Bangalore - 560003",+(91)-8150830892,3Votes,4.3,12.991597,77.571222
361,Neo Mall,"1st Phase, Electronic City, Bangalore - 560100",,3Votes,3.3,12.82356,77.659906
362,Jaivika Mall,"Sampangi Rama Nagara, Bengaluru, Kasturba Road, Bangalore - 560001, Behind High Court Of Karnataka Ambedkar Veedhi",+(91)-9008373985,2Votes,2.5,12.9764035,77.5929534
363,D MALL,Bangalore - 560001,+(91)-7204828579,1Votes,5.0,12.966793871553,77.598405772589
364,Ht Palace,"Sarbandapalya, Banashankari Temple Ward, Bengaluru, Bangalore - 560078",+(91)-9606793253,1Votes,5.0,12.9157952,77.5702525
365,VR Mall,"Ugf -15,Upper Ground Floor,Vr Mall,Plot No 11 B,Survey No 40/9,Dyavasandra Villa, Bengaluru, Bangalore - 560048",+(91)-80-42565735,1Votes,4.0,12.9961532487,77.6953091
366,Total Hyper Mall,"BMP Commercial Plaza, Madiwala, Bangalore - 560068, Opposite Madivala Police",,1Votes,3.0,12.921029,77.613686
367,Ruthus Stop & Shop,"Horamavu Flyover, Bengaluru, Horamavu, Bangalore - 560043, Near Nellre Mess",,1Votes,3.0,13.0195064,77.6563875
368,Loky- Shoping Mall,"Sun City Layout, Sankranthi Layout, Arekere, Bengaluru, 5th Main Road, Bangalore - 560076",+(91)-9590455999,1Votes,3.0,12.8849198,77.5875615
369,Saikam Skyee,"54/6, Devarabisanahalli, Bengaluru, Marathahalli Sarjapur Outer Ring Road, Bellandur, Bangalore - 560103",+(91)-9731599993,1Votes,3.0,12.9321908,77.6868321
370,Tibet Mall,"No.47, 5th Block Industrial Layout, Koramangala, Bangalore - 560095, Opp Jyoti Nivas College",+(91)-80-41677429,1062Votes,3.7,12.93429,77.616034
371,Forum Mall,"Shop No. 008 Forum Mall, 21, Koramangala, Bengaluru, Hosur Road, Bangalore - 560029",+(91)-80-22067621,902Votes,4.6,12.9345341,77.6113399
372,Garuda Mall,"Yelahanka New Town, Bangalore - 560064, Opposite IDBI Bank",+(91)-9986693305,693Votes,4.0,13.097481,77.583984
373,Tvs Bike Showroom,"3, Sidharata Colony, Santhosapuram, 2nd Block, Btm Layout, Bengaluru, Hosur Road, Madiwala, Bangalore - 560034",+(91)-80-33724405,420Votes,3.5,12.9225362,77.6196756
374,Farico Family Mall,"No. 215, Arakere Gate, Bannerghatta Road, Bangalore - 560076, Next to Araker Gate Signal",+(91)-80-41109884,414Votes,3.8,12.8889666,77.5971899
375,Vaishnavi Sapphire Mall,"No. 9/36, Tumkur Road, Phase 1, Yeshwanthpur Industrial Suburb, Bangalore - 560022, Behind Metro Station",+(91)-80-29724422,320Votes,4.0,13.024716,77.548832
376,Coupon Shopping Mall,"No.505, MS Towers, Garvebhavi Palya, Hosur Road, Bommanahalli, Bangalore - 560068, Next To Htmt, Near Rns Motors",+(91)-9980667143,303Votes,3.8,12.898456,77.633659
377,Gopalan Promenade Mall,"No.9, 92, 80 Feet Road, 8 Block, Kathriguppe, Banashankari 3rd Stage, Bangalore - 560085",+(91)-080-49314931,159Votes,3.9,12.926537,77.550832
378,Coupon Mall,"No. 13 and 14 Kempegowda Commercial Arcade, Bangalore, Bengaluru, Kg Road, Kempegowda Road, Bangalore - 560009",+(91)-80-42815345,146Votes,3.7,12.974294,77.577925
379,Fish Spa In Gopalan Mall,"3, Swamy Vivekananda Road, Sadanandanagar, Benniganahalli, Bangalore - 560016",+(91)-9739677929,138Votes,3.6,12.993033,77.661751
380,Family Mall,"No 110 1st Stage, Sorahunse Village Madhuranagar Varthur, Uttarahalli Hobli, Bengaluru, Varthur, Bangalore - 560087",+(91)-8884510999,126Votes,4.0,12.9431043,77.7546561
381,Sri Sri Mall,"No.121,Abhiksh Complex,Ground Floor, Bull Temple Road, Basavanagudi, Bangalore - 560004, Near Halli Thindi Hotel",+(91)-80-26677087,104Votes,4.4,12.9441155,77.5676959
382,Happy Home Shopping Mall,"2nd Cross, 1st Main, Durga Parameshwari Layout, Kenchanahalli, Bangalore - 560098",+(91)-80-28602464,104Votes,4.0,12.9190278,77.5137538
383,Ramraj Cotton Magestic Mall,"Shop No.5, 6 Ground Floor Grand Majestic Mall No.12, Bengaluru, 2nd Cross Road, 2nd Cross Road6thmain Road, Gandhi Nagar, Bangalore - 560009",+(91)-9585554147,101Votes,3.6,12.977275,77.5762702
384,Total Mall,"Varthur Road, Challaghatta, Bangalore - 560095, Near Hindustan Airport",,91Votes,3.8,12.921604,77.620484
385,Adhar Shopping Mall,"24 10'11.6n 72 26'04.4e, 912, 18th Main Road, Bengaluru, Ejipura, Bangalore - 560047",+(91)-9104564753,82Votes,4.2,12.956364,77.61675
386,Kdm Shopping Mall,"Kammavari Pete, Hoskote, Bangalore - 562114",+(91)-80-27931222,78Votes,3.4,13.0733428,77.7878792
387,My Shopping Mall,"33, 6th Cross Road, Hmt Layout, Hebbal, Bengaluru, Dinnur, Bangalore - 560032",+(91)-7386174707,76Votes,3.8,13.028257,77.594303
388,Mantri Jupiter Mall,"Khb Games Village, Koramangala, Bengaluru, National Games Housing Complex, Bangalore - 560047",+(91)-9035267246,73Votes,4.1,12.945369,77.619991
389,Pcr Garden Mall,"Doddathoguru Cross Junction, Electronics City Phase 1, Bengaluru, Bangalore - 560100",+(91)-7022044477,70Votes,3.9,12.8434142,77.6444294
390,SRT Mall,"No.151/154, Hosur Main Road, Anekal Taluk, Chandapura, Bangalore - 560081, Near Karur Vysya Bank",+(91)-80-27834556,57Votes,3.5,12.801873,77.705563
391,Global Mall,"M.G., 184, M.G. Railway Colony, Sevashrama, Bengaluru, Old Mysuru Road, Bangalore - 560023",,47Votes,4.1,12.9814809,77.5633961
392,Compu Mall,"No 1/1 1st Floor, 14th Main Road, Vijayanagar, Bangalore - 560040, Next Kodandarama Temple,Behind Metro",+(91)-080-23106178,41Votes,4.2,12.9703502,77.5375455
393,Metro Mall,"Chamrajpet, Bangalore - 562135",,28Votes,4.1,13.24535,77.795884
394,Pro Fx Bengaluru Pheonix Ma..,"G 15, Phoenix Market City, Whitefield Road, Mahadevapura, Bangalore - 560048",+(91)-8067265991,25Votes,4.3,12.99771,77.696408
395,Fab Mall India Pvt Ltd,"New #92/1, Mosque Road, Frazer Town, Bangalore - 560005",+(91)-080-25804997,14Votes,3.4,12.997052,77.613469
396,Yelahanka Central,"Garuda Mall, 3rd Stage, Yelahanka, Bangalore - 560064, Opposite IDBI Bank",+(91)-80-22365147,12Votes,4.2,13.097481,77.583984
397,Shan Fashion Mall,"Geleyara Balaga Layout, Jalahalli West, Hessargatta Main Road, Bangalore - 560090",+(91)-9740008887,11Votes,4.1,13.0702941,77.5039174
398,Silicon Foot Mall,"Shop no. 5, Dr. Vishnuvardhan road, Uttarahalli, Bangalore - 560061, Next to Shanthi sagar",+(91)-80-26395786,11Votes,4.0,12.908529,77.548271
399,Princess Mall,"No.32, Hennur Main Road, Lingarajapuram, Bangalore - 560084, Near Axis Bank ATM",+(91)-080-25492857,10Votes,3.7,13.01128037,77.6255483
400,World Market,"17th Km, Old Madras Road, White Filed, Avalahali, Bangalore - 560026, Near Ravindu Toyota",+(91)-80-42699000,9Votes,3.8,12.9759797,77.547214
401,Sjr Kalpana Mall,"Balepete, Chickpet, Bengaluru, Kempegowda Road, Bangalore - 560009",+(91)-80-40405599,9Votes,3.3,12.9741082,77.5771291
402,Kabab Mall,"Bengaluru, Bangalore - 560082",+(91)-9901621058,7Votes,4.7,12.7927393,77.5053048
403,Amit World Wide,"Viveka Nagar, Bengaluru, Vivek Nagar, Bangalore - 560047",+(91)-9945154276,4Votes,4.0,12.9529217,77.6239121
404,Bubble Gummers Mantri Mall,"Unit No.S62, 2nd Floor, Mantri Square, No.1, Bengaluru, Sampige Road, Malleswaram, Bangalore - 560003",+(91)-8150830892,3Votes,4.3,12.991597,77.571222
405,Neo Mall,"1st Phase, Electronic City, Bangalore - 560100",,3Votes,3.3,12.82356,77.659906
406,Jaivika Mall,"Sampangi Rama Nagara, Bengaluru, Kasturba Road, Bangalore - 560001, Behind High Court Of Karnataka Ambedkar Veedhi",+(91)-9008373985,2Votes,2.5,12.9764035,77.5929534
407,D MALL,Bangalore - 560001,+(91)-7204828579,1Votes,5.0,12.966793871553,77.598405772589
408,Ht Palace,"Sarbandapalya, Banashankari Temple Ward, Bengaluru, Bangalore - 560078",+(91)-9606793253,1Votes,5.0,12.9157952,77.5702525
409,VR Mall,"Ugf -15,Upper Ground Floor,Vr Mall,Plot No 11 B,Survey No 40/9,Dyavasandra Villa, Bengaluru, Bangalore - 560048",+(91)-80-42565735,1Votes,4.0,12.9961532487,77.6953091
410,Total Hyper Mall,"BMP Commercial Plaza, Madiwala, Bangalore - 560068, Opposite Madivala Police",,1Votes,3.0,12.921029,77.613686
411,Ruthus Stop & Shop,"Horamavu Flyover, Bengaluru, Horamavu, Bangalore - 560043, Near Nellre Mess",,1Votes,3.0,13.0195064,77.6563875
412,Loky- Shoping Mall,"Sun City Layout, Sankranthi Layout, Arekere, Bengaluru, 5th Main Road, Bangalore - 560076",+(91)-9590455999,1Votes,3.0,12.8849198,77.5875615
413,Saikam Skyee,"54/6, Devarabisanahalli, Bengaluru, Marathahalli Sarjapur Outer Ring Road, Bellandur, Bangalore - 560103",+(91)-9731599993,1Votes,3.0,12.9321908,77.6868321
414,Family Mall,"No 110 1st Stage, Sorahunse Village Madhuranagar Varthur, Uttarahalli Hobli, Bengaluru, Varthur, Bangalore - 560087",+(91)-8884510999,126Votes,4.0,12.9431043,77.7546561
415,Sri Sri Mall,"No.121,Abhiksh Complex,Ground Floor, Bull Temple Road, Basavanagudi, Bangalore - 560004, Near Halli Thindi Hotel",+(91)-80-26677087,104Votes,4.4,12.9441155,77.5676959
416,Happy Home Shopping Mall,"2nd Cross, 1st Main, Durga Parameshwari Layout, Kenchanahalli, Bangalore - 560098",+(91)-80-28602464,104Votes,4.0,12.9190278,77.5137538
417,Ramraj Cotton Magestic Mall,"Shop No.5, 6 Ground Floor Grand Majestic Mall No.12, Bengaluru, 2nd Cross Road, 2nd Cross Road6thmain Road, Gandhi Nagar, Bangalore - 560009",+(91)-9585554147,101Votes,3.6,12.977275,77.5762702
418,Total Mall,"Varthur Road, Challaghatta, Bangalore - 560095, Near Hindustan Airport",,91Votes,3.8,12.921604,77.620484
419,Adhar Shopping Mall,"24 10'11.6n 72 26'04.4e, 912, 18th Main Road, Bengaluru, Ejipura, Bangalore - 560047",+(91)-9104564753,82Votes,4.2,12.956364,77.61675
420,Kdm Shopping Mall,"Kammavari Pete, Hoskote, Bangalore - 562114",+(91)-80-27931222,78Votes,3.4,13.0733428,77.7878792
421,My Shopping Mall,"33, 6th Cross Road, Hmt Layout, Hebbal, Bengaluru, Dinnur, Bangalore - 560032",+(91)-7386174707,76Votes,3.8,13.028257,77.594303
422,Mantri Jupiter Mall,"Khb Games Village, Koramangala, Bengaluru, National Games Housing Complex, Bangalore - 560047",+(91)-9035267246,73Votes,4.1,12.945369,77.619991
423,Pcr Garden Mall,"Doddathoguru Cross Junction, Electronics City Phase 1, Bengaluru, Bangalore - 560100",+(91)-7022044477,70Votes,3.9,12.8434142,77.6444294
424,SRT Mall,"No.151/154, Hosur Main Road, Anekal Taluk, Chandapura, Bangalore - 560081, Near Karur Vysya Bank",+(91)-80-27834556,57Votes,3.5,12.801873,77.705563
425,Global Mall,"M.G., 184, M.G. Railway Colony, Sevashrama, Bengaluru, Old Mysuru Road, Bangalore - 560023",,47Votes,4.1,12.9814809,77.5633961
426,Compu Mall,"No 1/1 1st Floor, 14th Main Road, Vijayanagar, Bangalore - 560040, Next Kodandarama Temple,Behind Metro",+(91)-080-23106178,41Votes,4.2,12.9703502,77.5375455
427,Metro Mall,"Chamrajpet, Bangalore - 562135",,28Votes,4.1,13.24535,77.795884
428,Pro Fx Bengaluru Pheonix Ma..,"G 15, Phoenix Market City, Whitefield Road, Mahadevapura, Bangalore - 560048",+(91)-8067265991,25Votes,4.3,12.99771,77.696408
429,Fab Mall India Pvt Ltd,"New #92/1, Mosque Road, Frazer Town, Bangalore - 560005",+(91)-080-25804997,14Votes,3.4,12.997052,77.613469
430,Yelahanka Central,"Garuda Mall, 3rd Stage, Yelahanka, Bangalore - 560064, Opposite IDBI Bank",+(91)-80-22365147,12Votes,4.2,13.097481,77.583984
431,Shan Fashion Mall,"Geleyara Balaga Layout, Jalahalli West, Hessargatta Main Road, Bangalore - 560090",+(91)-9740008887,11Votes,4.1,13.0702941,77.5039174
432,Silicon Foot Mall,"Shop no. 5, Dr. Vishnuvardhan road, Uttarahalli, Bangalore - 560061, Next to Shanthi sagar",+(91)-80-26395786,11Votes,4.0,12.908529,77.548271
433,Princess Mall,"No.32, Hennur Main Road, Lingarajapuram, Bangalore - 560084, Near Axis Bank ATM",+(91)-080-25492857,10Votes,3.7,13.01128037,77.6255483
434,World Market,"17th Km, Old Madras Road, White Filed, Avalahali, Bangalore - 560026, Near Ravindu Toyota",+(91)-80-42699000,9Votes,3.8,12.9759797,77.547214
435,Sjr Kalpana Mall,"Balepete, Chickpet, Bengaluru, Kempegowda Road, Bangalore - 560009",+(91)-80-40405599,9Votes,3.3,12.9741082,77.5771291
436,Kabab Mall,"Bengaluru, Bangalore - 560082",+(91)-9901621058,7Votes,4.7,12.7927393,77.5053048
437,Amit World Wide,"Viveka Nagar, Bengaluru, Vivek Nagar, Bangalore - 560047",+(91)-9945154276,4Votes,4.0,12.9529217,77.6239121
438,Bubble Gummers Mantri Mall,"Unit No.S62, 2nd Floor, Mantri Square, No.1, Bengaluru, Sampige Road, Malleswaram, Bangalore - 560003",+(91)-8150830892,3Votes,4.3,12.991597,77.571222
439,Neo Mall,"1st Phase, Electronic City, Bangalore - 560100",,3Votes,3.3,12.82356,77.659906
440,Jaivika Mall,"Sampangi Rama Nagara, Bengaluru, Kasturba Road, Bangalore - 560001, Behind High Court Of Karnataka Ambedkar Veedhi",+(91)-9008373985,2Votes,2.5,12.9764035,77.5929534
441,D MALL,Bangalore - 560001,+(91)-7204828579,1Votes,5.0,12.966793871553,77.598405772589
442,Ht Palace,"Sarbandapalya, Banashankari Temple Ward, Bengaluru, Bangalore - 560078",+(91)-9606793253,1Votes,5.0,12.9157952,77.5702525
443,VR Mall,"Ugf -15,Upper Ground Floor,Vr Mall,Plot No 11 B,Survey No 40/9,Dyavasandra Villa, Bengaluru, Bangalore - 560048",+(91)-80-42565735,1Votes,4.0,12.9961532487,77.6953091
444,Total Hyper Mall,"BMP Commercial Plaza, Madiwala, Bangalore - 560068, Opposite Madivala Police",,1Votes,3.0,12.921029,77.613686
445,Ruthus Stop & Shop,"Horamavu Flyover, Bengaluru, Horamavu, Bangalore - 560043, Near Nellre Mess",,1Votes,3.0,13.0195064,77.6563875
446,Loky- Shoping Mall,"Sun City Layout, Sankranthi Layout, Arekere, Bengaluru, 5th Main Road, Bangalore - 560076",+(91)-9590455999,1Votes,3.0,12.8849198,77.5875615
447,Saikam Skyee,"54/6, Devarabisanahalli, Bengaluru, Marathahalli Sarjapur Outer Ring Road, Bellandur, Bangalore - 560103",+(91)-9731599993,1Votes,3.0,12.9321908,77.6868321
448,SRT Mall,"No.151/154, Hosur Main Road, Anekal Taluk, Chandapura, Bangalore - 560081, Near Karur Vysya Bank",+(91)-80-27834556,57Votes,3.5,12.801873,77.705563
449,Global Mall,"M.G., 184, M.G. Railway Colony, Sevashrama, Bengaluru, Old Mysuru Road, Bangalore - 560023",,47Votes,4.1,12.9814809,77.5633961
450,Compu Mall,"No 1/1 1st Floor, 14th Main Road, Vijayanagar, Bangalore - 560040, Next Kodandarama Temple,Behind Metro",+(91)-080-23106178,41Votes,4.2,12.9703502,77.5375455
451,Metro Mall,"Chamrajpet, Bangalore - 562135",,28Votes,4.1,13.24535,77.795884
452,Pro Fx Bengaluru Pheonix Ma..,"G 15, Phoenix Market City, Whitefield Road, Mahadevapura, Bangalore - 560048",+(91)-8067265991,25Votes,4.3,12.99771,77.696408
453,Fab Mall India Pvt Ltd,"New #92/1, Mosque Road, Frazer Town, Bangalore - 560005",+(91)-080-25804997,14Votes,3.4,12.997052,77.613469
454,Yelahanka Central,"Garuda Mall, 3rd Stage, Yelahanka, Bangalore - 560064, Opposite IDBI Bank",+(91)-80-22365147,12Votes,4.2,13.097481,77.583984
455,Shan Fashion Mall,"Geleyara Balaga Layout, Jalahalli West, Hessargatta Main Road, Bangalore - 560090",+(91)-9740008887,11Votes,4.1,13.0702941,77.5039174
456,Silicon Foot Mall,"Shop no. 5, Dr. Vishnuvardhan road, Uttarahalli, Bangalore - 560061, Next to Shanthi sagar",+(91)-80-26395786,11Votes,4.0,12.908529,77.548271
457,Princess Mall,"No.32, Hennur Main Road, Lingarajapuram, Bangalore - 560084, Near Axis Bank ATM",+(91)-080-25492857,10Votes,3.7,13.01128037,77.6255483
458,World Market,"17th Km, Old Madras Road, White Filed, Avalahali, Bangalore - 560026, Near Ravindu Toyota",+(91)-80-42699000,9Votes,3.8,12.9759797,77.547214
459,Sjr Kalpana Mall,"Balepete, Chickpet, Bengaluru, Kempegowda Road, Bangalore - 560009",+(91)-80-40405599,9Votes,3.3,12.9741082,77.5771291
460,Kabab Mall,"Bengaluru, Bangalore - 560082",+(91)-9901621058,7Votes,4.7,12.7927393,77.5053048
461,Amit World Wide,"Viveka Nagar, Bengaluru, Vivek Nagar, Bangalore - 560047",+(91)-9945154276,4Votes,4.0,12.9529217,77.6239121
462,Bubble Gummers Mantri Mall,"Unit No.S62, 2nd Floor, Mantri Square, No.1, Bengaluru, Sampige Road, Malleswaram, Bangalore - 560003",+(91)-8150830892,3Votes,4.3,12.991597,77.571222
463,Neo Mall,"1st Phase, Electronic City, Bangalore - 560100",,3Votes,3.3,12.82356,77.659906
464,Jaivika Mall,"Sampangi Rama Nagara, Bengaluru, Kasturba Road, Bangalore - 560001, Behind High Court Of Karnataka Ambedkar Veedhi",+(91)-9008373985,2Votes,2.5,12.9764035,77.5929534
465,D MALL,Bangalore - 560001,+(91)-7204828579,1Votes,5.0,12.966793871553,77.598405772589
466,Ht Palace,"Sarbandapalya, Banashankari Temple Ward, Bengaluru, Bangalore - 560078",+(91)-9606793253,1Votes,5.0,12.9157952,77.5702525
467,VR Mall,"Ugf -15,Upper Ground Floor,Vr Mall,Plot No 11 B,Survey No 40/9,Dyavasandra Villa, Bengaluru, Bangalore - 560048",+(91)-80-42565735,1Votes,4.0,12.9961532487,77.6953091
468,Total Hyper Mall,"BMP Commercial Plaza, Madiwala, Bangalore - 560068, Opposite Madivala Police",,1Votes,3.0,12.921029,77.613686
469,Ruthus Stop & Shop,"Horamavu Flyover, Bengaluru, Horamavu, Bangalore - 560043, Near Nellre Mess",,1Votes,3.0,13.0195064,77.6563875
470,Loky- Shoping Mall,"Sun City Layout, Sankranthi Layout, Arekere, Bengaluru, 5th Main Road, Bangalore - 560076",+(91)-9590455999,1Votes,3.0,12.8849198,77.5875615
471,Saikam Skyee,"54/6, Devarabisanahalli, Bengaluru, Marathahalli Sarjapur Outer Ring Road, Bellandur, Bangalore - 560103",+(91)-9731599993,1Votes,3.0,12.9321908,77.6868321
472,World Market,"17th Km, Old Madras Road, White Filed, Avalahali, Bangalore - 560026, Near Ravindu Toyota",+(91)-80-42699000,9Votes,3.8,12.9759797,77.547214
473,Sjr Kalpana Mall,"Balepete, Chickpet, Bengaluru, Kempegowda Road, Bangalore - 560009",+(91)-80-40405599,9Votes,3.3,12.9741082,77.5771291
474,Kabab Mall,"Bengaluru, Bangalore - 560082",+(91)-9901621058,7Votes,4.7,12.7927393,77.5053048
475,Amit World Wide,"Viveka Nagar, Bengaluru, Vivek Nagar, Bangalore - 560047",+(91)-9945154276,4Votes,4.0,12.9529217,77.6239121
476,Bubble Gummers Mantri Mall,"Unit No.S62, 2nd Floor, Mantri Square, No.1, Bengaluru, Sampige Road, Malleswaram, Bangalore - 560003",+(91)-8150830892,3Votes,4.3,12.991597,77.571222
477,Neo Mall,"1st Phase, Electronic City, Bangalore - 560100",,3Votes,3.3,12.82356,77.659906
478,Jaivika Mall,"Sampangi Rama Nagara, Bengaluru, Kasturba Road, Bangalore - 560001, Behind High Court Of Karnataka Ambedkar Veedhi",+(91)-9008373985,2Votes,2.5,12.9764035,77.5929534
479,D MALL,Bangalore - 560001,+(91)-7204828579,1Votes,5.0,12.966793871553,77.598405772589
480,Ht Palace,"Sarbandapalya, Banashankari Temple Ward, Bengaluru, Bangalore - 560078",+(91)-9606793253,1Votes,5.0,12.9157952,77.5702525
481,VR Mall,"Ugf -15,Upper Ground Floor,Vr Mall,Plot No 11 B,Survey No 40/9,Dyavasandra Villa, Bengaluru, Bangalore - 560048",+(91)-80-42565735,1Votes,4.0,12.9961532487,77.6953091
482,Total Hyper Mall,"BMP Commercial Plaza, Madiwala, Bangalore - 560068, Opposite Madivala Police",,1Votes,3.0,12.921029,77.613686
483,Ruthus Stop & Shop,"Horamavu Flyover, Bengaluru, Horamavu, Bangalore - 560043, Near Nellre Mess",,1Votes,3.0,13.0195064,77.6563875
484,Loky- Shoping Mall,"Sun City Layout, Sankranthi Layout, Arekere, Bengaluru, 5th Main Road, Bangalore - 560076",+(91)-9590455999,1Votes,3.0,12.8849198,77.5875615
485,Saikam Skyee,"54/6, Devarabisanahalli, Bengaluru, Marathahalli Sarjapur Outer Ring Road, Bellandur, Bangalore - 560103",+(91)-9731599993,1Votes,3.0,12.9321908,77.6868321
486,Total Hyper Mall,"BMP Commercial Plaza, Madiwala, Bangalore - 560068, Opposite Madivala Police",,1Votes,3.0,12.921029,77.613686
487,Ruthus Stop & Shop,"Horamavu Flyover, Bengaluru, Horamavu, Bangalore - 560043, Near Nellre Mess",,1Votes,3.0,13.0195064,77.6563875
488,Loky- Shoping Mall,"Sun City Layout, Sankranthi Layout, Arekere, Bengaluru, 5th Main Road, Bangalore - 560076",+(91)-9590455999,1Votes,3.0,12.8849198,77.5875615
489,Saikam Skyee,"54/6, Devarabisanahalli, Bengaluru, Marathahalli Sarjapur Outer Ring Road, Bellandur, Bangalore - 560103",+(91)-9731599993,1Votes,3.0,12.9321908,77.6868321
