,Company Name,Address,Phone,votes,ratings,latitude,longitude
0,Homeocare International Pvt..,"House No 1, 1st Temple Street 15th Cross, Indiranagar, Bangalore - 560038, Behind Adigas Restaurant",07947155902,302Votes,3.6,12.981192,77.636542
1,Kauvery Hospitals Bangalore,"Survey No 92/1 B, HP Avenue, Konappana Agrahara Village Begur Hobli, Electronic City, Bangalore - 560100",07947333183,514Votes,4.3,12.8544266667,77.6628883333
2,Fortis Hospital,"Building No 119 , Survey No :23, 80feet Road, Gurukrupa Layout, Nagarbhavi, Bangalore - 560072",07947215544,2885Votes,4.1,12.959436,77.511276
3,Parimala Health Care Servic..,"No.12/13, Bannerghatta road, Bannerghatta Road, Bangalore - 560076, Near bilekahalli Bus Stop",07947157418,108Votes,4.0,12.899959,77.601196
4,Shraddha Healthcare And Nur..,"No 3,4 &amp; 5,Patients First, 7th Main Road,1st Block, Koramangala, Bangalore - 560034, Near Wipro Park",07947155012,469Votes,3.9,12.926592,77.633577
5,Life Care Hospital (Lch),"No.23/24, 20th Main, Gangothri Circle, Btm Layout 1st Stage, Bangalore - 560029, Near Gangothri Bar and Restaurant",+(91)-080-6846677,3185Votes,4.4,12.9193885,77.612994
6,Prashanth Hospital,"No.90/D, Hosur Main Road, Bommanahalli, Bangalore - 560068",07947154231,635Votes,3.7,12.9065634,77.6287203
7,Manipal North Side Hospital,"No. 71, 11th Main, Malleswaram, Bangalore - 560003, Opposite Railway Station",07947157302,3006Votes,4.1,13.000978,77.563942
8,Virat Multispeciality Hospi..,"No 1637/679,, Kogilu Main Road, Yelahanka, Bangalore - 560064, Maruthi Nagar Bus Stop",07947351225,2Votes,3.5,13.100901,77.596754
9,Shree Vaishnavi Health Cent..,"No 02, Doddabidarakallu Main Road, DODDABIDARAKALLU, Bangalore - 560073, Opp SB Medicals Near Arch",08045791070,3Votes,5.0,13.036383057174,77.493716431313
10,Jyotsna Hospital,"# 09 Akshay Nagar TC Palya Main Road, Kowdenahalli, Ramamurthy Nagar, Bangalore - 560016, Opposite to Vishal Mega Mart",07947460054,47Votes,4.6,13.021226,77.677427
11,Ak Ayurvedic Clinic,"NO 122/4, HOSUR ROAD, Attibele, Bangalore - 562107",07947285741,2Votes,3.5,12.777589,77.770659
12,Siliconcity Hospitals,"Site No 12,21 and 11,22, Old Madras Road,Hoskote Town,AIR Layout, Hoskote, Bangalore - 562114, Near BMTC Bus Depo",07947161435,51Votes,3.8,13.068657,77.781321
13,Kasper Multi Speaciality Cl..,"No 31, 100ft Road Indiranagar, Indiranagar, Bangalore - 560038, Near Domlur Flyover",08045789697,27Votes,4.5,12.979007,77.637763
14,Varalakshmi Hospital,"No.38/2, 2nd Main Road, Madivala New Extension, Madiwala, Bangalore - 560068, Behind Ayyappa Temple",07947154672,199Votes,3.9,12.9245777,77.6170137
15,Aashirvad Healthcare Centnr..,"No 73 NPR COMPLEX, S L N Temple Road, Marathahalli, Bangalore - 560037, Beside Sri Lakshmi Narayana Temple",07947161153,13Votes,4.0,12.964842589584,77.67396681018
16,A V Multispeciality Hospita..,"No.781, 782, 100 Feet Main Road, 7th Block, Banashankari 3rd Stage, Bangalore - 560085, Opposite Little Flower Public School",07947162715,264Votes,4.1,12.9327366,77.5409162
17,Bangalore Cancer Center Pvt..,"No 118/1-2,, Mookambika Temple Road, Machohalli Forest Gate, Magadi Main Road, Bangalore - 560091",07947167029,11Votes,4.5,12.990588,77.4582247
18,Kubra Maternity And Nursing..,"No.26/10, Mosque Road, Bismillanagar, Btm Layout 1st Stage, Bangalore - 560029, Near Sagar Apollo Hospital",07947154890,68Votes,4.0,12.9268936,77.6039611
19,Dmr Polyclinic,"No.152, Ground Floor, 13th Main, 1st Cross, Bank Officers Colony, BTM Layout 1st Stage, Bangalore - 560068, Opposite to Bangalore One",07947298212,31Votes,4.8,12.917025,77.6087689722
20,Kanjira Ayurveda and Beauty..,"No 112, Ramireddy Building,, Doddathogur, Electronic City Phase 1, Bangalore - 560100, Near Munishwara Temple",07947161899,311Votes,4.6,12.8511662,77.6510144
21,Marvel Multispeciality Hosp..,"No 153, 1st Block,1st Cross, Koramangala, Bangalore - 560034, Near Jakkasandra Bus Stop",07947156202,633Votes,4.1,12.9254774,77.6359863
22,Manipal Hospital,"No 45/1, 45th Cross, Jayanagar 9th Block, Bangalore - 560069, Opposite Bangalore Central",07947155959,3421Votes,4.2,12.917121,77.591819
23,Cleveland Neurocare Multi S..,"No 1060 Cherry Complex, 8th Main Road Kuttiyappa Garden Vijaya Bank Layout, Bilekahalli, Bangalore - 560076, Opp to Bbmp Office",07947167042,30Votes,4.8,12.8950174,77.6094203
24,Sri Sai Ram Hospitals,"No. 6, J C Industrial Area, Yellechenahallli Post, Kanakapura Road, Bangalore - 560062, Near Metro",07947155878,535Votes,3.8,12.8943704,77.56827
25,Sri Deepa Hospital And Medi..,"No.644, 5th Block,, 60ft Road,, Vishweshwaraiah Layout, Bangalore - 560056, Near Ullal Upnagara, Next to Udupi Veg Hotel",08045789184,25Votes,4.3,12.958174194444,77.481662472222
26,Medcare Hospital,"No.12, SS Temple Street, V V Puram, Bangalore - 560004, Behind VV Puram Law College",07947160698,147Votes,4.2,12.953044,77.57417
27,Springleaf Healthcare,"No 60/3 Hosur Main Road, Konappanna Aghara, Electronic City, Bangalore - 560100, Opposite Infosys and Pillar No 228",07947154691,392Votes,3.7,12.8526069,77.6676044
28,Shastra Multi Speciality Ho..,"No 52 Huskur Gate, Hosur Main Road, Electronic City, Bangalore - 560100",07947462871,84Votes,4.5,12.8357745,77.6791122
29,Fair Deal Pharma,"No.164, 1st Floor, Sultanpet Main Road, Bangalore - 560053, Near Rajkumar Papers",07947154424,29Votes,4.3,12.969788419,77.572155086
30,Smt. Jayadevi Memorial Hosp..,"No.284/16, Chikka Gollarahatti, Dasanapura Hobli, Kachohalli, Bangalore - 560091, Opp to Chikkagollarahatti Main Bus Stop",07947165451,1Votes,4.5,12.9916907,77.4648505
31,Health INDIA Hospital,"No. 7, 6th Cross, Tavarekere Main Road, Chikka Adugodi, Bangalore - 560029, Near Home Needs Supermarket",07947436760,346Votes,3.2,12.926357,77.609052
32,Sri Matru Hospital,"No. 2094,, Railway Parallel Road,, Kengeri Satelite Town, Bangalore - 560060, Near Kengeri Flyover",07947198778,1Votes,5.0,12.92321,77.484477
33,Sri Rajarajeshwari and Comp..,"Thimmaiah Chambers, Ground Floor, 1st Cross, Gandhi Nagar, Bangalore - 560009, Above Bank Of Maharastra Or Near Kamath Yathri Nivas",07947154357,969Votes,3.5,12.975,77.5777777778
34,BN Speciality Hospital,"No 2,Yashas Complex, Kasavanahalli Road,Kaikondrahalli, Kaikondrahalli, Bangalore - 560035, Near State Bank Of Mysore",07947184284,181Votes,3.8,12.9124884,77.6765574
35,Spine Care and Ortho Care H..,"No 14/1, Police Quaters Junction, Magadi Road, Bangalore - 560023, Opposite Sai Baba Temple",08045789327,237Votes,4.0,12.9744346,77.5492806
36,Usha Hospital,"Doddaballapur Road, Renuka Nagar, Nelamangala, Bangalore - 562123, Near STATE BANK OF MYSORE",+(91)-8050528636,9Votes,4.6,13.107086,77.3879
37,Gunasheela Surgical And Mat..,"No.1, Deewan  N Madhava Roa Road, Basavanagudi, Bangalore - 560004, Near M N Krishna Roa Park",+(91)-80-46462600,855Votes,4.0,12.940389,77.576428
38,Painadath Herbals,"No 74 Painadath Herbals, Coffee Board Layout Bhuvaneshwari Nagar, Hebbal, Bangalore - 560024, Next to St. Johns School",+(91)-9035500780,29Votes,4.7,13.0531061,77.6065319
39,Lavender Lotus Multispecial..,"No.51, 16th Cross, Bhuvaneshwari Nagar, Dasarahalli Hebbal, Bangalore - 560024, Near Kenneth George English School",+(91)-80-22331441,17Votes,3.9,13.054702249356,77.604803871363
40,HLC Ayurveda and Nature Cur..,"HLC Ayurveda and Nature Cure Hospital, S Bingipura Electronic City Phase 1, Hulimangala, Bangalore - 560105, Beyond Brainy Stars International School",+(91)-080-29755255,60Votes,4.3,12.8286454167,77.6329480833
41,Shruta Eye Care,"#44, 4th Cross,Raghuvanahalli, Kanakapura Road, Bangalore - 560062, Next to Bata Showroom,KSIT",+(91)-9513826367,61Votes,4.7,12.8790504,77.5457374
42,Prolife Multispeciality Hos..,"#248/249/289/101, B B Road, International Airport Road, Byataranyanapura, Bangalore - 560092, Near Byatarayanapura Signal, Opposite to Kodandarama Temple",+(91)-80-41162226,305Votes,4.1,13.064983,77.5936296
43,Rjr Herbal Ayurveda Siddha ..,"307 , 46th Street 9th Main Road 4th Block, Rajaji Nagar, Rajajinagar, Bangalore - 560010",+(91)-80-49556506,44Votes,3.8,12.9909676092,77.5532627106
44,Akshaya Nursing Home,"No.33/34, Balaji Avenue, 2nd Stage, Attur Main Road, Yelahanka New Town, Bangalore - 560064, Near to Rayol Concord School",+(91)-9591622565,37Votes,3.9,13.104769,77.566428
45,Sri Lakshmi Super Specialit..,"No : 301, Old Extension, 3rd Main Road, Krishnarajapuram, Bangalore - 560036, Near Indane Kaveri Gas Agency",+(91)-080-25617799,212Votes,3.6,13.0110464,77.6973516
46,Astra Superspeciality Hospi..,"No.21/7, Kanakapura Main Road, Konanakunte Cross, Bangalore - 560062, Opposite Manasa Theater",+(91)-7026404142,994Votes,4.6,12.8908263,77.5632409
47,Devagiri Hospital,"No.2461, 24th Cross, Banashankari 2nd Stage, Bangalore - 560070",+(91)-080-26980555,238Votes,4.0,12.9241077,77.5658037
48,Dr Bafnas Star Superspecial..,"Building, Ruikar Colony, Kolhapur - 416005",08045784070,33Votes,4.8,12.9241077,77.5658037
49,Hridaya Cancer Hospital,"2821 Hridaya Building, Sangli Kolhapur Highway, Kolhapur - 416109, Near Herle Phata",07947250324,57Votes,4.2,12.9241077,77.5658037
50,Gaurav Homeopathic Clinic,"Shop No 2, Kalanaur Rohtak, Rohtak - 124113, Near New Bus Stand Ke Saath Wali Gali",+(91)-8607337495,269Votes,4.3,12.9241077,77.5658037
51,Manipal Hospital,"No.98, Old Airport Road, Bangalore - 560017, Opposite Leela Palace",+(91)-080-25024444,10807Votes,4.1,12.9595872,77.6493743
52,Fortis Hospitals,"No. 154/9, Bannerghatta Road, Bangalore - 560076, Opposite IIMB",+(91)-8884491009,10363Votes,4.2,12.8945311,77.5989032
53,St Johns Medical College & ..,"Sarjapura Main Road, Koramangala, Bangalore - 560034, Near Koramangala Water Tank, Opposite BDA Complex",+(91)-080-22065001,8798Votes,4.1,12.9291938,77.6201021
54,Columbia Asia Hospital,"Bellary Road, Hebbal, Bangalore - 560024, Near Esteem Mall and Next  Kirloskar Business Park",+(91)-080-66600666,8621Votes,4.1,13.050971,77.593815
55,Apollo Hospitals,"No.154/11, Bannerghatta Road, Bangalore - 560076, Opposite IIMB, Next to Fortis Hospital",18605001066,8552Votes,4.1,12.896328,77.598297
56,Sagar Hospital,"No. 44/54, 30th Cross, Bannerghatta Main Road, Jayanagar, Bangalore - 560041, Opposite ICICI Bank, Near Tilak Nagar",+(91)-080-42888888,7121Votes,4.1,12.9279837,77.5995246
57,Fortis Hospital,"No.14, Cunningham Road, Bangalore - 560052, Near Sigma Mall",+(91)-080-1994444,6581Votes,4.1,12.988318,77.5944151
58,Columbia Asia Hospital,"Survey No. 10P &amp; 12P, Varthur Kodi, Whitefield, Bangalore - 560066, Opposite Forum Value Mall",+(91)-080-61656666,6153Votes,4.2,12.958194,77.745655
59,Cloudnine Maternity Hospita..,"No.115, Old Airport Road, Bangalore - 560017, Opposite Kemp Fort &amp; Total Mall",+(91)-9972899728,5464Votes,4.5,12.9594517,77.6566866
60,Sakra World Hospital,"No. 52/2 &amp; 52/3, Outer Ring Road, Devarabeesanahalli-bellandur, Bangalore - 560103, Opposite Intel",+(91)-080-49694969,5411Votes,4.0,12.9323275,77.6851886
61,M S Ramaiah Memorial Hospit..,"M S Ramaiah Nagar, Msrit Post, New Bel Road, Bangalore - 560054, Behind Indian Institute Of Science",+(91)-080-23608888,5338Votes,4.1,13.028326,77.569815
62,Bgs Gleneagles Global Hospi..,"No. 67, 1st Block, Uttarahalli Road, Kengeri, Bangalore - 560060, Near SJBIT College",+(91)-080-26255555,5062Votes,4.1,12.90321,77.497537
63,Chinmaya Mission Hospital,"80 Feet Road, CMH Road,  Defence Colony, Indira Nagar 1st Stage, Bangalore - 560038, Opposite Krishna Temple",+(91)-080-25250017,4807Votes,4.0,12.97781,77.646371
64,Manipal Hospital,"No 143/212/215, Hoodi Village, Epip Industrial Area, Whitefield, Bangalore - 560066, Opposite Prestige Shanthiniketan",+(91)-080-25027000,4400Votes,4.3,12.988125,77.728473
65,Specialist Hospital,"No.216, 7th Main, 80 Feet Road, HRBR 1st Block, Kalyan Nagar, Bangalore - 560043, Near Om Shakti Temple",+(91)-080-42122222,4317Votes,4.2,13.0170726,77.6431881
66,Bhagwan Mahaveer Jain Hospi..,"No. 17, Tank Bund Road, Millers Road, Bangalore - 560051, Opposite Ayyappa Temple &amp;  BMTC Bus Stop",+(91)-080-40875555,4297Votes,4.0,12.9915777,77.5952071
67,Columbia Asia Hospital,"No.26/1, Brigade Gateway, Malleswaram West, Bangalore - 560055, Next to Metro Cash and Carry",+(91)-080-67416262,4283Votes,4.1,13.0141759,77.5559485
68,Rainbow Childrens Hospital ..,"No.8/5, KR Puram Marathahalli Outer Ring Road, Marathahalli, Bangalore - 560037, Opposite HP Petrol Pump",+(91)-080-42412375,4213Votes,4.3,12.9752402,77.6977325
69,Sagar Hospitals-DSI,"Dayananda Sagar Institution Campus, Malleshwara Hills Primises, Kumaraswamy Layout 1st Stage, Bangalore - 560111, Next to Dayananda Sagar Engineering College",+(91)-080-42999999,4158Votes,4.4,12.9079517,77.5651177
70,Nimhans Hospital,"No.2900, M H Gowda Road, Hosur Road, Bangalore - 560029, Near Bangalore Milk Dairy",+(91)-080-26995400,4152Votes,4.1,12.938677,77.594262
71,Sankara Eye Hospital,"Kundalahalli Gate,Varthur Main Road, Marathahalli, Bangalore - 560037, Near Karunashraya Ashrama",07947154354,4123Votes,4.3,12.956605,77.71287
72,Narayana Hrudayalaya Ltd,"No.258/A, NH Health City, Industrial Area, Hosur Bande, Bangalore - 562149, Next to BTL College",+(91)-080-67506808,4123Votes,4.2,12.809432,77.695354
73,Nethradhama Super Specialit..,"No.256/14, Kanakapura Main Road, Jayanagar 7th Block, Bangalore - 560070, Next to Deepak Nursing Home",+(91)-080-26088000,3793Votes,4.2,12.92531,77.577292
74,Mallya Hospital,"No. 2, Vittal Mallya Road, Bangalore - 560001, Opposite Sree Kanteerava Stadium, Near St Joseph College,ITC Hotel",+(91)-080-68697979,3783Votes,4.0,12.9680654,77.5950695
75,Sri Jayadeva Institute Of C..,"Bannerghatta Main Road, Jayanagar 9th Block, Bangalore - 560069, Near BTM Flyover",+(91)-080-26534600,3730Votes,4.2,12.918143,77.599181
76,Narayana Nethralaya,"No.258/A, Hosur Road, Bommasandra Industrial Area, Bangalore - 560099, Near Narayana Health City",+(91)-080-66660655,3605Votes,4.7,12.8064766,77.6937978
77,Shekar Eye Hospital,"No 633, 100 Feet Ring Road, Jp Nagar 3rd Phase, Bangalore - 560078, Near Dalmia Software Signal, Opposite Dominos Pizza",+(91)-80-26593210,3550Votes,4.4,12.9064733,77.5959451
78,St Philomenas Hospital,"No.4, Mother Teresa Road, Vivek Nagar, Bangalore - 560047, Near Lifestyle Shopping Mall",+(91)-080-40164300,3369Votes,4.0,12.965443,77.6107905
79,Cloudnine Maternity Hospita..,"No 47, 17th Cross, 11th Main, Malleswaram, Bangalore - 560003, Near MES College",+(91)-9972899728,3364Votes,4.3,13.00786,77.562549
80,Dr. Rudrappa Hospital,"No 5, Rajaram Mohan Roy Cross Road, Richmond Town, Bangalore - 560025, Near Woodlands Hotel",07947155462,3282Votes,4.3,12.965122,77.595607
81,Rangadore Memorial Hospital,"No.25, Shankar Mutt Complex, 1st Cross,, Basavanagudi, Bangalore - 560004, Near National College, Behind Shanakrpuram Police Station",+(91)-080-26983300,3226Votes,4.1,12.95336,77.571014
82,Vikram Hospital Pvt Ltd,"No.71/1, Millers Road, Bangalore - 560051, Opposite St Annes School &amp; College",+(91)-080-45004500,3200Votes,4.2,12.988354,77.591944
83,Life Care Hospital,"No 23/24, 20th Main,Gangothri Circle, Btm Layout 1st Stage, Bangalore - 560029, Near Gangothri Bar and Restaurant",+(91)-80-26846667,3185Votes,4.4,12.9193885,77.612994
84,Hosmat Hospital,"No.45, Magrath Road, Bangalore - 560025, Near Garuda Mall, Off Richmond Road",+(91)-080-25593796,3110Votes,4.0,12.9691411,77.6133653
85,Apollo Speciality Hospital,"No. 21/2, Old No. 2, 14th Cross, Jayanagar 3rd Block East, Bangalore - 560011, Near Madhavan Park",+(91)-080-46124444,2973Votes,4.0,12.9363709,77.5844437
86,Vasan Eye Care Hospital,"No.46, Old No.389/B, 19th Main Road, Rajajinagar 1st Block, Bangalore - 560010, Next to Ananya Hospital, Near Navarang Theatre",+(91)-80-46741900,2951Votes,4.1,12.9994436,77.5504404
87,Motherhood Hospital,"No 514/1-2-3, Kaikondara Village, Sarjapur Road, Bangalore - 560034, Opposite Total Mall",+(91)-080-67238811,2840Votes,4.3,12.917811,77.672198
88,Motherhood Hospital,"No. 324, Cmh Road,1st Stage, Indiranagar, Bangalore - 560038, Near Vijaya Bank",+(91)-080-67238833,2797Votes,4.3,12.978469,77.637512
89,Mallige Hospital,"No.31/32, Crescent Road, Bangalore - 560001, Near Race Course &amp; Bangalore International Hotel",+(91)-080-67165555,2775Votes,4.1,12.9851511,77.5803788
90,Narayana Multispeciality Ho..,"No. 1, 18th Main, Hsr Layout Sector 3, Bangalore - 560102, Opposite HSR Club",+(91)-8095045695,2729Votes,4.0,12.9082884,77.6434947
91,Fortis Hospital,"No.111/112, West Of Chord Road, Mahalakshmipuram Layout, Bangalore - 560086, Opposite Rajajinagar 1st Block Junction",+(91)-9538311144,2644Votes,4.1,13.00222131,77.549136216
92,Santosh Hospital,"No. 6/1, Promenade Road, Pulikeshi Nagar, Bangalore - 560005, Behind Coles Park, Near Goodwill School",+(91)-080-40848888,2624Votes,3.8,12.995734,77.608304
93,Chord Road Hospital Pvt Ltd,"No.100/101, West Of Chord Road, Basaveshwara Nagar, Bangalore - 560079, Near Shankar Mutt,  LIC Colony",+(91)-080-23225848,2463Votes,4.0,12.9980336,77.5405384
94,Rainbow Childrens Hospital ..,"No.178/1 &amp; 178/2, Bannerghatta Main Road, Bannerghatta Road, Bangalore - 560076, Opposite Janardhan Towers",+(91)-80-66902299,2446Votes,4.3,12.9033775,77.6007898
95,Columbia Asia Hospital,"No. 46/2, Ward No.150, Sarjapur Road, Bangalore - 560034, Near Apollo Pharmacy",+(91)-080-66756565,2420Votes,4.1,12.919927,77.66527
96,Kempegowda Institute Of Med..,"K R Road, Makalakuta Circle, V V Puram, Bangalore - 560004, Near Basavanagudi Police Station",+(91)-080-26620036,2414Votes,4.0,12.9563184,77.5747066
97,Sri Sathya Sai Institute Of..,"1st Main Road, Epip Zone, Whitefield, Bangalore - 560066, Opposite Sjr Park, Near Itpl",+(91)-080-28004600,2399Votes,4.3,12.9812776,77.7293937
98,Apollo Cradle,"No. 25, 46th Cross, Jayanagar 5th Block, Bangalore - 560041, Near Raghavendra Mutt",+(91)-080-44244424,2356Votes,4.5,12.916727,77.585194
99,Narayana Multispeciality Ho..,"No.3 &amp; 4, Sadaramanagala Industrial Area, Whitefield, Bangalore - 560066, Opposite ITPL Main Gate, Next to Shanthinikethan",+(91)-080-67506808,2279Votes,4.0,12.989504,77.733878
100,Virat Multispeciality Hospi..,"No 1637/679,, Kogilu Main Road, Yelahanka, Bangalore - 560064, Maruthi Nagar Bus Stop",07947351225,2Votes,3.5,13.100901,77.596754
101,Varalakshmi Hospital,"No.38/2, 2nd Main Road, Madivala New Extension, Madiwala, Bangalore - 560068, Behind Ayyappa Temple",07947154672,199Votes,3.9,12.9245777,77.6170137
102,Ak Ayurvedic Clinic,"NO 122/4, HOSUR ROAD, Attibele, Bangalore - 562107",07947285741,2Votes,3.5,12.777589,77.770659
103,Siliconcity Hospitals,"Site No 12,21 and 11,22, Old Madras Road,Hoskote Town,AIR Layout, Hoskote, Bangalore - 562114, Near BMTC Bus Depo",07947161435,51Votes,3.8,13.068657,77.781321
104,Kasper Multi Speaciality Cl..,"No 31, 100ft Road Indiranagar, Indiranagar, Bangalore - 560038, Near Domlur Flyover",08045789697,27Votes,4.5,12.979007,77.637763
105,Kubra Maternity And Nursing..,"No.26/10, Mosque Road, Bismillanagar, Btm Layout 1st Stage, Bangalore - 560029, Near Sagar Apollo Hospital",07947154890,68Votes,4.0,12.9268936,77.6039611
106,Marvel Multispeciality Hosp..,"No 153, 1st Block,1st Cross, Koramangala, Bangalore - 560034, Near Jakkasandra Bus Stop",07947156202,633Votes,4.1,12.9254774,77.6359863
107,Dmr Polyclinic,"No.152, Ground Floor, 13th Main, 1st Cross, Bank Officers Colony, BTM Layout 1st Stage, Bangalore - 560068, Opposite to Bangalore One",07947298212,31Votes,4.8,12.917025,77.6087689722
108,Kanjira Ayurveda and Beauty..,"No 112, Ramireddy Building,, Doddathogur, Electronic City Phase 1, Bangalore - 560100, Near Munishwara Temple",07947161899,311Votes,4.6,12.8511662,77.6510144
109,Springleaf Healthcare,"No 60/3 Hosur Main Road, Konappanna Aghara, Electronic City, Bangalore - 560100, Opposite Infosys and Pillar No 228",07947154691,392Votes,3.7,12.8526069,77.6676044
110,Sri Sai Ram Hospitals,"No. 6, J C Industrial Area, Yellechenahallli Post, Kanakapura Road, Bangalore - 560062, Near Metro",07947155878,535Votes,3.8,12.8943704,77.56827
111,Bangalore Cancer Center Pvt..,"No 118/1-2,, Mookambika Temple Road, Machohalli Forest Gate, Magadi Main Road, Bangalore - 560091",07947167029,11Votes,4.5,12.990588,77.4582247
112,A V Multispeciality Hospita..,"No.781, 782, 100 Feet Main Road, 7th Block, Banashankari 3rd Stage, Bangalore - 560085, Opposite Little Flower Public School",07947162715,264Votes,4.1,12.9327366,77.5409162
113,Cleveland Neurocare Multi S..,"No 1060 Cherry Complex, 8th Main Road Kuttiyappa Garden Vijaya Bank Layout, Bilekahalli, Bangalore - 560076, Opp to Bbmp Office",07947167042,30Votes,4.8,12.8950174,77.6094203
114,Fair Deal Pharma,"No.164, 1st Floor, Sultanpet Main Road, Bangalore - 560053, Near Rajkumar Papers",07947154424,29Votes,4.3,12.969788419,77.572155086
115,Sri Deepa Hospital And Medi..,"No.644, 5th Block,, 60ft Road,, Vishweshwaraiah Layout, Bangalore - 560056, Near Ullal Upnagara, Next to Udupi Veg Hotel",08045789184,25Votes,4.3,12.958174194444,77.481662472222
116,Prashanth Hospital,"No.90/D, Hosur Main Road, Bommanahalli, Bangalore - 560068",07947154231,635Votes,3.7,12.9065634,77.6287203
117,Health INDIA Hospital,"No. 7, 6th Cross, Tavarekere Main Road, Chikka Adugodi, Bangalore - 560029, Near Home Needs Supermarket",07947436760,346Votes,3.2,12.926357,77.609052
118,Shastra Multi Speciality Ho..,"No 52 Huskur Gate, Hosur Main Road, Electronic City, Bangalore - 560100",07947462871,84Votes,4.5,12.8357745,77.6791122
119,Aashirvad Healthcare Centnr..,"No 73 NPR COMPLEX, S L N Temple Road, Marathahalli, Bangalore - 560037, Beside Sri Lakshmi Narayana Temple",07947161153,13Votes,4.0,12.964842589584,77.67396681018
120,Smt. Jayadevi Memorial Hosp..,"No.284/16, Chikka Gollarahatti, Dasanapura Hobli, Kachohalli, Bangalore - 560091, Opp to Chikkagollarahatti Main Bus Stop",07947165451,1Votes,4.5,12.9916907,77.4648505
121,Medcare Hospital,"No.12, SS Temple Street, V V Puram, Bangalore - 560004, Behind VV Puram Law College",07947160698,147Votes,4.2,12.953044,77.57417
122,Sri Matru Hospital,"No. 2094,, Railway Parallel Road,, Kengeri Satelite Town, Bangalore - 560060, Near Kengeri Flyover",07947198778,1Votes,5.0,12.92321,77.484477
123,Sri Rajarajeshwari and Comp..,"Thimmaiah Chambers, Ground Floor, 1st Cross, Gandhi Nagar, Bangalore - 560009, Above Bank Of Maharastra Or Near Kamath Yathri Nivas",07947154357,969Votes,3.5,12.975,77.5777777778
124,BN Speciality Hospital,"No 2,Yashas Complex, Kasavanahalli Road,Kaikondrahalli, Kaikondrahalli, Bangalore - 560035, Near State Bank Of Mysore",07947184284,181Votes,3.8,12.9124884,77.6765574
125,Usha Hospital,"Doddaballapur Road, Renuka Nagar, Nelamangala, Bangalore - 562123, Near STATE BANK OF MYSORE",+(91)-8050528636,9Votes,4.6,13.107086,77.3879
126,Spine Care and Ortho Care H..,"No 14/1, Police Quaters Junction, Magadi Road, Bangalore - 560023, Opposite Sai Baba Temple",08045789327,237Votes,4.0,12.9744346,77.5492806
127,Gunasheela Surgical And Mat..,"No.1, Deewan  N Madhava Roa Road, Basavanagudi, Bangalore - 560004, Near M N Krishna Roa Park",+(91)-80-46462600,855Votes,4.0,12.940389,77.576428
128,Painadath Herbals,"No 74 Painadath Herbals, Coffee Board Layout Bhuvaneshwari Nagar, Hebbal, Bangalore - 560024, Next to St. Johns School",+(91)-9035500780,29Votes,4.7,13.0531061,77.6065319
129,Shruta Eye Care,"#44, 4th Cross,Raghuvanahalli, Kanakapura Road, Bangalore - 560062, Next to Bata Showroom,KSIT",+(91)-9513826367,61Votes,4.7,12.8790504,77.5457374
130,Akshaya Nursing Home,"No.33/34, Balaji Avenue, 2nd Stage, Attur Main Road, Yelahanka New Town, Bangalore - 560064, Near to Rayol Concord School",+(91)-9591622565,37Votes,3.9,13.104769,77.566428
131,Devagiri Hospital,"No.2461, 24th Cross, Banashankari 2nd Stage, Bangalore - 560070",+(91)-080-26980555,238Votes,4.0,12.9241077,77.5658037
132,Lavender Lotus Multispecial..,"No.51, 16th Cross, Bhuvaneshwari Nagar, Dasarahalli Hebbal, Bangalore - 560024, Near Kenneth George English School",+(91)-80-22331441,17Votes,3.9,13.054702249356,77.604803871363
133,Rjr Herbal Ayurveda Siddha ..,"307 , 46th Street 9th Main Road 4th Block, Rajaji Nagar, Rajajinagar, Bangalore - 560010",+(91)-80-49556506,44Votes,3.8,12.9909676092,77.5532627106
134,HLC Ayurveda and Nature Cur..,"HLC Ayurveda and Nature Cure Hospital, S Bingipura Electronic City Phase 1, Hulimangala, Bangalore - 560105, Beyond Brainy Stars International School",+(91)-080-29755255,60Votes,4.3,12.8286454167,77.6329480833
135,Sri Lakshmi Super Specialit..,"No : 301, Old Extension, 3rd Main Road, Krishnarajapuram, Bangalore - 560036, Near Indane Kaveri Gas Agency",+(91)-080-25617799,212Votes,3.6,13.0110464,77.6973516
136,Prolife Multispeciality Hos..,"#248/249/289/101, B B Road, International Airport Road, Byataranyanapura, Bangalore - 560092, Near Byatarayanapura Signal, Opposite to Kodandarama Temple",+(91)-80-41162226,305Votes,4.1,13.064983,77.5936296
137,Astra Superspeciality Hospi..,"No.21/7, Kanakapura Main Road, Konanakunte Cross, Bangalore - 560062, Opposite Manasa Theater",+(91)-7026404142,994Votes,4.6,12.8908263,77.5632409
138,Dr Bafnas Star Superspecial..,"Building, Ruikar Colony, Kolhapur - 416005",08045784070,33Votes,4.8,12.8908263,77.5632409
139,Hridaya Cancer Hospital,"2821 Hridaya Building, Sangli Kolhapur Highway, Kolhapur - 416109, Near Herle Phata",07947250324,57Votes,4.2,12.8908263,77.5632409
140,Gaurav Homeopathic Clinic,"Shop No 2, Kalanaur Rohtak, Rohtak - 124113, Near New Bus Stand Ke Saath Wali Gali",+(91)-8607337495,269Votes,4.3,12.8908263,77.5632409
141,Manipal Hospital,"No.98, Old Airport Road, Bangalore - 560017, Opposite Leela Palace",+(91)-080-25024444,10807Votes,4.1,12.9595872,77.6493743
142,Fortis Hospitals,"No. 154/9, Bannerghatta Road, Bangalore - 560076, Opposite IIMB",+(91)-8884491009,10363Votes,4.2,12.8945311,77.5989032
143,St Johns Medical College & ..,"Sarjapura Main Road, Koramangala, Bangalore - 560034, Near Koramangala Water Tank, Opposite BDA Complex",+(91)-080-22065001,8798Votes,4.1,12.9291938,77.6201021
144,Columbia Asia Hospital,"Bellary Road, Hebbal, Bangalore - 560024, Near Esteem Mall and Next  Kirloskar Business Park",+(91)-080-66600666,8621Votes,4.1,13.050971,77.593815
145,Apollo Hospitals,"No.154/11, Bannerghatta Road, Bangalore - 560076, Opposite IIMB, Next to Fortis Hospital",18605001066,8552Votes,4.1,12.896328,77.598297
146,Sagar Hospital,"No. 44/54, 30th Cross, Bannerghatta Main Road, Jayanagar, Bangalore - 560041, Opposite ICICI Bank, Near Tilak Nagar",+(91)-080-42888888,7121Votes,4.1,12.9279837,77.5995246
147,Fortis Hospital,"No.14, Cunningham Road, Bangalore - 560052, Near Sigma Mall",+(91)-080-1994444,6581Votes,4.1,12.988318,77.5944151
148,Columbia Asia Hospital,"Survey No. 10P &amp; 12P, Varthur Kodi, Whitefield, Bangalore - 560066, Opposite Forum Value Mall",+(91)-080-61656666,6153Votes,4.2,12.958194,77.745655
149,Cloudnine Maternity Hospita..,"No.115, Old Airport Road, Bangalore - 560017, Opposite Kemp Fort &amp; Total Mall",+(91)-9972899728,5464Votes,4.5,12.9594517,77.6566866
150,Sakra World Hospital,"No. 52/2 &amp; 52/3, Outer Ring Road, Devarabeesanahalli-bellandur, Bangalore - 560103, Opposite Intel",+(91)-080-49694969,5411Votes,4.0,12.9323275,77.6851886
151,M S Ramaiah Memorial Hospit..,"M S Ramaiah Nagar, Msrit Post, New Bel Road, Bangalore - 560054, Behind Indian Institute Of Science",+(91)-080-23608888,5338Votes,4.1,13.028326,77.569815
152,Bgs Gleneagles Global Hospi..,"No. 67, 1st Block, Uttarahalli Road, Kengeri, Bangalore - 560060, Near SJBIT College",+(91)-080-26255555,5062Votes,4.1,12.90321,77.497537
153,Chinmaya Mission Hospital,"80 Feet Road, CMH Road,  Defence Colony, Indira Nagar 1st Stage, Bangalore - 560038, Opposite Krishna Temple",+(91)-080-25250017,4807Votes,4.0,12.97781,77.646371
154,Manipal Hospital,"No 143/212/215, Hoodi Village, Epip Industrial Area, Whitefield, Bangalore - 560066, Opposite Prestige Shanthiniketan",+(91)-080-25027000,4400Votes,4.3,12.988125,77.728473
155,Specialist Hospital,"No.216, 7th Main, 80 Feet Road, HRBR 1st Block, Kalyan Nagar, Bangalore - 560043, Near Om Shakti Temple",+(91)-080-42122222,4317Votes,4.2,13.0170726,77.6431881
156,Bhagwan Mahaveer Jain Hospi..,"No. 17, Tank Bund Road, Millers Road, Bangalore - 560051, Opposite Ayyappa Temple &amp;  BMTC Bus Stop",+(91)-080-40875555,4297Votes,4.0,12.9915777,77.5952071
157,Columbia Asia Hospital,"No.26/1, Brigade Gateway, Malleswaram West, Bangalore - 560055, Next to Metro Cash and Carry",+(91)-080-67416262,4283Votes,4.1,13.0141759,77.5559485
158,Rainbow Childrens Hospital ..,"No.8/5, KR Puram Marathahalli Outer Ring Road, Marathahalli, Bangalore - 560037, Opposite HP Petrol Pump",+(91)-080-42412375,4213Votes,4.3,12.9752402,77.6977325
159,Sagar Hospitals-DSI,"Dayananda Sagar Institution Campus, Malleshwara Hills Primises, Kumaraswamy Layout 1st Stage, Bangalore - 560111, Next to Dayananda Sagar Engineering College",+(91)-080-42999999,4158Votes,4.4,12.9079517,77.5651177
160,Nimhans Hospital,"No.2900, M H Gowda Road, Hosur Road, Bangalore - 560029, Near Bangalore Milk Dairy",+(91)-080-26995400,4152Votes,4.1,12.938677,77.594262
161,Sankara Eye Hospital,"Kundalahalli Gate,Varthur Main Road, Marathahalli, Bangalore - 560037, Near Karunashraya Ashrama",07947154354,4123Votes,4.3,12.956605,77.71287
162,Narayana Hrudayalaya Ltd,"No.258/A, NH Health City, Industrial Area, Hosur Bande, Bangalore - 562149, Next to BTL College",+(91)-080-67506808,4123Votes,4.2,12.809432,77.695354
163,Nethradhama Super Specialit..,"No.256/14, Kanakapura Main Road, Jayanagar 7th Block, Bangalore - 560070, Next to Deepak Nursing Home",+(91)-080-26088000,3793Votes,4.2,12.92531,77.577292
164,Mallya Hospital,"No. 2, Vittal Mallya Road, Bangalore - 560001, Opposite Sree Kanteerava Stadium, Near St Joseph College,ITC Hotel",+(91)-080-68697979,3783Votes,4.0,12.9680654,77.5950695
165,Sri Jayadeva Institute Of C..,"Bannerghatta Main Road, Jayanagar 9th Block, Bangalore - 560069, Near BTM Flyover",+(91)-080-26534600,3730Votes,4.2,12.918143,77.599181
166,Narayana Nethralaya,"No.258/A, Hosur Road, Bommasandra Industrial Area, Bangalore - 560099, Near Narayana Health City",+(91)-080-66660655,3605Votes,4.7,12.8064766,77.6937978
167,Shekar Eye Hospital,"No 633, 100 Feet Ring Road, Jp Nagar 3rd Phase, Bangalore - 560078, Near Dalmia Software Signal, Opposite Dominos Pizza",+(91)-80-26593210,3550Votes,4.4,12.9064733,77.5959451
168,St Philomenas Hospital,"No.4, Mother Teresa Road, Vivek Nagar, Bangalore - 560047, Near Lifestyle Shopping Mall",+(91)-080-40164300,3369Votes,4.0,12.965443,77.6107905
169,Cloudnine Maternity Hospita..,"No 47, 17th Cross, 11th Main, Malleswaram, Bangalore - 560003, Near MES College",+(91)-9972899728,3364Votes,4.3,13.00786,77.562549
170,Dr. Rudrappa Hospital,"No 5, Rajaram Mohan Roy Cross Road, Richmond Town, Bangalore - 560025, Near Woodlands Hotel",07947155462,3282Votes,4.3,12.965122,77.595607
171,Rangadore Memorial Hospital,"No.25, Shankar Mutt Complex, 1st Cross,, Basavanagudi, Bangalore - 560004, Near National College, Behind Shanakrpuram Police Station",+(91)-080-26983300,3226Votes,4.1,12.95336,77.571014
172,Vikram Hospital Pvt Ltd,"No.71/1, Millers Road, Bangalore - 560051, Opposite St Annes School &amp; College",+(91)-080-45004500,3200Votes,4.2,12.988354,77.591944
173,Life Care Hospital,"No 23/24, 20th Main,Gangothri Circle, Btm Layout 1st Stage, Bangalore - 560029, Near Gangothri Bar and Restaurant",+(91)-80-26846667,3185Votes,4.4,12.9193885,77.612994
174,Hosmat Hospital,"No.45, Magrath Road, Bangalore - 560025, Near Garuda Mall, Off Richmond Road",+(91)-080-25593796,3110Votes,4.0,12.9691411,77.6133653
175,Apollo Speciality Hospital,"No. 21/2, Old No. 2, 14th Cross, Jayanagar 3rd Block East, Bangalore - 560011, Near Madhavan Park",+(91)-080-46124444,2973Votes,4.0,12.9363709,77.5844437
176,Vasan Eye Care Hospital,"No.46, Old No.389/B, 19th Main Road, Rajajinagar 1st Block, Bangalore - 560010, Next to Ananya Hospital, Near Navarang Theatre",+(91)-80-46741900,2951Votes,4.1,12.9994436,77.5504404
177,Motherhood Hospital,"No 514/1-2-3, Kaikondara Village, Sarjapur Road, Bangalore - 560034, Opposite Total Mall",+(91)-080-67238811,2840Votes,4.3,12.917811,77.672198
178,Motherhood Hospital,"No. 324, Cmh Road,1st Stage, Indiranagar, Bangalore - 560038, Near Vijaya Bank",+(91)-080-67238833,2797Votes,4.3,12.978469,77.637512
179,Mallige Hospital,"No.31/32, Crescent Road, Bangalore - 560001, Near Race Course &amp; Bangalore International Hotel",+(91)-080-67165555,2775Votes,4.1,12.9851511,77.5803788
180,Narayana Multispeciality Ho..,"No. 1, 18th Main, Hsr Layout Sector 3, Bangalore - 560102, Opposite HSR Club",+(91)-8095045695,2729Votes,4.0,12.9082884,77.6434947
181,Fortis Hospital,"No.111/112, West Of Chord Road, Mahalakshmipuram Layout, Bangalore - 560086, Opposite Rajajinagar 1st Block Junction",+(91)-9538311144,2644Votes,4.1,13.00222131,77.549136216
182,Santosh Hospital,"No. 6/1, Promenade Road, Pulikeshi Nagar, Bangalore - 560005, Behind Coles Park, Near Goodwill School",+(91)-080-40848888,2624Votes,3.8,12.995734,77.608304
183,Chord Road Hospital Pvt Ltd,"No.100/101, West Of Chord Road, Basaveshwara Nagar, Bangalore - 560079, Near Shankar Mutt,  LIC Colony",+(91)-080-23225848,2463Votes,4.0,12.9980336,77.5405384
184,Rainbow Childrens Hospital ..,"No.178/1 &amp; 178/2, Bannerghatta Main Road, Bannerghatta Road, Bangalore - 560076, Opposite Janardhan Towers",+(91)-80-66902299,2446Votes,4.3,12.9033775,77.6007898
185,Columbia Asia Hospital,"No. 46/2, Ward No.150, Sarjapur Road, Bangalore - 560034, Near Apollo Pharmacy",+(91)-080-66756565,2420Votes,4.1,12.919927,77.66527
186,Kempegowda Institute Of Med..,"K R Road, Makalakuta Circle, V V Puram, Bangalore - 560004, Near Basavanagudi Police Station",+(91)-080-26620036,2414Votes,4.0,12.9563184,77.5747066
187,Sri Sathya Sai Institute Of..,"1st Main Road, Epip Zone, Whitefield, Bangalore - 560066, Opposite Sjr Park, Near Itpl",+(91)-080-28004600,2399Votes,4.3,12.9812776,77.7293937
188,Apollo Cradle,"No. 25, 46th Cross, Jayanagar 5th Block, Bangalore - 560041, Near Raghavendra Mutt",+(91)-080-44244424,2356Votes,4.5,12.916727,77.585194
189,Narayana Multispeciality Ho..,"No.3 &amp; 4, Sadaramanagala Industrial Area, Whitefield, Bangalore - 560066, Opposite ITPL Main Gate, Next to Shanthinikethan",+(91)-080-67506808,2279Votes,4.0,12.989504,77.733878
190,Sri Sai Ram Hospitals,"No. 6, J C Industrial Area, Yellechenahallli Post, Kanakapura Road, Bangalore - 560062, Near Metro",07947155878,535Votes,3.8,12.8943704,77.56827
191,Springleaf Healthcare,"No 60/3 Hosur Main Road, Konappanna Aghara, Electronic City, Bangalore - 560100, Opposite Infosys and Pillar No 228",07947154691,392Votes,3.7,12.8526069,77.6676044
192,Cleveland Neurocare Multi S..,"No 1060 Cherry Complex, 8th Main Road Kuttiyappa Garden Vijaya Bank Layout, Bilekahalli, Bangalore - 560076, Opp to Bbmp Office",07947167042,30Votes,4.8,12.8950174,77.6094203
193,Sri Deepa Hospital And Medi..,"No.644, 5th Block,, 60ft Road,, Vishweshwaraiah Layout, Bangalore - 560056, Near Ullal Upnagara, Next to Udupi Veg Hotel",08045789184,25Votes,4.3,12.958174194444,77.481662472222
194,Fair Deal Pharma,"No.164, 1st Floor, Sultanpet Main Road, Bangalore - 560053, Near Rajkumar Papers",07947154424,29Votes,4.3,12.969788419,77.572155086
195,Bangalore Cancer Center Pvt..,"No 118/1-2,, Mookambika Temple Road, Machohalli Forest Gate, Magadi Main Road, Bangalore - 560091",07947167029,11Votes,4.5,12.990588,77.4582247
196,Shastra Multi Speciality Ho..,"No 52 Huskur Gate, Hosur Main Road, Electronic City, Bangalore - 560100",07947462871,84Votes,4.5,12.8357745,77.6791122
197,Health INDIA Hospital,"No. 7, 6th Cross, Tavarekere Main Road, Chikka Adugodi, Bangalore - 560029, Near Home Needs Supermarket",07947436760,346Votes,3.2,12.926357,77.609052
198,A V Multispeciality Hospita..,"No.781, 782, 100 Feet Main Road, 7th Block, Banashankari 3rd Stage, Bangalore - 560085, Opposite Little Flower Public School",07947162715,264Votes,4.1,12.9327366,77.5409162
199,Smt. Jayadevi Memorial Hosp..,"No.284/16, Chikka Gollarahatti, Dasanapura Hobli, Kachohalli, Bangalore - 560091, Opp to Chikkagollarahatti Main Bus Stop",07947165451,1Votes,4.5,12.9916907,77.4648505
200,Aashirvad Healthcare Centnr..,"No 73 NPR COMPLEX, S L N Temple Road, Marathahalli, Bangalore - 560037, Beside Sri Lakshmi Narayana Temple",07947161153,13Votes,4.0,12.964842589584,77.67396681018
201,Medcare Hospital,"No.12, SS Temple Street, V V Puram, Bangalore - 560004, Behind VV Puram Law College",07947160698,147Votes,4.2,12.953044,77.57417
202,Sri Matru Hospital,"No. 2094,, Railway Parallel Road,, Kengeri Satelite Town, Bangalore - 560060, Near Kengeri Flyover",07947198778,1Votes,5.0,12.92321,77.484477
203,Sri Rajarajeshwari and Comp..,"Thimmaiah Chambers, Ground Floor, 1st Cross, Gandhi Nagar, Bangalore - 560009, Above Bank Of Maharastra Or Near Kamath Yathri Nivas",07947154357,969Votes,3.5,12.975,77.5777777778
204,BN Speciality Hospital,"No 2,Yashas Complex, Kasavanahalli Road,Kaikondrahalli, Kaikondrahalli, Bangalore - 560035, Near State Bank Of Mysore",07947184284,181Votes,3.8,12.9124884,77.6765574
205,Usha Hospital,"Doddaballapur Road, Renuka Nagar, Nelamangala, Bangalore - 562123, Near STATE BANK OF MYSORE",+(91)-8050528636,9Votes,4.6,13.107086,77.3879
206,Spine Care and Ortho Care H..,"No 14/1, Police Quaters Junction, Magadi Road, Bangalore - 560023, Opposite Sai Baba Temple",08045789327,237Votes,4.0,12.9744346,77.5492806
207,Gunasheela Surgical And Mat..,"No.1, Deewan  N Madhava Roa Road, Basavanagudi, Bangalore - 560004, Near M N Krishna Roa Park",+(91)-80-46462600,855Votes,4.0,12.940389,77.576428
208,Painadath Herbals,"No 74 Painadath Herbals, Coffee Board Layout Bhuvaneshwari Nagar, Hebbal, Bangalore - 560024, Next to St. Johns School",+(91)-9035500780,29Votes,4.7,13.0531061,77.6065319
209,Shruta Eye Care,"#44, 4th Cross,Raghuvanahalli, Kanakapura Road, Bangalore - 560062, Next to Bata Showroom,KSIT",+(91)-9513826367,61Votes,4.7,12.8790504,77.5457374
210,Akshaya Nursing Home,"No.33/34, Balaji Avenue, 2nd Stage, Attur Main Road, Yelahanka New Town, Bangalore - 560064, Near to Rayol Concord School",+(91)-9591622565,37Votes,3.9,13.104769,77.566428
211,Devagiri Hospital,"No.2461, 24th Cross, Banashankari 2nd Stage, Bangalore - 560070",+(91)-080-26980555,238Votes,4.0,12.9241077,77.5658037
212,HLC Ayurveda and Nature Cur..,"HLC Ayurveda and Nature Cure Hospital, S Bingipura Electronic City Phase 1, Hulimangala, Bangalore - 560105, Beyond Brainy Stars International School",+(91)-080-29755255,60Votes,4.3,12.8286454167,77.6329480833
213,Rjr Herbal Ayurveda Siddha ..,"307 , 46th Street 9th Main Road 4th Block, Rajaji Nagar, Rajajinagar, Bangalore - 560010",+(91)-80-49556506,44Votes,3.8,12.9909676092,77.5532627106
214,Prolife Multispeciality Hos..,"#248/249/289/101, B B Road, International Airport Road, Byataranyanapura, Bangalore - 560092, Near Byatarayanapura Signal, Opposite to Kodandarama Temple",+(91)-80-41162226,305Votes,4.1,13.064983,77.5936296
215,Sri Lakshmi Super Specialit..,"No : 301, Old Extension, 3rd Main Road, Krishnarajapuram, Bangalore - 560036, Near Indane Kaveri Gas Agency",+(91)-080-25617799,212Votes,3.6,13.0110464,77.6973516
216,Astra Superspeciality Hospi..,"No.21/7, Kanakapura Main Road, Konanakunte Cross, Bangalore - 560062, Opposite Manasa Theater",+(91)-7026404142,994Votes,4.6,12.8908263,77.5632409
217,Lavender Lotus Multispecial..,"No.51, 16th Cross, Bhuvaneshwari Nagar, Dasarahalli Hebbal, Bangalore - 560024, Near Kenneth George English School",+(91)-80-22331441,17Votes,3.9,13.054702249356,77.604803871363
218,Dr Bafnas Star Superspecial..,"Building, Ruikar Colony, Kolhapur - 416005",08045784070,33Votes,4.8,13.054702249356,77.604803871363
219,Hridaya Cancer Hospital,"2821 Hridaya Building, Sangli Kolhapur Highway, Kolhapur - 416109, Near Herle Phata",07947250324,57Votes,4.2,13.054702249356,77.604803871363
220,Gaurav Homeopathic Clinic,"Shop No 2, Kalanaur Rohtak, Rohtak - 124113, Near New Bus Stand Ke Saath Wali Gali",+(91)-8607337495,269Votes,4.3,13.054702249356,77.604803871363
221,Manipal Hospital,"No.98, Old Airport Road, Bangalore - 560017, Opposite Leela Palace",+(91)-080-25024444,10807Votes,4.1,12.9595872,77.6493743
222,Fortis Hospitals,"No. 154/9, Bannerghatta Road, Bangalore - 560076, Opposite IIMB",+(91)-8884491009,10363Votes,4.2,12.8945311,77.5989032
223,St Johns Medical College & ..,"Sarjapura Main Road, Koramangala, Bangalore - 560034, Near Koramangala Water Tank, Opposite BDA Complex",+(91)-080-22065001,8798Votes,4.1,12.9291938,77.6201021
224,Columbia Asia Hospital,"Bellary Road, Hebbal, Bangalore - 560024, Near Esteem Mall and Next  Kirloskar Business Park",+(91)-080-66600666,8621Votes,4.1,13.050971,77.593815
225,Apollo Hospitals,"No.154/11, Bannerghatta Road, Bangalore - 560076, Opposite IIMB, Next to Fortis Hospital",18605001066,8552Votes,4.1,12.896328,77.598297
226,Sagar Hospital,"No. 44/54, 30th Cross, Bannerghatta Main Road, Jayanagar, Bangalore - 560041, Opposite ICICI Bank, Near Tilak Nagar",+(91)-080-42888888,7121Votes,4.1,12.9279837,77.5995246
227,Fortis Hospital,"No.14, Cunningham Road, Bangalore - 560052, Near Sigma Mall",+(91)-080-1994444,6581Votes,4.1,12.988318,77.5944151
228,Columbia Asia Hospital,"Survey No. 10P &amp; 12P, Varthur Kodi, Whitefield, Bangalore - 560066, Opposite Forum Value Mall",+(91)-080-61656666,6153Votes,4.2,12.958194,77.745655
229,Cloudnine Maternity Hospita..,"No.115, Old Airport Road, Bangalore - 560017, Opposite Kemp Fort &amp; Total Mall",+(91)-9972899728,5464Votes,4.5,12.9594517,77.6566866
230,Sakra World Hospital,"No. 52/2 &amp; 52/3, Outer Ring Road, Devarabeesanahalli-bellandur, Bangalore - 560103, Opposite Intel",+(91)-080-49694969,5411Votes,4.0,12.9323275,77.6851886
231,M S Ramaiah Memorial Hospit..,"M S Ramaiah Nagar, Msrit Post, New Bel Road, Bangalore - 560054, Behind Indian Institute Of Science",+(91)-080-23608888,5338Votes,4.1,13.028326,77.569815
232,Bgs Gleneagles Global Hospi..,"No. 67, 1st Block, Uttarahalli Road, Kengeri, Bangalore - 560060, Near SJBIT College",+(91)-080-26255555,5062Votes,4.1,12.90321,77.497537
233,Chinmaya Mission Hospital,"80 Feet Road, CMH Road,  Defence Colony, Indira Nagar 1st Stage, Bangalore - 560038, Opposite Krishna Temple",+(91)-080-25250017,4807Votes,4.0,12.97781,77.646371
234,Manipal Hospital,"No 143/212/215, Hoodi Village, Epip Industrial Area, Whitefield, Bangalore - 560066, Opposite Prestige Shanthiniketan",+(91)-080-25027000,4400Votes,4.3,12.988125,77.728473
235,Specialist Hospital,"No.216, 7th Main, 80 Feet Road, HRBR 1st Block, Kalyan Nagar, Bangalore - 560043, Near Om Shakti Temple",+(91)-080-42122222,4317Votes,4.2,13.0170726,77.6431881
236,Bhagwan Mahaveer Jain Hospi..,"No. 17, Tank Bund Road, Millers Road, Bangalore - 560051, Opposite Ayyappa Temple &amp;  BMTC Bus Stop",+(91)-080-40875555,4297Votes,4.0,12.9915777,77.5952071
237,Columbia Asia Hospital,"No.26/1, Brigade Gateway, Malleswaram West, Bangalore - 560055, Next to Metro Cash and Carry",+(91)-080-67416262,4283Votes,4.1,13.0141759,77.5559485
238,Rainbow Childrens Hospital ..,"No.8/5, KR Puram Marathahalli Outer Ring Road, Marathahalli, Bangalore - 560037, Opposite HP Petrol Pump",+(91)-080-42412375,4213Votes,4.3,12.9752402,77.6977325
239,Sagar Hospitals-DSI,"Dayananda Sagar Institution Campus, Malleshwara Hills Primises, Kumaraswamy Layout 1st Stage, Bangalore - 560111, Next to Dayananda Sagar Engineering College",+(91)-080-42999999,4158Votes,4.4,12.9079517,77.5651177
240,Nimhans Hospital,"No.2900, M H Gowda Road, Hosur Road, Bangalore - 560029, Near Bangalore Milk Dairy",+(91)-080-26995400,4152Votes,4.1,12.938677,77.594262
241,Sankara Eye Hospital,"Kundalahalli Gate,Varthur Main Road, Marathahalli, Bangalore - 560037, Near Karunashraya Ashrama",07947154354,4123Votes,4.3,12.956605,77.71287
242,Narayana Hrudayalaya Ltd,"No.258/A, NH Health City, Industrial Area, Hosur Bande, Bangalore - 562149, Next to BTL College",+(91)-080-67506808,4123Votes,4.2,12.809432,77.695354
243,Nethradhama Super Specialit..,"No.256/14, Kanakapura Main Road, Jayanagar 7th Block, Bangalore - 560070, Next to Deepak Nursing Home",+(91)-080-26088000,3793Votes,4.2,12.92531,77.577292
244,Mallya Hospital,"No. 2, Vittal Mallya Road, Bangalore - 560001, Opposite Sree Kanteerava Stadium, Near St Joseph College,ITC Hotel",+(91)-080-68697979,3783Votes,4.0,12.9680654,77.5950695
245,Sri Jayadeva Institute Of C..,"Bannerghatta Main Road, Jayanagar 9th Block, Bangalore - 560069, Near BTM Flyover",+(91)-080-26534600,3730Votes,4.2,12.918143,77.599181
246,Narayana Nethralaya,"No.258/A, Hosur Road, Bommasandra Industrial Area, Bangalore - 560099, Near Narayana Health City",+(91)-080-66660655,3605Votes,4.7,12.8064766,77.6937978
247,Shekar Eye Hospital,"No 633, 100 Feet Ring Road, Jp Nagar 3rd Phase, Bangalore - 560078, Near Dalmia Software Signal, Opposite Dominos Pizza",+(91)-80-26593210,3550Votes,4.4,12.9064733,77.5959451
248,St Philomenas Hospital,"No.4, Mother Teresa Road, Vivek Nagar, Bangalore - 560047, Near Lifestyle Shopping Mall",+(91)-080-40164300,3369Votes,4.0,12.965443,77.6107905
249,Cloudnine Maternity Hospita..,"No 47, 17th Cross, 11th Main, Malleswaram, Bangalore - 560003, Near MES College",+(91)-9972899728,3364Votes,4.3,13.00786,77.562549
250,Dr. Rudrappa Hospital,"No 5, Rajaram Mohan Roy Cross Road, Richmond Town, Bangalore - 560025, Near Woodlands Hotel",07947155462,3282Votes,4.3,12.965122,77.595607
251,Rangadore Memorial Hospital,"No.25, Shankar Mutt Complex, 1st Cross,, Basavanagudi, Bangalore - 560004, Near National College, Behind Shanakrpuram Police Station",+(91)-080-26983300,3226Votes,4.1,12.95336,77.571014
252,Vikram Hospital Pvt Ltd,"No.71/1, Millers Road, Bangalore - 560051, Opposite St Annes School &amp; College",+(91)-080-45004500,3200Votes,4.2,12.988354,77.591944
253,Life Care Hospital,"No 23/24, 20th Main,Gangothri Circle, Btm Layout 1st Stage, Bangalore - 560029, Near Gangothri Bar and Restaurant",+(91)-80-26846667,3185Votes,4.4,12.9193885,77.612994
254,Hosmat Hospital,"No.45, Magrath Road, Bangalore - 560025, Near Garuda Mall, Off Richmond Road",+(91)-080-25593796,3110Votes,4.0,12.9691411,77.6133653
255,Apollo Speciality Hospital,"No. 21/2, Old No. 2, 14th Cross, Jayanagar 3rd Block East, Bangalore - 560011, Near Madhavan Park",+(91)-080-46124444,2973Votes,4.0,12.9363709,77.5844437
256,Vasan Eye Care Hospital,"No.46, Old No.389/B, 19th Main Road, Rajajinagar 1st Block, Bangalore - 560010, Next to Ananya Hospital, Near Navarang Theatre",+(91)-80-46741900,2951Votes,4.1,12.9994436,77.5504404
257,Motherhood Hospital,"No 514/1-2-3, Kaikondara Village, Sarjapur Road, Bangalore - 560034, Opposite Total Mall",+(91)-080-67238811,2840Votes,4.3,12.917811,77.672198
258,Motherhood Hospital,"No. 324, Cmh Road,1st Stage, Indiranagar, Bangalore - 560038, Near Vijaya Bank",+(91)-080-67238833,2797Votes,4.3,12.978469,77.637512
259,Mallige Hospital,"No.31/32, Crescent Road, Bangalore - 560001, Near Race Course &amp; Bangalore International Hotel",+(91)-080-67165555,2775Votes,4.1,12.9851511,77.5803788
260,Narayana Multispeciality Ho..,"No. 1, 18th Main, Hsr Layout Sector 3, Bangalore - 560102, Opposite HSR Club",+(91)-8095045695,2729Votes,4.0,12.9082884,77.6434947
261,Fortis Hospital,"No.111/112, West Of Chord Road, Mahalakshmipuram Layout, Bangalore - 560086, Opposite Rajajinagar 1st Block Junction",+(91)-9538311144,2644Votes,4.1,13.00222131,77.549136216
262,Santosh Hospital,"No. 6/1, Promenade Road, Pulikeshi Nagar, Bangalore - 560005, Behind Coles Park, Near Goodwill School",+(91)-080-40848888,2624Votes,3.8,12.995734,77.608304
263,Chord Road Hospital Pvt Ltd,"No.100/101, West Of Chord Road, Basaveshwara Nagar, Bangalore - 560079, Near Shankar Mutt,  LIC Colony",+(91)-080-23225848,2463Votes,4.0,12.9980336,77.5405384
264,Rainbow Childrens Hospital ..,"No.178/1 &amp; 178/2, Bannerghatta Main Road, Bannerghatta Road, Bangalore - 560076, Opposite Janardhan Towers",+(91)-80-66902299,2446Votes,4.3,12.9033775,77.6007898
265,Columbia Asia Hospital,"No. 46/2, Ward No.150, Sarjapur Road, Bangalore - 560034, Near Apollo Pharmacy",+(91)-080-66756565,2420Votes,4.1,12.919927,77.66527
266,Kempegowda Institute Of Med..,"K R Road, Makalakuta Circle, V V Puram, Bangalore - 560004, Near Basavanagudi Police Station",+(91)-080-26620036,2414Votes,4.0,12.9563184,77.5747066
267,Sri Sathya Sai Institute Of..,"1st Main Road, Epip Zone, Whitefield, Bangalore - 560066, Opposite Sjr Park, Near Itpl",+(91)-080-28004600,2399Votes,4.3,12.9812776,77.7293937
268,Apollo Cradle,"No. 25, 46th Cross, Jayanagar 5th Block, Bangalore - 560041, Near Raghavendra Mutt",+(91)-080-44244424,2356Votes,4.5,12.916727,77.585194
269,Narayana Multispeciality Ho..,"No.3 &amp; 4, Sadaramanagala Industrial Area, Whitefield, Bangalore - 560066, Opposite ITPL Main Gate, Next to Shanthinikethan",+(91)-080-67506808,2279Votes,4.0,12.989504,77.733878
270,Prashanth Hospital,"No.90/D, Hosur Main Road, Bommanahalli, Bangalore - 560068",07947154231,635Votes,3.7,12.9065634,77.6287203
271,Medcare Hospital,"No.12, SS Temple Street, V V Puram, Bangalore - 560004, Behind VV Puram Law College",07947160698,147Votes,4.2,12.953044,77.57417
272,Sri Matru Hospital,"No. 2094,, Railway Parallel Road,, Kengeri Satelite Town, Bangalore - 560060, Near Kengeri Flyover",07947198778,1Votes,5.0,12.92321,77.484477
273,Sri Rajarajeshwari and Comp..,"Thimmaiah Chambers, Ground Floor, 1st Cross, Gandhi Nagar, Bangalore - 560009, Above Bank Of Maharastra Or Near Kamath Yathri Nivas",07947154357,969Votes,3.5,12.975,77.5777777778
274,BN Speciality Hospital,"No 2,Yashas Complex, Kasavanahalli Road,Kaikondrahalli, Kaikondrahalli, Bangalore - 560035, Near State Bank Of Mysore",07947184284,181Votes,3.8,12.9124884,77.6765574
275,Usha Hospital,"Doddaballapur Road, Renuka Nagar, Nelamangala, Bangalore - 562123, Near STATE BANK OF MYSORE",+(91)-8050528636,9Votes,4.6,13.107086,77.3879
276,Spine Care and Ortho Care H..,"No 14/1, Police Quaters Junction, Magadi Road, Bangalore - 560023, Opposite Sai Baba Temple",08045789327,237Votes,4.0,12.9744346,77.5492806
277,Gunasheela Surgical And Mat..,"No.1, Deewan  N Madhava Roa Road, Basavanagudi, Bangalore - 560004, Near M N Krishna Roa Park",+(91)-80-46462600,855Votes,4.0,12.940389,77.576428
278,Painadath Herbals,"No 74 Painadath Herbals, Coffee Board Layout Bhuvaneshwari Nagar, Hebbal, Bangalore - 560024, Next to St. Johns School",+(91)-9035500780,29Votes,4.7,13.0531061,77.6065319
279,Shruta Eye Care,"#44, 4th Cross,Raghuvanahalli, Kanakapura Road, Bangalore - 560062, Next to Bata Showroom,KSIT",+(91)-9513826367,61Votes,4.7,12.8790504,77.5457374
280,Akshaya Nursing Home,"No.33/34, Balaji Avenue, 2nd Stage, Attur Main Road, Yelahanka New Town, Bangalore - 560064, Near to Rayol Concord School",+(91)-9591622565,37Votes,3.9,13.104769,77.566428
281,Devagiri Hospital,"No.2461, 24th Cross, Banashankari 2nd Stage, Bangalore - 560070",+(91)-080-26980555,238Votes,4.0,12.9241077,77.5658037
282,Lavender Lotus Multispecial..,"No.51, 16th Cross, Bhuvaneshwari Nagar, Dasarahalli Hebbal, Bangalore - 560024, Near Kenneth George English School",+(91)-80-22331441,17Votes,3.9,13.054702249356,77.604803871363
283,Rjr Herbal Ayurveda Siddha ..,"307 , 46th Street 9th Main Road 4th Block, Rajaji Nagar, Rajajinagar, Bangalore - 560010",+(91)-80-49556506,44Votes,3.8,12.9909676092,77.5532627106
284,HLC Ayurveda and Nature Cur..,"HLC Ayurveda and Nature Cure Hospital, S Bingipura Electronic City Phase 1, Hulimangala, Bangalore - 560105, Beyond Brainy Stars International School",+(91)-080-29755255,60Votes,4.3,12.8286454167,77.6329480833
285,Sri Lakshmi Super Specialit..,"No : 301, Old Extension, 3rd Main Road, Krishnarajapuram, Bangalore - 560036, Near Indane Kaveri Gas Agency",+(91)-080-25617799,212Votes,3.6,13.0110464,77.6973516
286,Prolife Multispeciality Hos..,"#248/249/289/101, B B Road, International Airport Road, Byataranyanapura, Bangalore - 560092, Near Byatarayanapura Signal, Opposite to Kodandarama Temple",+(91)-80-41162226,305Votes,4.1,13.064983,77.5936296
287,Astra Superspeciality Hospi..,"No.21/7, Kanakapura Main Road, Konanakunte Cross, Bangalore - 560062, Opposite Manasa Theater",+(91)-7026404142,994Votes,4.6,12.8908263,77.5632409
288,Dr Bafnas Star Superspecial..,"Building, Ruikar Colony, Kolhapur - 416005",08045784070,33Votes,4.8,12.8908263,77.5632409
289,Hridaya Cancer Hospital,"2821 Hridaya Building, Sangli Kolhapur Highway, Kolhapur - 416109, Near Herle Phata",07947250324,57Votes,4.2,12.8908263,77.5632409
290,Gaurav Homeopathic Clinic,"Shop No 2, Kalanaur Rohtak, Rohtak - 124113, Near New Bus Stand Ke Saath Wali Gali",+(91)-8607337495,269Votes,4.3,12.8908263,77.5632409
291,Manipal Hospital,"No.98, Old Airport Road, Bangalore - 560017, Opposite Leela Palace",+(91)-080-25024444,10807Votes,4.1,12.9595872,77.6493743
292,Fortis Hospitals,"No. 154/9, Bannerghatta Road, Bangalore - 560076, Opposite IIMB",+(91)-8884491009,10363Votes,4.2,12.8945311,77.5989032
293,St Johns Medical College & ..,"Sarjapura Main Road, Koramangala, Bangalore - 560034, Near Koramangala Water Tank, Opposite BDA Complex",+(91)-080-22065001,8798Votes,4.1,12.9291938,77.6201021
294,Columbia Asia Hospital,"Bellary Road, Hebbal, Bangalore - 560024, Near Esteem Mall and Next  Kirloskar Business Park",+(91)-080-66600666,8621Votes,4.1,13.050971,77.593815
295,Apollo Hospitals,"No.154/11, Bannerghatta Road, Bangalore - 560076, Opposite IIMB, Next to Fortis Hospital",18605001066,8552Votes,4.1,12.896328,77.598297
296,Sagar Hospital,"No. 44/54, 30th Cross, Bannerghatta Main Road, Jayanagar, Bangalore - 560041, Opposite ICICI Bank, Near Tilak Nagar",+(91)-080-42888888,7121Votes,4.1,12.9279837,77.5995246
297,Fortis Hospital,"No.14, Cunningham Road, Bangalore - 560052, Near Sigma Mall",+(91)-080-1994444,6581Votes,4.1,12.988318,77.5944151
298,Columbia Asia Hospital,"Survey No. 10P &amp; 12P, Varthur Kodi, Whitefield, Bangalore - 560066, Opposite Forum Value Mall",+(91)-080-61656666,6153Votes,4.2,12.958194,77.745655
299,Cloudnine Maternity Hospita..,"No.115, Old Airport Road, Bangalore - 560017, Opposite Kemp Fort &amp; Total Mall",+(91)-9972899728,5464Votes,4.5,12.9594517,77.6566866
300,Sakra World Hospital,"No. 52/2 &amp; 52/3, Outer Ring Road, Devarabeesanahalli-bellandur, Bangalore - 560103, Opposite Intel",+(91)-080-49694969,5411Votes,4.0,12.9323275,77.6851886
301,M S Ramaiah Memorial Hospit..,"M S Ramaiah Nagar, Msrit Post, New Bel Road, Bangalore - 560054, Behind Indian Institute Of Science",+(91)-080-23608888,5338Votes,4.1,13.028326,77.569815
302,Bgs Gleneagles Global Hospi..,"No. 67, 1st Block, Uttarahalli Road, Kengeri, Bangalore - 560060, Near SJBIT College",+(91)-080-26255555,5062Votes,4.1,12.90321,77.497537
303,Chinmaya Mission Hospital,"80 Feet Road, CMH Road,  Defence Colony, Indira Nagar 1st Stage, Bangalore - 560038, Opposite Krishna Temple",+(91)-080-25250017,4807Votes,4.0,12.97781,77.646371
304,Manipal Hospital,"No 143/212/215, Hoodi Village, Epip Industrial Area, Whitefield, Bangalore - 560066, Opposite Prestige Shanthiniketan",+(91)-080-25027000,4400Votes,4.3,12.988125,77.728473
305,Specialist Hospital,"No.216, 7th Main, 80 Feet Road, HRBR 1st Block, Kalyan Nagar, Bangalore - 560043, Near Om Shakti Temple",+(91)-080-42122222,4317Votes,4.2,13.0170726,77.6431881
306,Bhagwan Mahaveer Jain Hospi..,"No. 17, Tank Bund Road, Millers Road, Bangalore - 560051, Opposite Ayyappa Temple &amp;  BMTC Bus Stop",+(91)-080-40875555,4297Votes,4.0,12.9915777,77.5952071
307,Columbia Asia Hospital,"No.26/1, Brigade Gateway, Malleswaram West, Bangalore - 560055, Next to Metro Cash and Carry",+(91)-080-67416262,4283Votes,4.1,13.0141759,77.5559485
308,Rainbow Childrens Hospital ..,"No.8/5, KR Puram Marathahalli Outer Ring Road, Marathahalli, Bangalore - 560037, Opposite HP Petrol Pump",+(91)-080-42412375,4213Votes,4.3,12.9752402,77.6977325
309,Sagar Hospitals-DSI,"Dayananda Sagar Institution Campus, Malleshwara Hills Primises, Kumaraswamy Layout 1st Stage, Bangalore - 560111, Next to Dayananda Sagar Engineering College",+(91)-080-42999999,4158Votes,4.4,12.9079517,77.5651177
310,Nimhans Hospital,"No.2900, M H Gowda Road, Hosur Road, Bangalore - 560029, Near Bangalore Milk Dairy",+(91)-080-26995400,4152Votes,4.1,12.938677,77.594262
311,Sankara Eye Hospital,"Kundalahalli Gate,Varthur Main Road, Marathahalli, Bangalore - 560037, Near Karunashraya Ashrama",07947154354,4123Votes,4.3,12.956605,77.71287
312,Narayana Hrudayalaya Ltd,"No.258/A, NH Health City, Industrial Area, Hosur Bande, Bangalore - 562149, Next to BTL College",+(91)-080-67506808,4123Votes,4.2,12.809432,77.695354
313,Nethradhama Super Specialit..,"No.256/14, Kanakapura Main Road, Jayanagar 7th Block, Bangalore - 560070, Next to Deepak Nursing Home",+(91)-080-26088000,3793Votes,4.2,12.92531,77.577292
314,Mallya Hospital,"No. 2, Vittal Mallya Road, Bangalore - 560001, Opposite Sree Kanteerava Stadium, Near St Joseph College,ITC Hotel",+(91)-080-68697979,3783Votes,4.0,12.9680654,77.5950695
315,Sri Jayadeva Institute Of C..,"Bannerghatta Main Road, Jayanagar 9th Block, Bangalore - 560069, Near BTM Flyover",+(91)-080-26534600,3730Votes,4.2,12.918143,77.599181
316,Narayana Nethralaya,"No.258/A, Hosur Road, Bommasandra Industrial Area, Bangalore - 560099, Near Narayana Health City",+(91)-080-66660655,3605Votes,4.7,12.8064766,77.6937978
317,Shekar Eye Hospital,"No 633, 100 Feet Ring Road, Jp Nagar 3rd Phase, Bangalore - 560078, Near Dalmia Software Signal, Opposite Dominos Pizza",+(91)-80-26593210,3550Votes,4.4,12.9064733,77.5959451
318,St Philomenas Hospital,"No.4, Mother Teresa Road, Vivek Nagar, Bangalore - 560047, Near Lifestyle Shopping Mall",+(91)-080-40164300,3369Votes,4.0,12.965443,77.6107905
319,Cloudnine Maternity Hospita..,"No 47, 17th Cross, 11th Main, Malleswaram, Bangalore - 560003, Near MES College",+(91)-9972899728,3364Votes,4.3,13.00786,77.562549
320,Dr. Rudrappa Hospital,"No 5, Rajaram Mohan Roy Cross Road, Richmond Town, Bangalore - 560025, Near Woodlands Hotel",07947155462,3282Votes,4.3,12.965122,77.595607
321,Rangadore Memorial Hospital,"No.25, Shankar Mutt Complex, 1st Cross,, Basavanagudi, Bangalore - 560004, Near National College, Behind Shanakrpuram Police Station",+(91)-080-26983300,3226Votes,4.1,12.95336,77.571014
322,Vikram Hospital Pvt Ltd,"No.71/1, Millers Road, Bangalore - 560051, Opposite St Annes School &amp; College",+(91)-080-45004500,3200Votes,4.2,12.988354,77.591944
323,Life Care Hospital,"No 23/24, 20th Main,Gangothri Circle, Btm Layout 1st Stage, Bangalore - 560029, Near Gangothri Bar and Restaurant",+(91)-80-26846667,3185Votes,4.4,12.9193885,77.612994
324,Hosmat Hospital,"No.45, Magrath Road, Bangalore - 560025, Near Garuda Mall, Off Richmond Road",+(91)-080-25593796,3110Votes,4.0,12.9691411,77.6133653
325,Apollo Speciality Hospital,"No. 21/2, Old No. 2, 14th Cross, Jayanagar 3rd Block East, Bangalore - 560011, Near Madhavan Park",+(91)-080-46124444,2973Votes,4.0,12.9363709,77.5844437
326,Vasan Eye Care Hospital,"No.46, Old No.389/B, 19th Main Road, Rajajinagar 1st Block, Bangalore - 560010, Next to Ananya Hospital, Near Navarang Theatre",+(91)-80-46741900,2951Votes,4.1,12.9994436,77.5504404
327,Motherhood Hospital,"No 514/1-2-3, Kaikondara Village, Sarjapur Road, Bangalore - 560034, Opposite Total Mall",+(91)-080-67238811,2840Votes,4.3,12.917811,77.672198
328,Motherhood Hospital,"No. 324, Cmh Road,1st Stage, Indiranagar, Bangalore - 560038, Near Vijaya Bank",+(91)-080-67238833,2797Votes,4.3,12.978469,77.637512
329,Mallige Hospital,"No.31/32, Crescent Road, Bangalore - 560001, Near Race Course &amp; Bangalore International Hotel",+(91)-080-67165555,2775Votes,4.1,12.9851511,77.5803788
330,Narayana Multispeciality Ho..,"No. 1, 18th Main, Hsr Layout Sector 3, Bangalore - 560102, Opposite HSR Club",+(91)-8095045695,2729Votes,4.0,12.9082884,77.6434947
331,Fortis Hospital,"No.111/112, West Of Chord Road, Mahalakshmipuram Layout, Bangalore - 560086, Opposite Rajajinagar 1st Block Junction",+(91)-9538311144,2644Votes,4.1,13.00222131,77.549136216
332,Santosh Hospital,"No. 6/1, Promenade Road, Pulikeshi Nagar, Bangalore - 560005, Behind Coles Park, Near Goodwill School",+(91)-080-40848888,2624Votes,3.8,12.995734,77.608304
333,Chord Road Hospital Pvt Ltd,"No.100/101, West Of Chord Road, Basaveshwara Nagar, Bangalore - 560079, Near Shankar Mutt,  LIC Colony",+(91)-080-23225848,2463Votes,4.0,12.9980336,77.5405384
334,Rainbow Childrens Hospital ..,"No.178/1 &amp; 178/2, Bannerghatta Main Road, Bannerghatta Road, Bangalore - 560076, Opposite Janardhan Towers",+(91)-80-66902299,2446Votes,4.3,12.9033775,77.6007898
335,Columbia Asia Hospital,"No. 46/2, Ward No.150, Sarjapur Road, Bangalore - 560034, Near Apollo Pharmacy",+(91)-080-66756565,2420Votes,4.1,12.919927,77.66527
336,Kempegowda Institute Of Med..,"K R Road, Makalakuta Circle, V V Puram, Bangalore - 560004, Near Basavanagudi Police Station",+(91)-080-26620036,2414Votes,4.0,12.9563184,77.5747066
337,Sri Sathya Sai Institute Of..,"1st Main Road, Epip Zone, Whitefield, Bangalore - 560066, Opposite Sjr Park, Near Itpl",+(91)-080-28004600,2399Votes,4.3,12.9812776,77.7293937
338,Apollo Cradle,"No. 25, 46th Cross, Jayanagar 5th Block, Bangalore - 560041, Near Raghavendra Mutt",+(91)-080-44244424,2356Votes,4.5,12.916727,77.585194
339,Narayana Multispeciality Ho..,"No.3 &amp; 4, Sadaramanagala Industrial Area, Whitefield, Bangalore - 560066, Opposite ITPL Main Gate, Next to Shanthinikethan",+(91)-080-67506808,2279Votes,4.0,12.989504,77.733878
340,HLC Ayurveda and Nature Cur..,"HLC Ayurveda and Nature Cure Hospital, S Bingipura Electronic City Phase 1, Hulimangala, Bangalore - 560105, Beyond Brainy Stars International School",+(91)-080-29755255,60Votes,4.3,12.8286454167,77.6329480833
341,Lavender Lotus Multispecial..,"No.51, 16th Cross, Bhuvaneshwari Nagar, Dasarahalli Hebbal, Bangalore - 560024, Near Kenneth George English School",+(91)-80-22331441,17Votes,3.9,13.054702249356,77.604803871363
342,Prolife Multispeciality Hos..,"#248/249/289/101, B B Road, International Airport Road, Byataranyanapura, Bangalore - 560092, Near Byatarayanapura Signal, Opposite to Kodandarama Temple",+(91)-80-41162226,305Votes,4.1,13.064983,77.5936296
343,Devagiri Hospital,"No.2461, 24th Cross, Banashankari 2nd Stage, Bangalore - 560070",+(91)-080-26980555,238Votes,4.0,12.9241077,77.5658037
344,Akshaya Nursing Home,"No.33/34, Balaji Avenue, 2nd Stage, Attur Main Road, Yelahanka New Town, Bangalore - 560064, Near to Rayol Concord School",+(91)-9591622565,37Votes,3.9,13.104769,77.566428
345,Rjr Herbal Ayurveda Siddha ..,"307 , 46th Street 9th Main Road 4th Block, Rajaji Nagar, Rajajinagar, Bangalore - 560010",+(91)-80-49556506,44Votes,3.8,12.9909676092,77.5532627106
346,Sri Lakshmi Super Specialit..,"No : 301, Old Extension, 3rd Main Road, Krishnarajapuram, Bangalore - 560036, Near Indane Kaveri Gas Agency",+(91)-080-25617799,212Votes,3.6,13.0110464,77.6973516
347,Astra Superspeciality Hospi..,"No.21/7, Kanakapura Main Road, Konanakunte Cross, Bangalore - 560062, Opposite Manasa Theater",+(91)-7026404142,994Votes,4.6,12.8908263,77.5632409
348,Dr Bafnas Star Superspecial..,"Building, Ruikar Colony, Kolhapur - 416005",08045784070,33Votes,4.8,12.8908263,77.5632409
349,Hridaya Cancer Hospital,"2821 Hridaya Building, Sangli Kolhapur Highway, Kolhapur - 416109, Near Herle Phata",07947250324,57Votes,4.2,12.8908263,77.5632409
350,Gaurav Homeopathic Clinic,"Shop No 2, Kalanaur Rohtak, Rohtak - 124113, Near New Bus Stand Ke Saath Wali Gali",+(91)-8607337495,269Votes,4.3,12.8908263,77.5632409
351,Manipal Hospital,"No.98, Old Airport Road, Bangalore - 560017, Opposite Leela Palace",+(91)-080-25024444,10807Votes,4.1,12.9595872,77.6493743
352,Fortis Hospitals,"No. 154/9, Bannerghatta Road, Bangalore - 560076, Opposite IIMB",+(91)-8884491009,10363Votes,4.2,12.8945311,77.5989032
353,St Johns Medical College & ..,"Sarjapura Main Road, Koramangala, Bangalore - 560034, Near Koramangala Water Tank, Opposite BDA Complex",+(91)-080-22065001,8798Votes,4.1,12.9291938,77.6201021
354,Columbia Asia Hospital,"Bellary Road, Hebbal, Bangalore - 560024, Near Esteem Mall and Next  Kirloskar Business Park",+(91)-080-66600666,8621Votes,4.1,13.050971,77.593815
355,Apollo Hospitals,"No.154/11, Bannerghatta Road, Bangalore - 560076, Opposite IIMB, Next to Fortis Hospital",18605001066,8552Votes,4.1,12.896328,77.598297
356,Sagar Hospital,"No. 44/54, 30th Cross, Bannerghatta Main Road, Jayanagar, Bangalore - 560041, Opposite ICICI Bank, Near Tilak Nagar",+(91)-080-42888888,7121Votes,4.1,12.9279837,77.5995246
357,Fortis Hospital,"No.14, Cunningham Road, Bangalore - 560052, Near Sigma Mall",+(91)-080-1994444,6581Votes,4.1,12.988318,77.5944151
358,Columbia Asia Hospital,"Survey No. 10P &amp; 12P, Varthur Kodi, Whitefield, Bangalore - 560066, Opposite Forum Value Mall",+(91)-080-61656666,6153Votes,4.2,12.958194,77.745655
359,Cloudnine Maternity Hospita..,"No.115, Old Airport Road, Bangalore - 560017, Opposite Kemp Fort &amp; Total Mall",+(91)-9972899728,5464Votes,4.5,12.9594517,77.6566866
360,Sakra World Hospital,"No. 52/2 &amp; 52/3, Outer Ring Road, Devarabeesanahalli-bellandur, Bangalore - 560103, Opposite Intel",+(91)-080-49694969,5411Votes,4.0,12.9323275,77.6851886
361,M S Ramaiah Memorial Hospit..,"M S Ramaiah Nagar, Msrit Post, New Bel Road, Bangalore - 560054, Behind Indian Institute Of Science",+(91)-080-23608888,5338Votes,4.1,13.028326,77.569815
362,Bgs Gleneagles Global Hospi..,"No. 67, 1st Block, Uttarahalli Road, Kengeri, Bangalore - 560060, Near SJBIT College",+(91)-080-26255555,5062Votes,4.1,12.90321,77.497537
363,Chinmaya Mission Hospital,"80 Feet Road, CMH Road,  Defence Colony, Indira Nagar 1st Stage, Bangalore - 560038, Opposite Krishna Temple",+(91)-080-25250017,4807Votes,4.0,12.97781,77.646371
364,Manipal Hospital,"No 143/212/215, Hoodi Village, Epip Industrial Area, Whitefield, Bangalore - 560066, Opposite Prestige Shanthiniketan",+(91)-080-25027000,4400Votes,4.3,12.988125,77.728473
365,Specialist Hospital,"No.216, 7th Main, 80 Feet Road, HRBR 1st Block, Kalyan Nagar, Bangalore - 560043, Near Om Shakti Temple",+(91)-080-42122222,4317Votes,4.2,13.0170726,77.6431881
366,Bhagwan Mahaveer Jain Hospi..,"No. 17, Tank Bund Road, Millers Road, Bangalore - 560051, Opposite Ayyappa Temple &amp;  BMTC Bus Stop",+(91)-080-40875555,4297Votes,4.0,12.9915777,77.5952071
367,Columbia Asia Hospital,"No.26/1, Brigade Gateway, Malleswaram West, Bangalore - 560055, Next to Metro Cash and Carry",+(91)-080-67416262,4283Votes,4.1,13.0141759,77.5559485
368,Rainbow Childrens Hospital ..,"No.8/5, KR Puram Marathahalli Outer Ring Road, Marathahalli, Bangalore - 560037, Opposite HP Petrol Pump",+(91)-080-42412375,4213Votes,4.3,12.9752402,77.6977325
369,Sagar Hospitals-DSI,"Dayananda Sagar Institution Campus, Malleshwara Hills Primises, Kumaraswamy Layout 1st Stage, Bangalore - 560111, Next to Dayananda Sagar Engineering College",+(91)-080-42999999,4158Votes,4.4,12.9079517,77.5651177
370,Nimhans Hospital,"No.2900, M H Gowda Road, Hosur Road, Bangalore - 560029, Near Bangalore Milk Dairy",+(91)-080-26995400,4152Votes,4.1,12.938677,77.594262
371,Sankara Eye Hospital,"Kundalahalli Gate,Varthur Main Road, Marathahalli, Bangalore - 560037, Near Karunashraya Ashrama",07947154354,4123Votes,4.3,12.956605,77.71287
372,Narayana Hrudayalaya Ltd,"No.258/A, NH Health City, Industrial Area, Hosur Bande, Bangalore - 562149, Next to BTL College",+(91)-080-67506808,4123Votes,4.2,12.809432,77.695354
373,Nethradhama Super Specialit..,"No.256/14, Kanakapura Main Road, Jayanagar 7th Block, Bangalore - 560070, Next to Deepak Nursing Home",+(91)-080-26088000,3793Votes,4.2,12.92531,77.577292
374,Mallya Hospital,"No. 2, Vittal Mallya Road, Bangalore - 560001, Opposite Sree Kanteerava Stadium, Near St Joseph College,ITC Hotel",+(91)-080-68697979,3783Votes,4.0,12.9680654,77.5950695
375,Sri Jayadeva Institute Of C..,"Bannerghatta Main Road, Jayanagar 9th Block, Bangalore - 560069, Near BTM Flyover",+(91)-080-26534600,3730Votes,4.2,12.918143,77.599181
376,Narayana Nethralaya,"No.258/A, Hosur Road, Bommasandra Industrial Area, Bangalore - 560099, Near Narayana Health City",+(91)-080-66660655,3605Votes,4.7,12.8064766,77.6937978
377,Shekar Eye Hospital,"No 633, 100 Feet Ring Road, Jp Nagar 3rd Phase, Bangalore - 560078, Near Dalmia Software Signal, Opposite Dominos Pizza",+(91)-80-26593210,3550Votes,4.4,12.9064733,77.5959451
378,St Philomenas Hospital,"No.4, Mother Teresa Road, Vivek Nagar, Bangalore - 560047, Near Lifestyle Shopping Mall",+(91)-080-40164300,3369Votes,4.0,12.965443,77.6107905
379,Cloudnine Maternity Hospita..,"No 47, 17th Cross, 11th Main, Malleswaram, Bangalore - 560003, Near MES College",+(91)-9972899728,3364Votes,4.3,13.00786,77.562549
380,Dr. Rudrappa Hospital,"No 5, Rajaram Mohan Roy Cross Road, Richmond Town, Bangalore - 560025, Near Woodlands Hotel",07947155462,3282Votes,4.3,12.965122,77.595607
381,Rangadore Memorial Hospital,"No.25, Shankar Mutt Complex, 1st Cross,, Basavanagudi, Bangalore - 560004, Near National College, Behind Shanakrpuram Police Station",+(91)-080-26983300,3226Votes,4.1,12.95336,77.571014
382,Vikram Hospital Pvt Ltd,"No.71/1, Millers Road, Bangalore - 560051, Opposite St Annes School &amp; College",+(91)-080-45004500,3200Votes,4.2,12.988354,77.591944
383,Life Care Hospital,"No 23/24, 20th Main,Gangothri Circle, Btm Layout 1st Stage, Bangalore - 560029, Near Gangothri Bar and Restaurant",+(91)-80-26846667,3185Votes,4.4,12.9193885,77.612994
384,Hosmat Hospital,"No.45, Magrath Road, Bangalore - 560025, Near Garuda Mall, Off Richmond Road",+(91)-080-25593796,3110Votes,4.0,12.9691411,77.6133653
385,Apollo Speciality Hospital,"No. 21/2, Old No. 2, 14th Cross, Jayanagar 3rd Block East, Bangalore - 560011, Near Madhavan Park",+(91)-080-46124444,2973Votes,4.0,12.9363709,77.5844437
386,Vasan Eye Care Hospital,"No.46, Old No.389/B, 19th Main Road, Rajajinagar 1st Block, Bangalore - 560010, Next to Ananya Hospital, Near Navarang Theatre",+(91)-80-46741900,2951Votes,4.1,12.9994436,77.5504404
387,Motherhood Hospital,"No 514/1-2-3, Kaikondara Village, Sarjapur Road, Bangalore - 560034, Opposite Total Mall",+(91)-080-67238811,2840Votes,4.3,12.917811,77.672198
388,Motherhood Hospital,"No. 324, Cmh Road,1st Stage, Indiranagar, Bangalore - 560038, Near Vijaya Bank",+(91)-080-67238833,2797Votes,4.3,12.978469,77.637512
389,Mallige Hospital,"No.31/32, Crescent Road, Bangalore - 560001, Near Race Course &amp; Bangalore International Hotel",+(91)-080-67165555,2775Votes,4.1,12.9851511,77.5803788
390,Narayana Multispeciality Ho..,"No. 1, 18th Main, Hsr Layout Sector 3, Bangalore - 560102, Opposite HSR Club",+(91)-8095045695,2729Votes,4.0,12.9082884,77.6434947
391,Fortis Hospital,"No.111/112, West Of Chord Road, Mahalakshmipuram Layout, Bangalore - 560086, Opposite Rajajinagar 1st Block Junction",+(91)-9538311144,2644Votes,4.1,13.00222131,77.549136216
392,Santosh Hospital,"No. 6/1, Promenade Road, Pulikeshi Nagar, Bangalore - 560005, Behind Coles Park, Near Goodwill School",+(91)-080-40848888,2624Votes,3.8,12.995734,77.608304
393,Chord Road Hospital Pvt Ltd,"No.100/101, West Of Chord Road, Basaveshwara Nagar, Bangalore - 560079, Near Shankar Mutt,  LIC Colony",+(91)-080-23225848,2463Votes,4.0,12.9980336,77.5405384
394,Rainbow Childrens Hospital ..,"No.178/1 &amp; 178/2, Bannerghatta Main Road, Bannerghatta Road, Bangalore - 560076, Opposite Janardhan Towers",+(91)-80-66902299,2446Votes,4.3,12.9033775,77.6007898
395,Columbia Asia Hospital,"No. 46/2, Ward No.150, Sarjapur Road, Bangalore - 560034, Near Apollo Pharmacy",+(91)-080-66756565,2420Votes,4.1,12.919927,77.66527
396,Kempegowda Institute Of Med..,"K R Road, Makalakuta Circle, V V Puram, Bangalore - 560004, Near Basavanagudi Police Station",+(91)-080-26620036,2414Votes,4.0,12.9563184,77.5747066
397,Sri Sathya Sai Institute Of..,"1st Main Road, Epip Zone, Whitefield, Bangalore - 560066, Opposite Sjr Park, Near Itpl",+(91)-080-28004600,2399Votes,4.3,12.9812776,77.7293937
398,Apollo Cradle,"No. 25, 46th Cross, Jayanagar 5th Block, Bangalore - 560041, Near Raghavendra Mutt",+(91)-080-44244424,2356Votes,4.5,12.916727,77.585194
399,Narayana Multispeciality Ho..,"No.3 &amp; 4, Sadaramanagala Industrial Area, Whitefield, Bangalore - 560066, Opposite ITPL Main Gate, Next to Shanthinikethan",+(91)-080-67506808,2279Votes,4.0,12.989504,77.733878
400,Gaurav Homeopathic Clinic,"Shop No 2, Kalanaur Rohtak, Rohtak - 124113, Near New Bus Stand Ke Saath Wali Gali",+(91)-8607337495,269Votes,4.3,12.989504,77.733878
401,Manipal Hospital,"No.98, Old Airport Road, Bangalore - 560017, Opposite Leela Palace",+(91)-080-25024444,10807Votes,4.1,12.9595872,77.6493743
402,Fortis Hospitals,"No. 154/9, Bannerghatta Road, Bangalore - 560076, Opposite IIMB",+(91)-8884491009,10363Votes,4.2,12.8945311,77.5989032
403,St Johns Medical College & ..,"Sarjapura Main Road, Koramangala, Bangalore - 560034, Near Koramangala Water Tank, Opposite BDA Complex",+(91)-080-22065001,8798Votes,4.1,12.9291938,77.6201021
404,Columbia Asia Hospital,"Bellary Road, Hebbal, Bangalore - 560024, Near Esteem Mall and Next  Kirloskar Business Park",+(91)-080-66600666,8621Votes,4.1,13.050971,77.593815
405,Apollo Hospitals,"No.154/11, Bannerghatta Road, Bangalore - 560076, Opposite IIMB, Next to Fortis Hospital",18605001066,8552Votes,4.1,12.896328,77.598297
406,Sagar Hospital,"No. 44/54, 30th Cross, Bannerghatta Main Road, Jayanagar, Bangalore - 560041, Opposite ICICI Bank, Near Tilak Nagar",+(91)-080-42888888,7121Votes,4.1,12.9279837,77.5995246
407,Fortis Hospital,"No.14, Cunningham Road, Bangalore - 560052, Near Sigma Mall",+(91)-080-1994444,6581Votes,4.1,12.988318,77.5944151
408,Columbia Asia Hospital,"Survey No. 10P &amp; 12P, Varthur Kodi, Whitefield, Bangalore - 560066, Opposite Forum Value Mall",+(91)-080-61656666,6153Votes,4.2,12.958194,77.745655
409,Cloudnine Maternity Hospita..,"No.115, Old Airport Road, Bangalore - 560017, Opposite Kemp Fort &amp; Total Mall",+(91)-9972899728,5464Votes,4.5,12.9594517,77.6566866
410,Sakra World Hospital,"No. 52/2 &amp; 52/3, Outer Ring Road, Devarabeesanahalli-bellandur, Bangalore - 560103, Opposite Intel",+(91)-080-49694969,5411Votes,4.0,12.9323275,77.6851886
411,M S Ramaiah Memorial Hospit..,"M S Ramaiah Nagar, Msrit Post, New Bel Road, Bangalore - 560054, Behind Indian Institute Of Science",+(91)-080-23608888,5338Votes,4.1,13.028326,77.569815
412,Bgs Gleneagles Global Hospi..,"No. 67, 1st Block, Uttarahalli Road, Kengeri, Bangalore - 560060, Near SJBIT College",+(91)-080-26255555,5062Votes,4.1,12.90321,77.497537
413,Chinmaya Mission Hospital,"80 Feet Road, CMH Road,  Defence Colony, Indira Nagar 1st Stage, Bangalore - 560038, Opposite Krishna Temple",+(91)-080-25250017,4807Votes,4.0,12.97781,77.646371
414,Manipal Hospital,"No 143/212/215, Hoodi Village, Epip Industrial Area, Whitefield, Bangalore - 560066, Opposite Prestige Shanthiniketan",+(91)-080-25027000,4400Votes,4.3,12.988125,77.728473
415,Specialist Hospital,"No.216, 7th Main, 80 Feet Road, HRBR 1st Block, Kalyan Nagar, Bangalore - 560043, Near Om Shakti Temple",+(91)-080-42122222,4317Votes,4.2,13.0170726,77.6431881
416,Bhagwan Mahaveer Jain Hospi..,"No. 17, Tank Bund Road, Millers Road, Bangalore - 560051, Opposite Ayyappa Temple &amp;  BMTC Bus Stop",+(91)-080-40875555,4297Votes,4.0,12.9915777,77.5952071
417,Columbia Asia Hospital,"No.26/1, Brigade Gateway, Malleswaram West, Bangalore - 560055, Next to Metro Cash and Carry",+(91)-080-67416262,4283Votes,4.1,13.0141759,77.5559485
418,Rainbow Childrens Hospital ..,"No.8/5, KR Puram Marathahalli Outer Ring Road, Marathahalli, Bangalore - 560037, Opposite HP Petrol Pump",+(91)-080-42412375,4213Votes,4.3,12.9752402,77.6977325
419,Sagar Hospitals-DSI,"Dayananda Sagar Institution Campus, Malleshwara Hills Primises, Kumaraswamy Layout 1st Stage, Bangalore - 560111, Next to Dayananda Sagar Engineering College",+(91)-080-42999999,4158Votes,4.4,12.9079517,77.5651177
420,Nimhans Hospital,"No.2900, M H Gowda Road, Hosur Road, Bangalore - 560029, Near Bangalore Milk Dairy",+(91)-080-26995400,4152Votes,4.1,12.938677,77.594262
421,Sankara Eye Hospital,"Kundalahalli Gate,Varthur Main Road, Marathahalli, Bangalore - 560037, Near Karunashraya Ashrama",07947154354,4123Votes,4.3,12.956605,77.71287
422,Narayana Hrudayalaya Ltd,"No.258/A, NH Health City, Industrial Area, Hosur Bande, Bangalore - 562149, Next to BTL College",+(91)-080-67506808,4123Votes,4.2,12.809432,77.695354
423,Nethradhama Super Specialit..,"No.256/14, Kanakapura Main Road, Jayanagar 7th Block, Bangalore - 560070, Next to Deepak Nursing Home",+(91)-080-26088000,3793Votes,4.2,12.92531,77.577292
424,Mallya Hospital,"No. 2, Vittal Mallya Road, Bangalore - 560001, Opposite Sree Kanteerava Stadium, Near St Joseph College,ITC Hotel",+(91)-080-68697979,3783Votes,4.0,12.9680654,77.5950695
425,Sri Jayadeva Institute Of C..,"Bannerghatta Main Road, Jayanagar 9th Block, Bangalore - 560069, Near BTM Flyover",+(91)-080-26534600,3730Votes,4.2,12.918143,77.599181
426,Narayana Nethralaya,"No.258/A, Hosur Road, Bommasandra Industrial Area, Bangalore - 560099, Near Narayana Health City",+(91)-080-66660655,3605Votes,4.7,12.8064766,77.6937978
427,Shekar Eye Hospital,"No 633, 100 Feet Ring Road, Jp Nagar 3rd Phase, Bangalore - 560078, Near Dalmia Software Signal, Opposite Dominos Pizza",+(91)-80-26593210,3550Votes,4.4,12.9064733,77.5959451
428,St Philomenas Hospital,"No.4, Mother Teresa Road, Vivek Nagar, Bangalore - 560047, Near Lifestyle Shopping Mall",+(91)-080-40164300,3369Votes,4.0,12.965443,77.6107905
429,Cloudnine Maternity Hospita..,"No 47, 17th Cross, 11th Main, Malleswaram, Bangalore - 560003, Near MES College",+(91)-9972899728,3364Votes,4.3,13.00786,77.562549
430,Dr. Rudrappa Hospital,"No 5, Rajaram Mohan Roy Cross Road, Richmond Town, Bangalore - 560025, Near Woodlands Hotel",07947155462,3282Votes,4.3,12.965122,77.595607
431,Rangadore Memorial Hospital,"No.25, Shankar Mutt Complex, 1st Cross,, Basavanagudi, Bangalore - 560004, Near National College, Behind Shanakrpuram Police Station",+(91)-080-26983300,3226Votes,4.1,12.95336,77.571014
432,Vikram Hospital Pvt Ltd,"No.71/1, Millers Road, Bangalore - 560051, Opposite St Annes School &amp; College",+(91)-080-45004500,3200Votes,4.2,12.988354,77.591944
433,Life Care Hospital,"No 23/24, 20th Main,Gangothri Circle, Btm Layout 1st Stage, Bangalore - 560029, Near Gangothri Bar and Restaurant",+(91)-80-26846667,3185Votes,4.4,12.9193885,77.612994
434,Hosmat Hospital,"No.45, Magrath Road, Bangalore - 560025, Near Garuda Mall, Off Richmond Road",+(91)-080-25593796,3110Votes,4.0,12.9691411,77.6133653
435,Apollo Speciality Hospital,"No. 21/2, Old No. 2, 14th Cross, Jayanagar 3rd Block East, Bangalore - 560011, Near Madhavan Park",+(91)-080-46124444,2973Votes,4.0,12.9363709,77.5844437
436,Vasan Eye Care Hospital,"No.46, Old No.389/B, 19th Main Road, Rajajinagar 1st Block, Bangalore - 560010, Next to Ananya Hospital, Near Navarang Theatre",+(91)-80-46741900,2951Votes,4.1,12.9994436,77.5504404
437,Motherhood Hospital,"No 514/1-2-3, Kaikondara Village, Sarjapur Road, Bangalore - 560034, Opposite Total Mall",+(91)-080-67238811,2840Votes,4.3,12.917811,77.672198
438,Motherhood Hospital,"No. 324, Cmh Road,1st Stage, Indiranagar, Bangalore - 560038, Near Vijaya Bank",+(91)-080-67238833,2797Votes,4.3,12.978469,77.637512
439,Mallige Hospital,"No.31/32, Crescent Road, Bangalore - 560001, Near Race Course &amp; Bangalore International Hotel",+(91)-080-67165555,2775Votes,4.1,12.9851511,77.5803788
440,Narayana Multispeciality Ho..,"No. 1, 18th Main, Hsr Layout Sector 3, Bangalore - 560102, Opposite HSR Club",+(91)-8095045695,2729Votes,4.0,12.9082884,77.6434947
441,Fortis Hospital,"No.111/112, West Of Chord Road, Mahalakshmipuram Layout, Bangalore - 560086, Opposite Rajajinagar 1st Block Junction",+(91)-9538311144,2644Votes,4.1,13.00222131,77.549136216
442,Santosh Hospital,"No. 6/1, Promenade Road, Pulikeshi Nagar, Bangalore - 560005, Behind Coles Park, Near Goodwill School",+(91)-080-40848888,2624Votes,3.8,12.995734,77.608304
443,Chord Road Hospital Pvt Ltd,"No.100/101, West Of Chord Road, Basaveshwara Nagar, Bangalore - 560079, Near Shankar Mutt,  LIC Colony",+(91)-080-23225848,2463Votes,4.0,12.9980336,77.5405384
444,Rainbow Childrens Hospital ..,"No.178/1 &amp; 178/2, Bannerghatta Main Road, Bannerghatta Road, Bangalore - 560076, Opposite Janardhan Towers",+(91)-80-66902299,2446Votes,4.3,12.9033775,77.6007898
445,Columbia Asia Hospital,"No. 46/2, Ward No.150, Sarjapur Road, Bangalore - 560034, Near Apollo Pharmacy",+(91)-080-66756565,2420Votes,4.1,12.919927,77.66527
446,Kempegowda Institute Of Med..,"K R Road, Makalakuta Circle, V V Puram, Bangalore - 560004, Near Basavanagudi Police Station",+(91)-080-26620036,2414Votes,4.0,12.9563184,77.5747066
447,Sri Sathya Sai Institute Of..,"1st Main Road, Epip Zone, Whitefield, Bangalore - 560066, Opposite Sjr Park, Near Itpl",+(91)-080-28004600,2399Votes,4.3,12.9812776,77.7293937
448,Apollo Cradle,"No. 25, 46th Cross, Jayanagar 5th Block, Bangalore - 560041, Near Raghavendra Mutt",+(91)-080-44244424,2356Votes,4.5,12.916727,77.585194
449,Narayana Multispeciality Ho..,"No.3 &amp; 4, Sadaramanagala Industrial Area, Whitefield, Bangalore - 560066, Opposite ITPL Main Gate, Next to Shanthinikethan",+(91)-080-67506808,2279Votes,4.0,12.989504,77.733878
450,Sakra World Hospital,"No. 52/2 &amp; 52/3, Outer Ring Road, Devarabeesanahalli-bellandur, Bangalore - 560103, Opposite Intel",+(91)-080-49694969,5411Votes,4.0,12.9323275,77.6851886
451,M S Ramaiah Memorial Hospit..,"M S Ramaiah Nagar, Msrit Post, New Bel Road, Bangalore - 560054, Behind Indian Institute Of Science",+(91)-080-23608888,5338Votes,4.1,13.028326,77.569815
452,Bgs Gleneagles Global Hospi..,"No. 67, 1st Block, Uttarahalli Road, Kengeri, Bangalore - 560060, Near SJBIT College",+(91)-080-26255555,5062Votes,4.1,12.90321,77.497537
453,Chinmaya Mission Hospital,"80 Feet Road, CMH Road,  Defence Colony, Indira Nagar 1st Stage, Bangalore - 560038, Opposite Krishna Temple",+(91)-080-25250017,4807Votes,4.0,12.97781,77.646371
454,Manipal Hospital,"No 143/212/215, Hoodi Village, Epip Industrial Area, Whitefield, Bangalore - 560066, Opposite Prestige Shanthiniketan",+(91)-080-25027000,4400Votes,4.3,12.988125,77.728473
455,Specialist Hospital,"No.216, 7th Main, 80 Feet Road, HRBR 1st Block, Kalyan Nagar, Bangalore - 560043, Near Om Shakti Temple",+(91)-080-42122222,4317Votes,4.2,13.0170726,77.6431881
456,Bhagwan Mahaveer Jain Hospi..,"No. 17, Tank Bund Road, Millers Road, Bangalore - 560051, Opposite Ayyappa Temple &amp;  BMTC Bus Stop",+(91)-080-40875555,4297Votes,4.0,12.9915777,77.5952071
457,Columbia Asia Hospital,"No.26/1, Brigade Gateway, Malleswaram West, Bangalore - 560055, Next to Metro Cash and Carry",+(91)-080-67416262,4283Votes,4.1,13.0141759,77.5559485
458,Rainbow Childrens Hospital ..,"No.8/5, KR Puram Marathahalli Outer Ring Road, Marathahalli, Bangalore - 560037, Opposite HP Petrol Pump",+(91)-080-42412375,4213Votes,4.3,12.9752402,77.6977325
459,Sagar Hospitals-DSI,"Dayananda Sagar Institution Campus, Malleshwara Hills Primises, Kumaraswamy Layout 1st Stage, Bangalore - 560111, Next to Dayananda Sagar Engineering College",+(91)-080-42999999,4158Votes,4.4,12.9079517,77.5651177
460,Nimhans Hospital,"No.2900, M H Gowda Road, Hosur Road, Bangalore - 560029, Near Bangalore Milk Dairy",+(91)-080-26995400,4152Votes,4.1,12.938677,77.594262
461,Sankara Eye Hospital,"Kundalahalli Gate,Varthur Main Road, Marathahalli, Bangalore - 560037, Near Karunashraya Ashrama",07947154354,4123Votes,4.3,12.956605,77.71287
462,Narayana Hrudayalaya Ltd,"No.258/A, NH Health City, Industrial Area, Hosur Bande, Bangalore - 562149, Next to BTL College",+(91)-080-67506808,4123Votes,4.2,12.809432,77.695354
463,Nethradhama Super Specialit..,"No.256/14, Kanakapura Main Road, Jayanagar 7th Block, Bangalore - 560070, Next to Deepak Nursing Home",+(91)-080-26088000,3793Votes,4.2,12.92531,77.577292
464,Mallya Hospital,"No. 2, Vittal Mallya Road, Bangalore - 560001, Opposite Sree Kanteerava Stadium, Near St Joseph College,ITC Hotel",+(91)-080-68697979,3783Votes,4.0,12.9680654,77.5950695
465,Sri Jayadeva Institute Of C..,"Bannerghatta Main Road, Jayanagar 9th Block, Bangalore - 560069, Near BTM Flyover",+(91)-080-26534600,3730Votes,4.2,12.918143,77.599181
466,Narayana Nethralaya,"No.258/A, Hosur Road, Bommasandra Industrial Area, Bangalore - 560099, Near Narayana Health City",+(91)-080-66660655,3605Votes,4.7,12.8064766,77.6937978
467,Shekar Eye Hospital,"No 633, 100 Feet Ring Road, Jp Nagar 3rd Phase, Bangalore - 560078, Near Dalmia Software Signal, Opposite Dominos Pizza",+(91)-80-26593210,3550Votes,4.4,12.9064733,77.5959451
468,St Philomenas Hospital,"No.4, Mother Teresa Road, Vivek Nagar, Bangalore - 560047, Near Lifestyle Shopping Mall",+(91)-080-40164300,3369Votes,4.0,12.965443,77.6107905
469,Cloudnine Maternity Hospita..,"No 47, 17th Cross, 11th Main, Malleswaram, Bangalore - 560003, Near MES College",+(91)-9972899728,3364Votes,4.3,13.00786,77.562549
470,Dr. Rudrappa Hospital,"No 5, Rajaram Mohan Roy Cross Road, Richmond Town, Bangalore - 560025, Near Woodlands Hotel",07947155462,3282Votes,4.3,12.965122,77.595607
471,Rangadore Memorial Hospital,"No.25, Shankar Mutt Complex, 1st Cross,, Basavanagudi, Bangalore - 560004, Near National College, Behind Shanakrpuram Police Station",+(91)-080-26983300,3226Votes,4.1,12.95336,77.571014
472,Vikram Hospital Pvt Ltd,"No.71/1, Millers Road, Bangalore - 560051, Opposite St Annes School &amp; College",+(91)-080-45004500,3200Votes,4.2,12.988354,77.591944
473,Life Care Hospital,"No 23/24, 20th Main,Gangothri Circle, Btm Layout 1st Stage, Bangalore - 560029, Near Gangothri Bar and Restaurant",+(91)-80-26846667,3185Votes,4.4,12.9193885,77.612994
474,Hosmat Hospital,"No.45, Magrath Road, Bangalore - 560025, Near Garuda Mall, Off Richmond Road",+(91)-080-25593796,3110Votes,4.0,12.9691411,77.6133653
475,Apollo Speciality Hospital,"No. 21/2, Old No. 2, 14th Cross, Jayanagar 3rd Block East, Bangalore - 560011, Near Madhavan Park",+(91)-080-46124444,2973Votes,4.0,12.9363709,77.5844437
476,Vasan Eye Care Hospital,"No.46, Old No.389/B, 19th Main Road, Rajajinagar 1st Block, Bangalore - 560010, Next to Ananya Hospital, Near Navarang Theatre",+(91)-80-46741900,2951Votes,4.1,12.9994436,77.5504404
477,Motherhood Hospital,"No 514/1-2-3, Kaikondara Village, Sarjapur Road, Bangalore - 560034, Opposite Total Mall",+(91)-080-67238811,2840Votes,4.3,12.917811,77.672198
478,Motherhood Hospital,"No. 324, Cmh Road,1st Stage, Indiranagar, Bangalore - 560038, Near Vijaya Bank",+(91)-080-67238833,2797Votes,4.3,12.978469,77.637512
479,Mallige Hospital,"No.31/32, Crescent Road, Bangalore - 560001, Near Race Course &amp; Bangalore International Hotel",+(91)-080-67165555,2775Votes,4.1,12.9851511,77.5803788
480,Narayana Multispeciality Ho..,"No. 1, 18th Main, Hsr Layout Sector 3, Bangalore - 560102, Opposite HSR Club",+(91)-8095045695,2729Votes,4.0,12.9082884,77.6434947
481,Fortis Hospital,"No.111/112, West Of Chord Road, Mahalakshmipuram Layout, Bangalore - 560086, Opposite Rajajinagar 1st Block Junction",+(91)-9538311144,2644Votes,4.1,13.00222131,77.549136216
482,Santosh Hospital,"No. 6/1, Promenade Road, Pulikeshi Nagar, Bangalore - 560005, Behind Coles Park, Near Goodwill School",+(91)-080-40848888,2624Votes,3.8,12.995734,77.608304
483,Chord Road Hospital Pvt Ltd,"No.100/101, West Of Chord Road, Basaveshwara Nagar, Bangalore - 560079, Near Shankar Mutt,  LIC Colony",+(91)-080-23225848,2463Votes,4.0,12.9980336,77.5405384
484,Rainbow Childrens Hospital ..,"No.178/1 &amp; 178/2, Bannerghatta Main Road, Bannerghatta Road, Bangalore - 560076, Opposite Janardhan Towers",+(91)-80-66902299,2446Votes,4.3,12.9033775,77.6007898
485,Columbia Asia Hospital,"No. 46/2, Ward No.150, Sarjapur Road, Bangalore - 560034, Near Apollo Pharmacy",+(91)-080-66756565,2420Votes,4.1,12.919927,77.66527
486,Kempegowda Institute Of Med..,"K R Road, Makalakuta Circle, V V Puram, Bangalore - 560004, Near Basavanagudi Police Station",+(91)-080-26620036,2414Votes,4.0,12.9563184,77.5747066
487,Sri Sathya Sai Institute Of..,"1st Main Road, Epip Zone, Whitefield, Bangalore - 560066, Opposite Sjr Park, Near Itpl",+(91)-080-28004600,2399Votes,4.3,12.9812776,77.7293937
488,Apollo Cradle,"No. 25, 46th Cross, Jayanagar 5th Block, Bangalore - 560041, Near Raghavendra Mutt",+(91)-080-44244424,2356Votes,4.5,12.916727,77.585194
489,Narayana Multispeciality Ho..,"No.3 &amp; 4, Sadaramanagala Industrial Area, Whitefield, Bangalore - 560066, Opposite ITPL Main Gate, Next to Shanthinikethan",+(91)-080-67506808,2279Votes,4.0,12.989504,77.733878
490,Nimhans Hospital,"No.2900, M H Gowda Road, Hosur Road, Bangalore - 560029, Near Bangalore Milk Dairy",+(91)-080-26995400,4152Votes,4.1,12.938677,77.594262
491,Sankara Eye Hospital,"Kundalahalli Gate,Varthur Main Road, Marathahalli, Bangalore - 560037, Near Karunashraya Ashrama",07947154354,4123Votes,4.3,12.956605,77.71287
492,Narayana Hrudayalaya Ltd,"No.258/A, NH Health City, Industrial Area, Hosur Bande, Bangalore - 562149, Next to BTL College",+(91)-080-67506808,4123Votes,4.2,12.809432,77.695354
493,Nethradhama Super Specialit..,"No.256/14, Kanakapura Main Road, Jayanagar 7th Block, Bangalore - 560070, Next to Deepak Nursing Home",+(91)-080-26088000,3793Votes,4.2,12.92531,77.577292
494,Mallya Hospital,"No. 2, Vittal Mallya Road, Bangalore - 560001, Opposite Sree Kanteerava Stadium, Near St Joseph College,ITC Hotel",+(91)-080-68697979,3783Votes,4.0,12.9680654,77.5950695
495,Sri Jayadeva Institute Of C..,"Bannerghatta Main Road, Jayanagar 9th Block, Bangalore - 560069, Near BTM Flyover",+(91)-080-26534600,3730Votes,4.2,12.918143,77.599181
496,Narayana Nethralaya,"No.258/A, Hosur Road, Bommasandra Industrial Area, Bangalore - 560099, Near Narayana Health City",+(91)-080-66660655,3605Votes,4.7,12.8064766,77.6937978
497,Shekar Eye Hospital,"No 633, 100 Feet Ring Road, Jp Nagar 3rd Phase, Bangalore - 560078, Near Dalmia Software Signal, Opposite Dominos Pizza",+(91)-80-26593210,3550Votes,4.4,12.9064733,77.5959451
498,St Philomenas Hospital,"No.4, Mother Teresa Road, Vivek Nagar, Bangalore - 560047, Near Lifestyle Shopping Mall",+(91)-080-40164300,3369Votes,4.0,12.965443,77.6107905
499,Cloudnine Maternity Hospita..,"No 47, 17th Cross, 11th Main, Malleswaram, Bangalore - 560003, Near MES College",+(91)-9972899728,3364Votes,4.3,13.00786,77.562549
500,Dr. Rudrappa Hospital,"No 5, Rajaram Mohan Roy Cross Road, Richmond Town, Bangalore - 560025, Near Woodlands Hotel",07947155462,3282Votes,4.3,12.965122,77.595607
501,Rangadore Memorial Hospital,"No.25, Shankar Mutt Complex, 1st Cross,, Basavanagudi, Bangalore - 560004, Near National College, Behind Shanakrpuram Police Station",+(91)-080-26983300,3226Votes,4.1,12.95336,77.571014
502,Vikram Hospital Pvt Ltd,"No.71/1, Millers Road, Bangalore - 560051, Opposite St Annes School &amp; College",+(91)-080-45004500,3200Votes,4.2,12.988354,77.591944
503,Life Care Hospital,"No 23/24, 20th Main,Gangothri Circle, Btm Layout 1st Stage, Bangalore - 560029, Near Gangothri Bar and Restaurant",+(91)-80-26846667,3185Votes,4.4,12.9193885,77.612994
504,Hosmat Hospital,"No.45, Magrath Road, Bangalore - 560025, Near Garuda Mall, Off Richmond Road",+(91)-080-25593796,3110Votes,4.0,12.9691411,77.6133653
505,Apollo Speciality Hospital,"No. 21/2, Old No. 2, 14th Cross, Jayanagar 3rd Block East, Bangalore - 560011, Near Madhavan Park",+(91)-080-46124444,2973Votes,4.0,12.9363709,77.5844437
506,Vasan Eye Care Hospital,"No.46, Old No.389/B, 19th Main Road, Rajajinagar 1st Block, Bangalore - 560010, Next to Ananya Hospital, Near Navarang Theatre",+(91)-80-46741900,2951Votes,4.1,12.9994436,77.5504404
507,Motherhood Hospital,"No 514/1-2-3, Kaikondara Village, Sarjapur Road, Bangalore - 560034, Opposite Total Mall",+(91)-080-67238811,2840Votes,4.3,12.917811,77.672198
508,Motherhood Hospital,"No. 324, Cmh Road,1st Stage, Indiranagar, Bangalore - 560038, Near Vijaya Bank",+(91)-080-67238833,2797Votes,4.3,12.978469,77.637512
509,Mallige Hospital,"No.31/32, Crescent Road, Bangalore - 560001, Near Race Course &amp; Bangalore International Hotel",+(91)-080-67165555,2775Votes,4.1,12.9851511,77.5803788
510,Narayana Multispeciality Ho..,"No. 1, 18th Main, Hsr Layout Sector 3, Bangalore - 560102, Opposite HSR Club",+(91)-8095045695,2729Votes,4.0,12.9082884,77.6434947
511,Fortis Hospital,"No.111/112, West Of Chord Road, Mahalakshmipuram Layout, Bangalore - 560086, Opposite Rajajinagar 1st Block Junction",+(91)-9538311144,2644Votes,4.1,13.00222131,77.549136216
512,Santosh Hospital,"No. 6/1, Promenade Road, Pulikeshi Nagar, Bangalore - 560005, Behind Coles Park, Near Goodwill School",+(91)-080-40848888,2624Votes,3.8,12.995734,77.608304
513,Chord Road Hospital Pvt Ltd,"No.100/101, West Of Chord Road, Basaveshwara Nagar, Bangalore - 560079, Near Shankar Mutt,  LIC Colony",+(91)-080-23225848,2463Votes,4.0,12.9980336,77.5405384
514,Rainbow Childrens Hospital ..,"No.178/1 &amp; 178/2, Bannerghatta Main Road, Bannerghatta Road, Bangalore - 560076, Opposite Janardhan Towers",+(91)-80-66902299,2446Votes,4.3,12.9033775,77.6007898
515,Columbia Asia Hospital,"No. 46/2, Ward No.150, Sarjapur Road, Bangalore - 560034, Near Apollo Pharmacy",+(91)-080-66756565,2420Votes,4.1,12.919927,77.66527
516,Kempegowda Institute Of Med..,"K R Road, Makalakuta Circle, V V Puram, Bangalore - 560004, Near Basavanagudi Police Station",+(91)-080-26620036,2414Votes,4.0,12.9563184,77.5747066
517,Sri Sathya Sai Institute Of..,"1st Main Road, Epip Zone, Whitefield, Bangalore - 560066, Opposite Sjr Park, Near Itpl",+(91)-080-28004600,2399Votes,4.3,12.9812776,77.7293937
518,Apollo Cradle,"No. 25, 46th Cross, Jayanagar 5th Block, Bangalore - 560041, Near Raghavendra Mutt",+(91)-080-44244424,2356Votes,4.5,12.916727,77.585194
519,Narayana Multispeciality Ho..,"No.3 &amp; 4, Sadaramanagala Industrial Area, Whitefield, Bangalore - 560066, Opposite ITPL Main Gate, Next to Shanthinikethan",+(91)-080-67506808,2279Votes,4.0,12.989504,77.733878
520,Dr. Rudrappa Hospital,"No 5, Rajaram Mohan Roy Cross Road, Richmond Town, Bangalore - 560025, Near Woodlands Hotel",07947155462,3282Votes,4.3,12.965122,77.595607
521,Rangadore Memorial Hospital,"No.25, Shankar Mutt Complex, 1st Cross,, Basavanagudi, Bangalore - 560004, Near National College, Behind Shanakrpuram Police Station",+(91)-080-26983300,3226Votes,4.1,12.95336,77.571014
522,Vikram Hospital Pvt Ltd,"No.71/1, Millers Road, Bangalore - 560051, Opposite St Annes School &amp; College",+(91)-080-45004500,3200Votes,4.2,12.988354,77.591944
523,Life Care Hospital,"No 23/24, 20th Main,Gangothri Circle, Btm Layout 1st Stage, Bangalore - 560029, Near Gangothri Bar and Restaurant",+(91)-80-26846667,3185Votes,4.4,12.9193885,77.612994
524,Hosmat Hospital,"No.45, Magrath Road, Bangalore - 560025, Near Garuda Mall, Off Richmond Road",+(91)-080-25593796,3110Votes,4.0,12.9691411,77.6133653
525,Apollo Speciality Hospital,"No. 21/2, Old No. 2, 14th Cross, Jayanagar 3rd Block East, Bangalore - 560011, Near Madhavan Park",+(91)-080-46124444,2973Votes,4.0,12.9363709,77.5844437
526,Vasan Eye Care Hospital,"No.46, Old No.389/B, 19th Main Road, Rajajinagar 1st Block, Bangalore - 560010, Next to Ananya Hospital, Near Navarang Theatre",+(91)-80-46741900,2951Votes,4.1,12.9994436,77.5504404
527,Motherhood Hospital,"No 514/1-2-3, Kaikondara Village, Sarjapur Road, Bangalore - 560034, Opposite Total Mall",+(91)-080-67238811,2840Votes,4.3,12.917811,77.672198
528,Motherhood Hospital,"No. 324, Cmh Road,1st Stage, Indiranagar, Bangalore - 560038, Near Vijaya Bank",+(91)-080-67238833,2797Votes,4.3,12.978469,77.637512
529,Mallige Hospital,"No.31/32, Crescent Road, Bangalore - 560001, Near Race Course &amp; Bangalore International Hotel",+(91)-080-67165555,2775Votes,4.1,12.9851511,77.5803788
530,Narayana Multispeciality Ho..,"No. 1, 18th Main, Hsr Layout Sector 3, Bangalore - 560102, Opposite HSR Club",+(91)-8095045695,2729Votes,4.0,12.9082884,77.6434947
531,Fortis Hospital,"No.111/112, West Of Chord Road, Mahalakshmipuram Layout, Bangalore - 560086, Opposite Rajajinagar 1st Block Junction",+(91)-9538311144,2644Votes,4.1,13.00222131,77.549136216
532,Santosh Hospital,"No. 6/1, Promenade Road, Pulikeshi Nagar, Bangalore - 560005, Behind Coles Park, Near Goodwill School",+(91)-080-40848888,2624Votes,3.8,12.995734,77.608304
533,Chord Road Hospital Pvt Ltd,"No.100/101, West Of Chord Road, Basaveshwara Nagar, Bangalore - 560079, Near Shankar Mutt,  LIC Colony",+(91)-080-23225848,2463Votes,4.0,12.9980336,77.5405384
534,Rainbow Childrens Hospital ..,"No.178/1 &amp; 178/2, Bannerghatta Main Road, Bannerghatta Road, Bangalore - 560076, Opposite Janardhan Towers",+(91)-80-66902299,2446Votes,4.3,12.9033775,77.6007898
535,Columbia Asia Hospital,"No. 46/2, Ward No.150, Sarjapur Road, Bangalore - 560034, Near Apollo Pharmacy",+(91)-080-66756565,2420Votes,4.1,12.919927,77.66527
536,Kempegowda Institute Of Med..,"K R Road, Makalakuta Circle, V V Puram, Bangalore - 560004, Near Basavanagudi Police Station",+(91)-080-26620036,2414Votes,4.0,12.9563184,77.5747066
537,Sri Sathya Sai Institute Of..,"1st Main Road, Epip Zone, Whitefield, Bangalore - 560066, Opposite Sjr Park, Near Itpl",+(91)-080-28004600,2399Votes,4.3,12.9812776,77.7293937
538,Apollo Cradle,"No. 25, 46th Cross, Jayanagar 5th Block, Bangalore - 560041, Near Raghavendra Mutt",+(91)-080-44244424,2356Votes,4.5,12.916727,77.585194
539,Narayana Multispeciality Ho..,"No.3 &amp; 4, Sadaramanagala Industrial Area, Whitefield, Bangalore - 560066, Opposite ITPL Main Gate, Next to Shanthinikethan",+(91)-080-67506808,2279Votes,4.0,12.989504,77.733878
540,Narayana Multispeciality Ho..,"No. 1, 18th Main, Hsr Layout Sector 3, Bangalore - 560102, Opposite HSR Club",+(91)-8095045695,2729Votes,4.0,12.9082884,77.6434947
541,Fortis Hospital,"No.111/112, West Of Chord Road, Mahalakshmipuram Layout, Bangalore - 560086, Opposite Rajajinagar 1st Block Junction",+(91)-9538311144,2644Votes,4.1,13.00222131,77.549136216
542,Santosh Hospital,"No. 6/1, Promenade Road, Pulikeshi Nagar, Bangalore - 560005, Behind Coles Park, Near Goodwill School",+(91)-080-40848888,2624Votes,3.8,12.995734,77.608304
543,Chord Road Hospital Pvt Ltd,"No.100/101, West Of Chord Road, Basaveshwara Nagar, Bangalore - 560079, Near Shankar Mutt,  LIC Colony",+(91)-080-23225848,2463Votes,4.0,12.9980336,77.5405384
544,Rainbow Childrens Hospital ..,"No.178/1 &amp; 178/2, Bannerghatta Main Road, Bannerghatta Road, Bangalore - 560076, Opposite Janardhan Towers",+(91)-80-66902299,2446Votes,4.3,12.9033775,77.6007898
545,Columbia Asia Hospital,"No. 46/2, Ward No.150, Sarjapur Road, Bangalore - 560034, Near Apollo Pharmacy",+(91)-080-66756565,2420Votes,4.1,12.919927,77.66527
546,Kempegowda Institute Of Med..,"K R Road, Makalakuta Circle, V V Puram, Bangalore - 560004, Near Basavanagudi Police Station",+(91)-080-26620036,2414Votes,4.0,12.9563184,77.5747066
547,Sri Sathya Sai Institute Of..,"1st Main Road, Epip Zone, Whitefield, Bangalore - 560066, Opposite Sjr Park, Near Itpl",+(91)-080-28004600,2399Votes,4.3,12.9812776,77.7293937
548,Apollo Cradle,"No. 25, 46th Cross, Jayanagar 5th Block, Bangalore - 560041, Near Raghavendra Mutt",+(91)-080-44244424,2356Votes,4.5,12.916727,77.585194
549,Narayana Multispeciality Ho..,"No.3 &amp; 4, Sadaramanagala Industrial Area, Whitefield, Bangalore - 560066, Opposite ITPL Main Gate, Next to Shanthinikethan",+(91)-080-67506808,2279Votes,4.0,12.989504,77.733878
550,Ramakrishna Super Specialit..,"No.808/1, 15th Cross, Jayanagar 3rd Block, Bangalore - 560011, Near Madhavan Park",+(91)-080-40800100,2252Votes,4.0,12.936299,77.58326
551,Healthcare Global Enterpris..,"No.8, HCG Tower 1, P Kalinga Rao Road, Sampangiramnagar, Bangalore - 560027, Near Geo Hotel",+(91)-080-40206001,2246Votes,4.0,12.964343,77.589661
552,Motherhood Hospital,"No.2266, Service Road, G Block, Sahakara Nagar, Bangalore - 560092, Near Big Market",+(91)-080-67238822,2157Votes,4.4,13.0619741,77.5930818
553,Motherhood Hospital,"No.2266/17 &amp; 18, G Block, Sahakara Nagar, Bangalore - 560092, Near Service Road,  International Airport Road",+(91)-080-67238822,2157Votes,4.4,13.0619741,77.5930818
554,Narayana Nethralaya,"No.37, Castle Street, Ashoknagar, Bangalore - 560025, Opposite Sacred Heart Church",+(91)-80-66974001,2154Votes,4.5,12.967132,77.609439
555,Devi Eye Hospital,"No 434, 6th Block, 18th Main, 80 Feet Road, Koramangala, Bangalore - 560095, Opposite Koramangala Bus Depot",+(91)-080-25521708,2135Votes,4.1,12.9411446,77.6239031
556,Victoria Hospital,"Fort Road, Kalasipalyam, Bangalore - 560002, Near BMTC Bus Stand",+(91)-080-26701150,2119Votes,4.0,12.9635669,77.5738074
557,People Tree Hospitals,"No.2, Tumkur Road, Goraguntepalya, Yeshwanthpur, Bangalore - 560022, Opposite Taj Vivanta Hotel",+(91)-9900091881,2020Votes,4.0,13.028818,77.539427
558,Cloudnine Hospital,"Municipal No. 1/79/4, Varthur Hobli, Bellandur, Bangalore - 560103",+(91)-9972899728,2006Votes,4.5,12.9243104,77.6724146
559,Jeevika Hospital,"No.95/3, Marathahalli Outer Ring Road, Doddanekkundi, Marathahalli, Bangalore - 560037",07947157642,1994Votes,3.9,12.966016,77.702527
560,Sita Bhateja Speciality Hos..,"No.8/9, O Shaughnessy Road,  Langford Gardens, Langford Garden, Bangalore - 560025, Behind Hockey Stadium, Next to Canara Bank",+(91)-080-40302700,1933Votes,4.1,12.9632294,77.5997428
561,Cytecare Hospitals Pvt Ltd,"Venkatala, Bagalur Cross, Yelahanka, Bangalore - 560064, Near Hotel Ambience",+(91)-9513363431,1932Votes,4.7,13.1179843,77.6081529
562,The Bangalore Hospital,"No.202/1, Rashtriya Vidyalaya Road, Basavanagudi, Bangalore - 560004, Near South End Circle, Next to Church, Opposite Sanman Hotel",+(91)-80-41187628,1921Votes,3.9,12.937771,77.580334
563,Jeeva Pet Hospital,"No 1360, 9th Cross, 1st Phase, Jp Nagar, Bangalore - 560078, Opposite Rajshekar Hospital Near Astar RV Hospital",07947154703,1893Votes,4.3,12.910559,77.580316
564,Vydehi Institute Of Medical..,"No.82, Nallurahalli, Epip Industrial Area, Whitefield, Bangalore - 560066, Near BMTC Depot",+(91)-080-28413382,1876Votes,4.0,12.975704,77.731414
565,Omega Multispeciality Hospi..,"No 1236,Ward No 4, B Sector,HIG 1 &amp; 2 Phase, Yelahanka New Town, Bangalore - 560064",07947160206,1861Votes,4.7,13.100245,77.581414
566,Greenview Medical Center,"No. 20 &amp; 21, Kalpa Vruksha, 14th Main, 5th Sector, Hsr Layout, Bangalore - 560102, Opposite Agra Lake",+(91)-080-67927777,1732Votes,3.8,12.919191,77.638198
567,V Care Hospital,"No.29, H D Devegowda Road, Rt Nagar, Bangalore - 560032, Near Adikabir Ashram",+(91)-80-23434373,1692Votes,3.9,13.015891,77.597373
568,Rajshekar Multispeciality H..,"No.21, 9th Cross, Jp Nagar, Bangalore - 560078, Near Indira Gandhi Circle",+(91)-080-42527555,1663Votes,4.0,12.9109881,77.5797347
569,Sparsh Super Speciality Hos..,"No.4/1, Goraguntepalya Main Road, Yeshwanthpur, Bangalore - 560022, Next RNS Motors",+(91)-080-49108000,1583Votes,4.2,13.0277135,77.5429315
570,Suguna Hospital,"No.1A /87, Dr Rajkumar Road, N Block, Rajajinagar 4th Block, Bangalore - 560010, Near E Sanje Office",+(91)-080-40194444,1576Votes,3.9,12.9881038,77.5599475
571,Rajmahal Vilas Hospital,"No.138, Rmv Extension 2nd Stage, Bangalore - 560094, Near Radhakrishna Temple, Opposite Reliance Fresh",+(91)-80-42664366,1557Votes,4.0,13.032261,77.577039
572,Agadi Hospital And Research..,"No. 35, 10th Cross, Siddaiah Road, Wilson Garden, Bangalore - 560027, Near Police Station",+(91)-080-22222925,1527Votes,4.0,12.94921,77.597731
573,Motherhood Hospital,"No. 914, 1st Block, 5th A Cross Road, Kalyan Nagar, Bangalore - 560043",+(91)-080-46240000,1522Votes,4.4,13.020251,77.65149
574,Motherhood Hospital,"No. 4, 30th Main Road, Banashankari 3rd Stage, Bangalore - 560085, Opposite Kempegowda Institute Of Medical Science, Kaveri Nagar",+(91)-080-61798800,1411Votes,4.8,12.9268937,77.5611848
575,St Marthas Hospital,"No.5, Nrupatunga Road, Bangalore - 560001, Opposite  RBI",+(91)-080-40128200,1406Votes,4.1,12.971314,77.586634
576,Kidwai Memorial Institute O..,"Kidwai Campus Road, Hombegowda Nagar, Bangalore - 560029",+(91)-080-26094000,1344Votes,4.0,12.9368265,77.5978629
577,Sri Shankara Cancer Hospita..,"1st Cross, Shankarmath Road, Basavanagudi, Bangalore - 560004, Near Shankarapuram Police Station",+(91)-080-26981100,1336Votes,4.2,12.9540689,77.5712228
578,Zion Hospital & Research Ce..,"No.83/1, 2nd Cross, Kammanahalli, Bangalore - 560084, Behind Doctors Diagnostic Center, Near Empire Hotel, Keerthi Layout",+(91)-080-43518000,1324Votes,3.8,13.014945,77.635483
579,ACE-Suhas Hospital,"No. CA/2,, Jigani Industrial Area,, Jigani, Bangalore - 560105, Near APC Circle",07947165241,1276Votes,4.8,12.780127,77.642797
580,Belle Vues Cambridge Hospit..,"No.18/17, Cambridge Road, Ulsoor, Bangalore - 560008, Opposite Frank Antony Public School",+(91)-080-40061111,1242Votes,4.1,12.9716255,77.6274529
581,KC General Hospital,"5th Cross, Malleswaram, Bangalore - 560003, Near Police Station Road",+(91)-080-23343791,1242Votes,3.9,12.9960244,77.5693714
582,Bowring And Lady Curzon Hos..,"Lady Curzon Road, Shivaji Nagar, Bangalore - 560001, Near Shivajinagar Bus Stand",+(91)-080-25591325,1204Votes,3.9,12.9822441,77.6043414
583,Ovum Hospitals,"No.220, 7th  Main Road, 1st Block, Hrbr Layout, Bangalore - 560043",+(91)-080-45309999,1194Votes,4.1,13.0172758,77.6432707
584,Dr. Shettys Dental Care,"Above Reliance Digital, R.M Road, Banaswadi, Bangalore - 560043, Near Ramurtramurthy Nagar Signal",+(91)-80-41558558,1187Votes,4.6,13.0135,77.661848
585,Dr. Agarwals Eye Hospital,"# 16,  Salarpuria Zest Building,, 3rd Phase,, Bannerghatta Road, Bangalore - 560076, Near Shopper Stop, Bannerghatta Road,",+(91)-8884477931,1177Votes,4.1,12.9122372,77.5995649
586,Gurushree Hitech Multispeci..,"No.1558, Chandra Layout, Bangalore - 560040, Opposite to Chandra Layout Bus Stand",+(91)-80-23392641,1174Votes,4.0,12.9592994,77.5265192
587,Republic Hospital,"No.5, Langford Gardens, Richmond Road, Bangalore - 560025, Next to Adarsh Hamiloton Hotel",+(91)-080-22215761,1159Votes,4.0,12.9640845,77.5982315
588,Sapthagiri Hospital,"No.15, Hessarghatta Main Road, Chikbanavara, Bangalore - 560090, Near Sapthagiri College",+(91)-8884439132,1156Votes,3.9,13.0706389,77.5024795
589,Acura Speciality Hospital,"No.105, 17th C Main Road, 5th Block, Koramangala, Bangalore - 560095, Near Apollo Cradle Hospital",+(91)-080-45111555,1141Votes,3.9,12.9352976,77.6205519
590,Yashomati Hospitals PVT LTD,"No.2371/3, Varthur Main Road, Munne Kolala, Marathahalli, Bangalore - 560037",+(91)-80-43221000,1134Votes,3.7,12.955569,77.711255
591,Cloudnine Hospital,"2nd Floor, Plot No 11, Survey No 88, Nagarjuna Sai Signet, Whitefield Main Road, Bangalore - 560066",+(91)-9972899728,1122Votes,4.2,12.9877867,77.7319947
592,Rashmi Hospital,"No 190, Double Road, Indiranagar, Bangalore - 560038, Opposite to Kaveri School",+(91)-80-25251573,1121Votes,4.5,12.976795,77.636293
593,Lakshmi Maternity & Surgica..,"No.95 &amp; 96, 15th Cross, Margosa Road, Malleswaram, Bangalore - 560003, Opposite Malleswaram Telephone Exchange",+(91)-080-23347276,1109Votes,4.1,13.005779,77.569337
594,Aayugs Multispeciality Hosp..,"No. 477, 1st Main Road, B Block, Kundalahalli, Bangalore - 560037, Near CMRIT Engineering College",+(91)-080-67650700,1105Votes,3.9,12.965112,77.714819
595,Mazumdar Shaw Medical Cente..,"No.258/A, Hosur Road, Bommasandra Industrial Area, Bangalore - 560099, Behind Narayana Hrudayalaya Hospital",+(91)-080-67506808,1090Votes,3.8,12.8069375,77.6948538
596,Cloudnine Hospital,"No.636/1, Service Road, Horamavu, Bangalore - 560043, Opposite Shishuka Children Speciality Hospital",+(91)-9972899728,1086Votes,4.4,13.020109,77.654136
597,Sri Sathya Sai Baba Hospita..,"Epip Zone Whitefield Road, East Chord Road, Bangalore - 560040",+(91)-080-28411500,1072Votes,4.3,12.981292,77.72946
598,Sparsh Hospital,"No 146, Prestige Opel Building, Commissioner Office Main Road, Infantry Road, Bangalore - 560001, Opposite Police Commissioner Office",+(91)-080-61222000,1068Votes,4.1,12.983387,77.594759
599,Vijayanagar Hospital,"No. 46, 17th Cross, M C Road, Vijayanagar, Bangalore - 560040, Near Vijaynagar Main Bus Stand",+(91)-080-23358111,1068Votes,3.8,12.9716034,77.5372483
600,Panacea Hospital,"No. 334, 8th Main, 3rd Stage, 4th Block, Basaveshwara Nagar, Bangalore - 560079, Near Pavithra Paradise",,1055Votes,3.9,12.992866,77.538728
601,Anugraha Vittala Hospital B..,"No.9, Patalamma Temple Street, Basavanagudi, Bangalore - 560004, Opposite State Bank Of India",+(91)-80-26573802,1049Votes,4.2,12.9389206,77.5785352
602,Shishuka Children Specialit..,"No 5 A C 938, Service Road,Ring Road,HRBR Layout, Kalyan Nagar, Bangalore - 560043, Near Horamavu Signal",+(91)-080-43706940,1047Votes,4.5,13.019372,77.653569
603,Altius Hospital Pvt Ltd,"No.6/63, 59th Cross, Rajajinagar 4th Block, Bangalore - 560010, Opposite Mei Polytechnic, Near Ram Temple",+(91)-80-23151873,1020Votes,4.6,12.9850608,77.5566403
604,Devi Eye Hospital,"No.157/A, 5th Sector, Outer Ring Road, Hsr Layout, Bangalore - 560102, Opposite to Jss Public School",+(91)-80-41112604,1016Votes,4.4,12.916307,77.637416
605,Dr. Agarwals Eye Hospital,"No. 2557, Sector B, 3rd Stage,13th B Cross, Yelahanka New Town, Bangalore - 560064, Opposite Dhanalakshmi Bank",+(91)-080-28461225,1015Votes,4.2,13.094304,77.580758
606,Homeocare International Pvt..,"No 304, Sampige Market Bus Stop,11th and 12th Cross, Malleswaram, Bangalore - 560003, Beside Max Cloth Showroom",+(91)-9550001133,1015Votes,3.8,13.002392,77.571379
607,Abhaya Hospital,"No.17, Dr MH Mari Gowda Road, Hosur Road, Wilson Garden, Bangalore - 560027, Opposite 9th Cross Bus Stop",+(91)-80-26563865,997Votes,4.1,12.946389,77.594798
608,Shekhar Hospital,"No.81, Bull Temple Road, Basavanagudi, Bangalore - 560004, Near Ramkrishna Ashram, Opposite Indian Oil Petrol Bunk",+(91)-80-22429366,991Votes,3.9,12.9459076,77.5674978
609,Maharaja Agrasen Hospital,"15th Main Road, 17th Cross, Padmanabhanagar, Bangalore - 560070, Behind Kidney Foundation",+(91)-080-26393361,981Votes,3.9,12.915972,77.555004
610,Rajarajeswari Medical Colle..,"No.202, Mysore Road, Kumbalgodu, Bangalore - 560074, Near Kambipura",+(91)-080-28437444,976Votes,4.0,12.896192,77.461852
611,Punya Hospitals INDIA Pvt L..,"No.52/10, 80 Feet Road,Khb Colony, Basaveshwara Nagar, Bangalore - 560079, Near Pavithra Paradise",+(91)-080-49294929,958Votes,3.9,12.986069,77.537409
612,Nano Hospitals,"No. 79, Sir. M Visveswaraya Road, Nyanappana Halli, DLF City Road, Hulimavu, Bangalore - 560076, Near Arekere Sai Baba Temple",+(91)-080-61454949,950Votes,4.0,12.881041,77.610184
613,Chaya Super Speciality Hosp..,"No. 6, 5th Main Road, Chanasandra Layout, Bangalore - 560060, Next to Nandagokula Restaurant",+(91)-080-71966535,950Votes,3.6,13.0103765,77.6582207
614,Sparsh Hospital,"No 28/P2, Hosur Main Road, Bommasandra Industrial Area, Bangalore - 560099, Near Narayana Hrudayalaya Hospital",+(91)-080-61222000,936Votes,4.1,12.8070055,77.6957554
615,Indira Gandhi Institute Of ..,"South Hospital Complex, Dharmaram College, Bangalore - 560029, Near Nimhans Hospital",+(91)-080-22443143,923Votes,4.2,12.9383772,77.5923157
616,Vims Speciality Hospitals,"No. 88, Marathahalli, Bangalore - 560037, Near Innovative Mutiplex,Outer Ring Road",,913Votes,3.5,12.9483018,77.6994652
617,Jeevan Dental Clinic,"No.702, Premson Complex, 3rd Block, Koramangala 3rd Block, Bangalore - 560034, Behind Bda Complex, Next Syndicate Bank",+(91)-80-41306534,906Votes,4.8,12.9305223,77.6229666
618,Brindhavvan Areion Hospital,"No.17, 4th Main Road, Chamrajpet, Bangalore - 562135, Opposite to Bosco Mane",+(91)-80-26257700,889Votes,4.1,12.957844,77.569197
619,DRS 7 Maiya Multispeciality..,"No.34, 10th Main, Jayanagar 1st Block, Bangalore - 560011, Near Ashoka Pillar",+(91)-80-26568978,889Votes,4.0,12.942611,77.585447
620,Vijaya Ent Care Centre,"No.1, 9th Cross, Margosa Road, Malleswaram, Bangalore - 560003, Opposite Krishnaiah Jewellary",+(91)-080-23311837,882Votes,4.2,13.0000074,77.569594
621,Sevakshetra Hospital,"27th Cross, Banashankari 2nd Stage, Bangalore - 560070, Near Canara Bank",+(91)-080-26715479,879Votes,4.0,12.921544,77.572071
622,Axon Speciality Hospital,"No 321, 6th Main, Indiranagar, Bangalore - 560038, Opposite to Full Gospel Church",+(91)-80-43346333,863Votes,3.8,12.9737838,77.6460567
623,Brookefield Hospital,"No.521/522, Vijayalakshmi Square, Itpl Main Road, Whitefield, Kundalahalli, Bangalore - 560037, Opposite to Kalyani Platinum, Next to Cosmos Mall",+(91)-80-42445566,856Votes,3.7,12.9669488,77.7168956
624,Sri Krishna Sevashrama Hosp..,"No. 523, 10th Main, 45th Cross, Jayanagar 5th Block, Bangalore - 560041, Behind Raghavendra Swamy Temple",+(91)-80-45340000,837Votes,4.1,12.9173324,77.5850134
625,Sathya Sai Orthopaedic And ..,"No.20/2, Old Rto Cross, Bhattarahalli, Bangalore - 560049, Near K R Puram RTO Office",+(91)-7022649111,821Votes,4.1,13.021657,77.712828
626,The Sagar Hospital,"No.614, 100 Feet Ring Road, Banashankari 3rd Stage, Bangalore - 560085, Near Apple Auto Suzuki Showroom, Behind Dewagoda Petrol Bu",+(91)-080-26893021,819Votes,3.9,12.92218,77.5596749
627,Vinayaka Hospital,"No.110, 80 Feet Road, SBM Colony, Banashankari 1st Stage, Bangalore - 560050, Near Seetha Circle, Opposite Petrol Bunk",+(91)-080-26794148,819Votes,3.8,12.937447,77.549472
628,Meenakshi Ent Speciality Ho..,"No.2232, 23rd Cross, Banashankari 2nd Stage, Bangalore - 560070, Near National Co Operative Bank",07947243829,815Votes,4.0,12.924057,77.571135
629,Unity Lifeline Hospital IND..,"No.193, Ekadantha, 80 Feet Road, 2nd Stage, 2nd Block, Nagarbhavi, Bangalore - 560072, Near BDA Complex, Opposite Cafe Coffee Day",+(91)-080-23183131,813Votes,4.0,12.9819005,77.5108967
630,M S Ramaiah Medical College..,"M S Ramaiah, New Bel Road, Mathikere, Bangalore - 560054, Near New BHEL Road",+(91)-080-23605190,812Votes,4.0,13.028227,77.570506
631,Shobha Hospital,"No.29 &amp; 30, Nagarbhavi Road, Vijayanagar, Bangalore - 560040, Opposite Prasanth Nagar Bus Stop",+(91)-080-23359107,811Votes,4.0,12.9755518,77.5313312
632,Springleaf Hospital,"No. 60/3, Konnappanna Aghara, Hosur Main Road, Electronic City, Bangalore - 560100, Opposite Infosys &amp; Pillar Number 228",+(91)-080-67345000,807Votes,3.6,12.8526069,77.6676044
633,Gayathri Hospital,"No.91, Magadi Chord Road, Vijayanagar, Bangalore - 560040, Near to Telephone Exchange",+(91)-80-23355201,803Votes,4.0,12.9744213,77.5426793
634,Dr. M C Modi Super Speciali..,"Modi Hospital Road, Mahalakshmipuram Layout, Bangalore - 560086, Opposite KFC",+(91)-80-23492233,802Votes,4.3,12.9982734,77.5460446
635,Samprathi Eye Hospital And ..,"No.111/3, 7th Cross,Railway Parallel Road, Kumara Park West, Bangalore - 560020, Behind Hotel Ashoka",+(91)-80-23367544,788Votes,4.5,12.9931264,77.5807238
636,Medihope Super Speciality H..,"No 114, Malleshpalya Main Road, New Thippasandra, Bangalore - 560075, Opposite Vignan Nagar Bus Stand",+(91)-080-67611000,787Votes,3.7,12.973541,77.675152
637,Excel Care Hospital,"No 3/2, 27th Cross, Banashankari 2nd Stage, Bangalore - 560070, Near Brigade Software Park",+(91)-80-26715818,783Votes,4.0,12.9208055,77.5735501
638,Sanjeevini Multispecialty H..,"No 761, 7th Main Road, Mahalakshmipuram Layout, Bangalore - 560086, Near Mahalakshmipuram Layout Bus Stop, Swimming Pool",+(91)-080-39213100,776Votes,4.0,13.0116635,77.5438292
639,Meenakshi Hospital,"No.979/A, 25th Main, 50 Feet Road, Hanumantha Nagar-banashankari, Bangalore - 560050, Near Srinagar Bus Stop",+(91)-80-26755901,774Votes,3.8,12.941974,77.553624
640,Rajiv Gandhi Institute Of T..,"RGC Campus, Cholanagar, Rt Nagar, Bangalore - 560032",+(91)-80-23631145,769Votes,3.9,13.0330303,77.5977307
641,Vasavi Hospital,"No.15, 70th Cross Road, 14th Main, Kumaraswamy Layout 1st Stage, Bangalore - 560111, Near Police Station",+(91)-080-71500500,758Votes,4.1,12.9032087,77.5602893
642,Shankara Nethralaya Eye Hos..,"No.41/42/45, Sri Guru Krupa Building, 7th Cross, Saraswathipuram, Nandini Layout, Bangalore - 560096, Opposite Eshwar Hospital",+(91)-9620937759,752Votes,4.1,13.008901,77.540584
643,Shifaa Hospital And Researc..,"No.332, Darus Salam Building, Queens Road, Bangalore - 560001, Next to Pratham Motors, Opposite CSI Bus Stop",+(91)-080-40007300,748Votes,4.1,12.989715,77.598842
644,Nature Cure Hospital Jayana..,"No.1537/1, 9th Main Road, Jayanagar 3rd Block, Bangalore - 560011, Near Cloud Nine Hospital &amp; Bank Of Baroda",+(91)-80-26631945,742Votes,4.1,12.9332895,77.5843335
645,Dr. Kaamini Rao Hospital,"No.1109, 24th Main Road, Jp Nagar 1st Phase, Bangalore - 560078, Near Raghavendra Temple",+(91)-080-45306300,737Votes,4.0,12.9159289,77.585643
646,Ananya Hospital Pvt Ltd,"No.389/44, 19th Main Road, Rajajinagar 1st Block, Bangalore - 560010, Next  Canara Bank",+(91)-080-23527422,730Votes,4.0,12.9997723,77.5505079
647,Dr. Solanki Eye Hospital,"191/1, Link Road,2nd Cross, Malleswaram, Bangalore - 560003, Opposite Sri Anjaneya Cooperative Bank",+(91)-80-23562211,728Votes,4.3,12.995165,77.573825
648,Ovum Woman & Child Speciali..,"No. 916, 5th A Cross Road, 1st Block, Kalyan Nagar, Bangalore - 560043, Near I Max Diagnostic",+(91)-80-46253900,721Votes,4.7,13.02016,77.651759
649,Pristine Hospital,"No.877, Modi Hospital Road, 2nd Stage Extention, West Of Chord Rd 2 Stage, Bangalore - 560086, Next to SBI Bank",+(91)-80-41354444,714Votes,3.9,12.998031,77.543289
650,Sakhii Hospital,"No.123, 7th Cross,Dollars Colony,Billekhalli,, Btm Layout 2nd Stage, Bangalore - 560076, Near Coupon Mall &amp; Off Bannerghatta Road",07947157797,713Votes,4.5,12.905356,77.603168
651,Lions Airport City Hospital,"No. 103, Munnekolala Main Road, Marathahalli, Bangalore - 560037, Near Poorva Revera Apartments, Laxmi Layout, Varthur",+(91)-080-41709644,713Votes,4.2,12.9551021,77.705117
652,K K Hospital,"No 9, A/1 &amp; A/2, Yelahanka New Town, Bangalore - 560064, Opposite MEC School, Near Venkateshwara Temple, Sector 1",+(91)-80-28461933,707Votes,4.0,13.0971431,77.5892758
653,Shreya Hospital,"No.73, 3rd Main, 6th Cross, Kengeri Satelite Town, Bangalore - 560060, Near Syndicate Bank",+(91)-080-28482958,695Votes,4.0,12.921426,77.483197
654,Genesis Hospital,"No 10/2,, Queens Road, Bangalore - 560052",07947157168,689Votes,4.6,12.986388,77.5979481
655,Koshys Hospital,"Thambu Chetty Palya Main Road, Ramamurthy Nagar, Bangalore - 560016",+(91)-80-43517777,687Votes,3.5,13.0205937,77.6759171
656,Poornima Hospital,"No. 200/A, 9th Cross, Rt Nagar, Bangalore - 560032, Near Presidency School, Hmt Layout",+(91)-080-23557272,684Votes,3.7,13.028585,77.592731
657,Jayashree Multispeciality H..,"No 25,26 and 27, 1st Cross,B Block,Vishwapriya Nagar, Begur Road, Bangalore - 560068, Near Choudeshwari Temple",07947156622,677Votes,4.0,12.881752,77.626075
658,Vasan Eye Care Hospital,"No. 483, Seetha Complex, 16th Cross, 18th Main Road, Rajarajeshwari Nagar, Bangalore - 560098, Above Axis Bank ATM",+(91)-080-28603866,675Votes,4.1,12.931173,77.515477
659,Lakshmi Hospital,"No.402, 2nd Cross, Judges Colony, Rt Nagar, Bangalore - 560032, Opposite 108 B Bus Stop",+(91)-80-23335184,668Votes,3.8,13.0247942,77.5920631
660,D G Hospital,"No 274/275, M K Puttalingaiah Road, Padmanabhanagar, Bangalore - 560070, Near to Devegowda Petrol Bunk",+(91)-80-26696179,659Votes,3.8,12.920684,77.5598116
661,Life Plus Hospital,"No.266/C, 80 Feet Road, Indiranagar, Bangalore - 560038, Near CMH Hospital",+(91)-080-25254444,656Votes,4.4,12.975616,77.646982
662,Nethradhama Superspeciality..,"No.30, 19th Main,2nd Block, Rajajinagar, Bangalore - 560010, Behind Navarang Theatre",+(91)-80-43334111,655Votes,4.1,12.9975792,77.5509304
663,Bangalore Institute Of Gast..,"No. 34, 100 Feet Road, Jayanagar, Bangalore - 560011, Near Ashoka Pillar",+(91)-080-67779777,653Votes,4.3,12.9405117,77.584812
664,Radhakrishna Multispecialit..,"No. 3/4, Sunrise Towers, J P Road, 30th Cross, Girinagar, Bangalore - 560085, Oppopsite to  Canara Bank",+(91)-80-26720222,645Votes,3.9,12.940866,77.545565
665,Citi Hospital,"No.25/91, Dr D R Bendre Road, 2nd Block Woc Road, Rajajinagar, Bangalore - 560010, Opp 2nd Block Bus Stop",+(91)-80-23131778,641Votes,4.0,12.9957981,77.5509897
666,Rajarajeshwari Dental Colle..,"No.14, Ramohalli Cross, Mysore Road, Kumbalgodu, Bangalore - 560074, Near Decathlon Academy",+(91)-80-28437150,639Votes,3.9,12.887264,77.4508359
