,Company Name,Address,Phone,votes,ratings,latitude,longitude
0,Karnataka Public School,"Chokkanahalli Village, Hegde Nagar, Bangalore - 560077",07947396714,2Votes,3.5,13.071708,77.633626
1,Chistiya International Scho..,"Gunjur, Whitefield-Sarjapur Road, Varthur, Bangalore - 560087, Near Gunjur Bus Stop",07947157165,165Votes,4.2,12.9210676,77.738818
2,Silicon City Academy Of Sec..,"Silicon City Educational Trust, Kumar Nursery, New Bank Colony, Konanakunte Cross, Bangalore - 560062, Off Kanakapura Road, Near Saudhamani Marriage Hall",07947154306,320Votes,4.3,12.8812062,77.5689372
3,Sai Vidya Mandir,"Bettahalasur, Bettahalsur, Bangalore - 562157, Near Government Hospital",07947161754,34Votes,4.9,13.1586248,77.6126443
4,Carmel Public School,"No 2, 5th Cross , M S Layout, Jarganahalli, Jp Nagar 6th Phase, Bangalore - 560078, Near Sarakki Signal",07947161557,81Votes,4.3,12.902639055556,77.576286444444
5,St. Johns School,"Bhuvaneshwari Nagar,Kempapura,Coffee Board Layout, Hebbal, Bangalore - 560024, Near Water Tank",07947154666,95Votes,4.2,13.0522972222,77.6069111111
6,Smrti Academy,"No.18, Anekal Taluk, Huskur, Bangalore - 560099, Near Madduramma Temple",07947162179,112Votes,4.8,12.909122222222,77.681122222222
7,MS Dhoni Global School,"No 47/1A,1B, Hsr Extension(South), Kudulu Gate, Bangalore - 560068, Opposite to Cadenza Apartments",07947460011,68Votes,4.7,12.8882369,77.644759
8,National Public School,"No 22, Anjanapura Main Road, Jp Nagar 9th Phase, Bangalore - 560062, Near Krbe Indian Oil Petrol Bunk",07947460521,2Votes,3.5,12.868707,77.563212
9,Shri Ram Global School Whit..,"#07 &amp; 08, Naganayakanakote,Samethanahalli, SAMETHANAHALLI Main Road, Whitefield, Bangalore - 560067, Near SAMETHANAHALLI LAKE",07947160369,125Votes,3.9,12.967683333333,77.797211111111
10,Innovative School Of Excell..,"8/6.BBMP Office Roa, Horamavu Agara Village, Bangalore - 560043",07947188286,6Votes,4.3,13.039196972222,77.658404
11,Bangalore Education Guide L..,"No 68,1st Floor, 4th Main,Postal Colony, Sanjay Nagar, Bangalore - 560094, Near Daffodils School",07947159203,1330Votes,3.9,13.034963,77.577357
12,Poorna Smrithi Public Schoo..,"No 44, Shampur Main Road, LR Bande Road, Rt Nagar, Bangalore - 560032, Behind KHB Quarters, Opposite Raghavendra Temple",+(91)-7348922733,125Votes,4.0,13.028227777778,77.610175
13,Shri Ram Global School,"Sy No 67/1, Old Madras Road, Bhattarahalli, Bangalore - 560049, Bommenahalli",07947266402,228Votes,4.7,13.073655,77.7543743
14,Narayana E Techno & Olympia..,"#105/6,Gurumurthy Swamy Krupa Building, Opp Lake Dew Residency, Haralur-HSR Layout, Bangalore - 560102, Opposite TVS Showroom",07947292139,87Votes,3.7,12.897777123731,77.65745925716
15,Basil Woods Nature School,"MS Palya Road, Lakshmipura Cross, Bangalore - 560097, Near Sambhram College",07947164768,1Votes,5.0,13.092006,77.533952
16,Global Residential School,"Pillagumpe Chinthamane Road, Whitefield, Bangalore - 560067, Near Industrial Area",07947313589,139Votes,4.1,13.012370076043,77.66629284255
17,Brs Global School,"No 317/2, Bidaraguppe Village, Attibele, Bangalore - 562107, Sarjapura Attibee Road",07947460049,50Votes,4.1,12.807097,77.780883
18,Flomont World School,"No 51, 1st Cross,4th Main,HAL 3rd Satge, New Thippasandra, Bangalore - 560075, Near 80 Feet Road And Near BSNL Office",07947160020,22Votes,4.3,12.9701617,77.6480058
19,St Marks Public School,"No.37, 1st Mn Rd,3rd Phs, Jp Nagar 3rd Phase, Bangalore - 560078",07947154874,112Votes,3.9,12.914404,77.5987832
20,Hill Rock National Public S..,"Survey No.101, Brahmadevara Gutte Kodigehalli,6th Block,Vishweshwaraya Layout Off Magadi Road, Nagarbhavi, Bangalore - 560091",+(91)-9739710666,67Votes,4.2,12.966590006848,77.472426714448
21,Grv Public School,"No 20, Ganga Nagar Extension, Bangalore - 560032, Behind Shell Petrol Bunk",07947257214,46Votes,3.8,13.0212736,77.5843292
22,PARIPOORNA PRAJNA Internati..,"No.149,, Patel Layout, Cheemasandra, Virgonagar, Bangalore - 560049, Near Avalahalli Bus Stop &amp; Muneshwara Swamy Temple, Behind BREN Apartment",07947160719,38Votes,4.3,13.0428064,77.7358876
23,ANANTHA VIDYANIKETANA,"Sai Gardens, Avathi, Devanahalli, Bangalore - 562110, Next to Shirdi Sai  Baba Temple, NH-7",07947241970,86Votes,4.3,13.280104,77.728258
24,Skalvi International School,"Kottanuru Dinne Main Road, Shaneshwara Mandir Road, Jp Nagar 8th Phase, Bangalore - 560076",07947479352,62Votes,3.9,12.8780068,77.5863424
25,United International School,"Hennur Bagalur Main Road, Kothanur, Bangalore - 560077, Opposite Farhan School Of Nursing",07947156999,221Votes,3.8,13.083793353374,77.655324701646
26,Sai Global School,"Whitefield, Bangalore - 560067, Near Whitefield",07947169268,2Votes,4.3,13.0061872665,77.697653355
27,NMH Global School,"Sideshwara Layout, Sidedhahalli, Hessargatta Main Road, Bangalore - 560073, Behind NMH CONVENTION HALL",+(91)-9980246158,142Votes,4.7,13.06300493,77.4952501501
28,Hmr International Public Sc..,"HMR Layout 80 Feet Road, Jnanajyothi Nagara, Jnana Jyothi Nagar-Jnana Bharathi, Bangalore - 560056, Near Bangalore University",07947183625,2Votes,3.5,12.945007,77.515335
29,Royale Concorde Internation..,"No 14,, Sharadha Hills, Hesarghatta Main Road, Vidyaranyapura Post,, M S Palya, Bangalore - 560097, Near Sambram College",07947216785,130Votes,4.1,13.0857417,77.5490295
30,Millennium World School,"Survey No 88, Kogilu Main Road, Yelahanka, Bangalore - 560064, Near Indian OIl Petrol Bunk",07947164972,34Votes,4.9,13.104052213021,77.620158679783
31,Narayana E-Techno School,"No.9, Lakshminivas Keshavamurthy, T Dasarahalli, Bangalore - 560057, Opposite Lakeview Defence Colony",07947166280,3Votes,4.3,13.059583333333,77.516888888889
32,Seven Senses School Whitefi..,"No 360 &amp; 361,, Outer Circle, Dodsworth Layout,, Whitefield, Bangalore - 560066, 2 Min From Forum Mall Whitefield",07947160281,21Votes,3.6,12.969752777778,77.748786111111
33,Janani Vidya Mandira,"No 9/119 3rd Block, Ullal Main Road Sir M V Layout, Ullalu, Bangalore - 560110, Near to Chithanya Pu College",07947275696,25Votes,4.3,12.9503104,77.4836966
34,The Louann Play Home And Da..,"No.123, Oil Mill Road,KSFC Layout,9th Cross, Lingarajapuram, Bangalore - 560084, Near Deepa Bakery",07947159254,2Votes,4.2,13.012037,77.630223
35,Royale Concorde Internation..,"No.31, 1st Main Road, Chamarajpet, Bangalore - 560018, Near Prakash Cafe",+(91)-080-9745680,104Votes,3.9,12.960594444444,77.570563888889
36,Floretz Academy (Montessori..,"No.408, 22nd Cross, Hsr Layout Sector 2, Bangalore - 560102, Near Parangipalya Bus Stop",+(91)-7795674829,445Votes,4.7,12.9093147778,77.6505698889
37,Rising Kids Day Care And Pl..,"No.1,Ashirwada Nilaya, Sunkadakatte, Bangalore - 560091, Next Government School",07947159909,2Votes,3.5,12.994,77.478775
38,Swamy Vivekananda Internati..,"No 38, Atturu Main Road, Atturu Layout, Yelahanka New Town, Bangalore - 560064, Near NCC(Urban) &amp; Purva Apartments",07947229772,36Votes,4.0,13.1031201,77.5667348
39,The Millennium School,"Sri Jnanagiri Educational Trust, No.57, Hessarghatta Main Road, Tarabanahalli, Bangalore - 560090",07947161777,41Votes,4.6,13.10202088,77.47439978
40,St Joseph Chaminade Academy,"No. 1, Anekal Taluk, Deepahalli, Anandpura Village, Bommasandra, Bangalore - 560099, Opposite to Concorde Sylvan View Apartments",07947158764,55Votes,4.7,12.8279469,77.705926199722
41,Seed International,"No-652, 4th C Mn,Ombr Lyt, Kasturi Nagar, Bangalore - 560043, Opp Bhuvanagiri Park",07947155332,28Votes,4.2,13.0111108,77.6587355
42,EuroKids,"HIG B 46, Surya City Phase 1 Chandapura, Chandapura, Bangalore - 560081, Near Chadapura  Anekal Road",07947159097,48Votes,4.0,12.792918,77.7035537
43,Mount Litera Zee School,"No 40/123, Kadugodi, Bangalore - 560067, Near Satya Sai Baba Ashram and Skylark Arcade",07947330712,182Votes,4.3,13.002595,77.7429602
44,New Little Wonders Internat..,"Hurulichikkanahalli, Bengaluru, Hesarghatta Main Road, Bangalore - 560090, Near Basavanna Temple",07947183623,6Votes,4.3,13.1157536,77.4853748
45,Kidzee Whitefield,"No.6,Green Park, Whitefield Main Road, Bangalore - 560066, Near Forum Value Mall ,Behind FAB India",+(91)-080-65777790,88Votes,4.2,12.963333,77.747
46,I Play I Learn Preschool An..,"Cherry Street, Green Glen Layout-Bellandur, Bangalore - 560103, Behind Shoba Marvella",07947159205,11Votes,3.9,12.92679,77.673139
47,Gnan Srishti School Of Exce..,"No 85/63/61, 19th Main, 17th Cross, Sector 1, Hsr Layout, Bangalore - 560102, Near Hsr Water Tank",07947155246,157Votes,3.8,12.9123242,77.6455393
48,Little Lillys English Publi..,"No 13, 8th Main,4th Block,Bel Layout, Vidyaranyapura, Bangalore - 560097, Near Post Office",07947154521,95Votes,3.9,13.0762059,77.5570077
49,New Learning Ladders Intern..,"#332/2,2nd A Main Road Channasandra, B Channasandra, Bangalore - 560043, Near Ramamurthy Nagar Signal,Next Ramurthynagar Service Road Bus Stop K R Puram Hobli",+(91)-080-1158622,33Votes,4.5,13.011043527778,77.661346416667
50,Podar Jumbo Kids Plus,"No.214, 100 Feet Ring Road, Banashankari 3rd Stage, Bangalore - 560085, Near Vespa Showroom",07947156252,228Votes,4.4,12.9262316,77.548796
51,Lady Vailankanni Group Of I..,"No 175/2, Lady Vailankanni Road, Varthur, Bangalore - 560087, Behind Varthur Vinayaka Theater,Near Varthur Government Hospital",07947154118,133Votes,4.0,12.935277777778,77.746388888889
52,Planet Bloomingdale Child G..,"No.447, 12th Main,4th Block, Koramangala, Bangalore - 560034, Near Bda Complex And BSNL Telephone Exchange",+(91)-9243101700,71Votes,4.7,12.932101,77.627423
53,Bright Kid,"No.305, 5th Cross,1st Stage,1st Phase, Mathikere, Bangalore - 560054, Near Dhanalakshmi Book Store",07947159482,13Votes,4.5,13.027990694444,77.557539
54,Lawrence High School,"No CA 3, 9th Main, 6th Sector, Hsr Layout, Bangalore - 560102, Near BDA Complex",+(91)-080-5722777,346Votes,4.2,12.9137714,77.6350042
55,The Learning Curve,"764/725/12 7th main, 10th cross,Shubh Enclave, Harlur Road, Ambalipura, Bangalore - 560102, Sarjapur Big Bazaar",07947159310,8Votes,4.8,12.9107289,77.6662481
56,The Summit Gurukulam,"HBR 1st Block, H B R Layout 1st Block, Bangalore - 560084, Near SHELL PETROL BUNK",07947164349,52Votes,4.6,13.018622222222,77.624358333333
57,Kids Klub,"No 11, G 10 Street, Ulsoor, Bangalore - 560008, Near Ulsoor Metro Station",07947158210,10Votes,4.7,12.9756893,77.6278576
58,St Benedicts School,"Asirvanam, Anchepalya, Kengeri, Bangalore - 560060, Near Ancheplaya Circle",07947278497,25Votes,3.8,12.8897694444,77.45865
59,Aditya Institutions,"No.12,, Kogilu Main Road, Yelahanka, Bangalore - 560064, Behind Annapoorneshwari Temple",07947159169,183Votes,3.9,13.103055,77.61242
60,Lets Start Prep School & Da..,"No.400,75/2, Bellandur Main Road, Sunrise Villas, Bellandur, Bangalore - 560103, Near Bangalore Central Mall",07947157083,15Votes,4.8,12.9229532,77.6760487
61,Holy Child Convent,"No 1133/44,, 9th Cross, Banashankari 1st Stage, Bangalore - 560050, Near Shankarnag Circle",08045793376,83Votes,3.7,12.9368498,77.5599428
62,Narayana E-Techno School,"Sapthagiri Layout,, Vidyaranyapura, Bangalore - 560097, Near Thindlu Circle",07947315872,10Votes,3.9,13.098480555556,77.5596
63,EuroKids,"No.400, J P Main Road,1st Phase, Girinagar, Bangalore - 560085, Near Shankar Mutt And Radhakrishna Hospital",07947158979,32Votes,4.2,12.940580793669,77.546591889185
64,Mother Mary English School,"No.795, 3rd Cross,New Thippasandra, Hal 3rd Stage New Thippasandra, Bangalore - 560075",07947156421,71Votes,4.1,12.976089,77.652909
65,Little Genie Montessori & D..,"No 116, 3rd Main, Beml Layout-Kundalhalli-Whitefield, Bangalore - 560066",07947249418,1Votes,3.0,12.9608773,77.7200407
66,New Indus Valley Residentia..,"Garden City College Road,Subhashnagar Post, Virgonagar, Bangalore - 560049, Near Bhattarahalli",07947155068,257Votes,4.0,13.02105372937,77.70565594021
67,Manipal International Schoo..,"Survey No.4,131, Lakshmisagar Road, Chandapura, Bangalore - 560081, Near Biotech Park",07947066774,81Votes,4.6,12.7882053,77.6967381
68,Broadvision World School,"29/3B Hennr Road Cross, Hennur Main Road, Bangalore - 560043, Near D Mart",07947165964,2Votes,4.3,13.036910056944,77.643150329444
69,Touchstone,"No.730, 7th Phase, Rbi Layout, Jp Nagar, Bangalore - 560078, Opposite To Elita Porminate And Near Brigade Millinium",07947155638,26Votes,4.6,12.89162,77.578597
70,Kool Star Play Home,"No 116/5, 11th Cross, Malleswaram, Bangalore - 560003, Opposite Nalli Silks",07947157406,5Votes,4.8,13.002142,77.569367
71,Allamandas School,"No 11, Link Road,4th And 5th Cross, Malleswaram, Bangalore - 560003, Opposite Big Bazaar",07947158293,53Votes,4.5,12.996452,77.573159
72,Planet Bloomingdale Child G..,"No.300, 6th Main, Mahalakshmipuram Layout, Bangalore - 560086",+(91)-9243101700,111Votes,4.5,13.010558,77.546353
73,Lakshmi Jayam English Schoo..,"No.m-53-54, 7th Cross, Lakshminarayan Puram, Srirampuram, Bangalore - 560021, Near Devaiah Park",+(91)-80-23325999,9Votes,4.5,12.994303,77.562073972222
74,Holy Angels Public School,"R R Temple Road,Devasandra.J C Layout, Krishnarajapuram, Bangalore - 560036, Near RR Temple",+(91)-9945610457,32Votes,4.5,13.0048511,77.6972255
75,Srinidhi Public School,"No.20, 21 &amp; 22, 1st Cross, 3rd Main, Srinidhi Layout, New Bank Colony, Kanakapura Road, Bangalore - 560062",+(91)-80-26324343,85Votes,4.1,12.8827874,77.5704082
76,Vivekananda Techno School,"No 24, 2nd Cross, Konanakunte, Bangalore - 560062, Near Honey Foundation",+(91)-080-26322994,59Votes,4.7,12.8873815,77.5673592
77,New Carmel English School,"No.59, Gokul 1st Stage, 2nd Phase, 8th A Cross, 3rd Main Road, Yeshwanthpur, Bangalore - 560022, Near Divanarapalya Bus Stop Near Shanimantam Temple",+(91)-80-23476327,42Votes,3.7,13.0246021,77.5606119
78,St. Josephs Convent School,"No 103, Kadaagrahara Bus Stop,Doddagubbi Post, Doddagubbi, Bangalore - 560077, Near Bus Stop",+(91)-8147753988,9Votes,4.1,13.0649095,77.6726679
79,Zeal Montessori,"No.92, Basava Bhavana, 10th Main, 7th Cross, KK Layout, Dr Vishnuvardhan Road, Uttarahalli, Bangalore - 560061, Opposite to Poornapragna Layout Water Tank",+(91)-80-26731150,13Votes,4.5,12.9082846,77.5340127
80,Little Ikons,"No.127, S.P Nilayam,Kothanur Post, Kothanur, Bangalore - 560077, Near Golden Palm  Apartment",+(91)-9742664133,19Votes,4.7,13.0645015,77.6401678
81,Edify School,"No 388/O, 10th Main, 19th Cross,, Surya Nagar Phase -2 Chandapura, Anekal, Bangalore - 562106",+(91)-9900077180,124Votes,4.2,12.7721917,77.6934735
82,Om Sri Narayana Vidya Kendr..,"No.852/1, 7th A Main Banaswadi Main Road, Hrbr Layout, Bangalore - 560043, Opp Syndicate Bank",+(91)-80-25790716,16Votes,4.2,13.0172394,77.6433386
83,R V Early Learning Center,"No.12, 5th Cross,Raghuvanahalli, Kanakapura Road, Bangalore - 560062, Opposite Ksit Engineering College",+(91)-080-28435333,33Votes,4.7,12.878235,77.5470642
84,KSVP Karnataka Sanskriti V..,"No.127, Bhagath Sigh Road, Rajarajeshwari Nagar, Bangalore - 560098, Behind Pattanagere Post Office,Near Anjanaya Temple",+(91)-9513512323,9Votes,4.4,12.920544,77.511378
85,MES Public School,"Patel Channappa Layout, 3rd Cross, BH Road, Nelamangala, Bangalore - 562123, Near Colony Bus Stop",+(91)-080-27726600,17Votes,4.3,13.0949253,77.4053593
86,LSV Public School,"Gangondanahalli Main Road, Gangondanahalli, Bangalore - 560073, Near Gangondanahalli Bus Stop",+(91)-8553888273,13Votes,4.8,13.0545986,77.4704398
87,Basava Residential Girls Sc..,"Doddabele, Mysore Road, Kengeri, Bangalore - 560060, Nr ACS  College Of Engineering",+(91)-9513731315,254Votes,4.5,12.8909259,77.4696609
88,Global High School,"No 9/1,, 4th Main, 7th Cross, Benson Town, Bangalore - 560046",+(91)-80-23544044,9Votes,3.5,13.02498852,77.59178453
89,Sri Bhavani Vidya Mandira,"No. B-153, 2nd Main, 7th Cross,, Bahubali Nagar, Jalahalli, Bangalore - 560013, Bhd Jalahalli Govt High School,",+(91)-80-23452121,7Votes,4.8,13.045407,77.550104
90,Kuddle Kidz,"No 939, 1st Main,2nd Cross,Geetanjali Layout, HAL 3rd Stage New Thippasandra, Bangalore - 560075, Opposite Beml 2nd Gate",+(91)-9845366451,26Votes,4.1,12.975719444444,77.65455
91,White Petals School,"No 5, 7th Cross, Santhosh Nagar, Attur Layout, Yelahanka New Town, Bangalore - 560064",+(91)-9148360111,56Votes,4.5,13.1061989,77.5679013
92,Josco Institutions,"Infant Jesus Campus, Mylanahalli Post Nelamangala to Doddaballapur Road, Nelamangala, Bangalore - 562123, JOSCO INSTITUTIONS",+(91)-080-27725950,117Votes,4.5,13.097356777778,77.384300222222
93,Stalwart School - Kidz Zone,"No 9, 6th Cross, Muni Nagappa Layout,Kavalbyrasandra, Rt Nagar, Bangalore - 560032, Near Kaval Byrasandra Bus Stop, Karnataka ATM",+(91)-80-23547034,26Votes,4.6,13.0175,77.606111111111
94,Vriddhi Kidz,"No.43, 1st Cross,Hegde Nagar Main Road, Hegde Nagar, Bangalore - 560077",+(91)-9513311495,63Votes,4.7,13.0663985,77.6288002
95,Raos Tutorial Institute,"No 194, 38th Cross,5th Block, Jayanagar, Bangalore - 560041, Near Telephone Exchange",+(91)-80-26631752,129Votes,3.9,12.921553,77.5826412
96,Royale Concorde Internation..,"No.3/2, Ambalipura Village,Sarjarpur Main Road, Bellandur, Bangalore - 560103, Near Big Bazaar",+(91)-80-41476100,130Votes,3.9,12.9206575,77.6678178
97,V Blooms International Scho..,"No.194/4, Balagrahalli,Neraluru Post, Anekal Taluq, Attibele, Bangalore - 562107",+(91)-9986818937,24Votes,4.2,12.7826758,77.7736927
98,Kriyaa Early Learning Monte..,"No-28, Sarjapura Main Road, Doddakannelli, Bangalore - 560035, Opposite Achievers Academy",+(91)-9686270267,15Votes,4.6,12.9071012,77.6959306
99,Little Elly Pre-School,"No.248/17,, 2nd Block, 6th Cross, Jayanagar 9th Block, Bangalore - 560011",+(91)-80-50098722,125Votes,4.4,12.9407892,77.583716
100,Smrti Academy,"No.18, Anekal Taluk, Huskur, Bangalore - 560099, Near Madduramma Temple",07947162179,112Votes,4.8,12.909122222222,77.681122222222
101,NMH Global School,"Sideshwara Layout, Sidedhahalli, Hessargatta Main Road, Bangalore - 560073, Behind NMH CONVENTION HALL",+(91)-9980246158,142Votes,4.7,13.06300493,77.4952501501
102,MS Dhoni Global School,"No 47/1A,1B, Hsr Extension(South), Kudulu Gate, Bangalore - 560068, Opposite to Cadenza Apartments",07947460011,68Votes,4.7,12.8882369,77.644759
103,United International School,"Hennur Bagalur Main Road, Kothanur, Bangalore - 560077, Opposite Farhan School Of Nursing",07947156999,221Votes,3.8,13.083793353374,77.655324701646
104,Lady Vailankanni Group Of I..,"No 175/2, Lady Vailankanni Road, Varthur, Bangalore - 560087, Behind Varthur Vinayaka Theater,Near Varthur Government Hospital",07947154118,133Votes,4.0,12.935277777778,77.746388888889
105,Innovative School Of Excell..,"8/6.BBMP Office Roa, Horamavu Agara Village, Bangalore - 560043",07947188286,6Votes,4.3,13.039196972222,77.658404
106,St Joseph Chaminade Academy,"No. 1, Anekal Taluk, Deepahalli, Anandpura Village, Bommasandra, Bangalore - 560099, Opposite to Concorde Sylvan View Apartments",07947158764,55Votes,4.7,12.8279469,77.705926199722
107,Narayana E Techno & Olympia..,"#105/6,Gurumurthy Swamy Krupa Building, Opp Lake Dew Residency, Haralur-HSR Layout, Bangalore - 560102, Opposite TVS Showroom",07947292139,87Votes,3.7,12.897777123731,77.65745925716
108,Global Residential School,"Pillagumpe Chinthamane Road, Whitefield, Bangalore - 560067, Near Industrial Area",07947313589,139Votes,4.1,13.012370076043,77.66629284255
109,Poorna Smrithi Public Schoo..,"No 44, Shampur Main Road, LR Bande Road, Rt Nagar, Bangalore - 560032, Behind KHB Quarters, Opposite Raghavendra Temple",+(91)-7348922733,125Votes,4.0,13.028227777778,77.610175
110,Janani Vidya Mandira,"No 9/119 3rd Block, Ullal Main Road Sir M V Layout, Ullalu, Bangalore - 560110, Near to Chithanya Pu College",07947275696,25Votes,4.3,12.9503104,77.4836966
111,Brs Global School,"No 317/2, Bidaraguppe Village, Attibele, Bangalore - 562107, Sarjapura Attibee Road",07947460049,50Votes,4.1,12.807097,77.780883
112,Shri Ram Global School,"Sy No 67/1, Old Madras Road, Bhattarahalli, Bangalore - 560049, Bommenahalli",07947266402,228Votes,4.7,13.073655,77.7543743
113,Holy Child Convent,"No 1133/44,, 9th Cross, Banashankari 1st Stage, Bangalore - 560050, Near Shankarnag Circle",08045793376,83Votes,3.7,12.9368498,77.5599428
114,Bangalore Education Guide L..,"No 68,1st Floor, 4th Main,Postal Colony, Sanjay Nagar, Bangalore - 560094, Near Daffodils School",07947159203,1330Votes,3.9,13.034963,77.577357
115,Flomont World School,"No 51, 1st Cross,4th Main,HAL 3rd Satge, New Thippasandra, Bangalore - 560075, Near 80 Feet Road And Near BSNL Office",07947160020,22Votes,4.3,12.9701617,77.6480058
116,Hill Rock National Public S..,"Survey No.101, Brahmadevara Gutte Kodigehalli,6th Block,Vishweshwaraya Layout Off Magadi Road, Nagarbhavi, Bangalore - 560091",+(91)-9739710666,67Votes,4.2,12.966590006848,77.472426714448
117,Little Genie Montessori & D..,"No 116, 3rd Main, Beml Layout-Kundalhalli-Whitefield, Bangalore - 560066",07947249418,1Votes,3.0,12.9608773,77.7200407
118,PARIPOORNA PRAJNA Internati..,"No.149,, Patel Layout, Cheemasandra, Virgonagar, Bangalore - 560049, Near Avalahalli Bus Stop &amp; Muneshwara Swamy Temple, Behind BREN Apartment",07947160719,38Votes,4.3,13.0428064,77.7358876
119,ANANTHA VIDYANIKETANA,"Sai Gardens, Avathi, Devanahalli, Bangalore - 562110, Next to Shirdi Sai  Baba Temple, NH-7",07947241970,86Votes,4.3,13.280104,77.728258
120,Mount Litera Zee School,"No 40/123, Kadugodi, Bangalore - 560067, Near Satya Sai Baba Ashram and Skylark Arcade",07947330712,182Votes,4.3,13.002595,77.7429602
121,Gnan Srishti School Of Exce..,"No 85/63/61, 19th Main, 17th Cross, Sector 1, Hsr Layout, Bangalore - 560102, Near Hsr Water Tank",07947155246,157Votes,3.8,12.9123242,77.6455393
122,Mother Mary English School,"No.795, 3rd Cross,New Thippasandra, Hal 3rd Stage New Thippasandra, Bangalore - 560075",07947156421,71Votes,4.1,12.976089,77.652909
123,Sai Global School,"Whitefield, Bangalore - 560067, Near Whitefield",07947169268,2Votes,4.3,13.0061872665,77.697653355
124,Skalvi International School,"Kottanuru Dinne Main Road, Shaneshwara Mandir Road, Jp Nagar 8th Phase, Bangalore - 560076",07947479352,62Votes,3.9,12.8780068,77.5863424
125,Hmr International Public Sc..,"HMR Layout 80 Feet Road, Jnanajyothi Nagara, Jnana Jyothi Nagar-Jnana Bharathi, Bangalore - 560056, Near Bangalore University",07947183625,2Votes,3.5,12.945007,77.515335
126,Broadvision World School,"29/3B Hennr Road Cross, Hennur Main Road, Bangalore - 560043, Near D Mart",07947165964,2Votes,4.3,13.036910056944,77.643150329444
127,St Benedicts School,"Asirvanam, Anchepalya, Kengeri, Bangalore - 560060, Near Ancheplaya Circle",07947278497,25Votes,3.8,12.8897694444,77.45865
128,Kidzee Whitefield,"No.6,Green Park, Whitefield Main Road, Bangalore - 560066, Near Forum Value Mall ,Behind FAB India",+(91)-080-65777790,88Votes,4.2,12.963333,77.747
129,Grv Public School,"No 20, Ganga Nagar Extension, Bangalore - 560032, Behind Shell Petrol Bunk",07947257214,46Votes,3.8,13.0212736,77.5843292
130,St Marks Public School,"No.37, 1st Mn Rd,3rd Phs, Jp Nagar 3rd Phase, Bangalore - 560078",07947154874,112Votes,3.9,12.914404,77.5987832
131,Aditya Institutions,"No.12,, Kogilu Main Road, Yelahanka, Bangalore - 560064, Behind Annapoorneshwari Temple",07947159169,183Votes,3.9,13.103055,77.61242
132,Manipal International Schoo..,"Survey No.4,131, Lakshmisagar Road, Chandapura, Bangalore - 560081, Near Biotech Park",07947066774,81Votes,4.6,12.7882053,77.6967381
133,Planet Bloomingdale Child G..,"No.300, 6th Main, Mahalakshmipuram Layout, Bangalore - 560086",+(91)-9243101700,111Votes,4.5,13.010558,77.546353
134,Touchstone,"No.730, 7th Phase, Rbi Layout, Jp Nagar, Bangalore - 560078, Opposite To Elita Porminate And Near Brigade Millinium",07947155638,26Votes,4.6,12.89162,77.578597
135,The Learning Curve,"764/725/12 7th main, 10th cross,Shubh Enclave, Harlur Road, Ambalipura, Bangalore - 560102, Sarjapur Big Bazaar",07947159310,8Votes,4.8,12.9107289,77.6662481
136,Bright Kid,"No.305, 5th Cross,1st Stage,1st Phase, Mathikere, Bangalore - 560054, Near Dhanalakshmi Book Store",07947159482,13Votes,4.5,13.027990694444,77.557539
137,The Summit Gurukulam,"HBR 1st Block, H B R Layout 1st Block, Bangalore - 560084, Near SHELL PETROL BUNK",07947164349,52Votes,4.6,13.018622222222,77.624358333333
138,Royale Concorde Internation..,"No 14,, Sharadha Hills, Hesarghatta Main Road, Vidyaranyapura Post,, M S Palya, Bangalore - 560097, Near Sambram College",07947216785,130Votes,4.1,13.0857417,77.5490295
139,Floretz Academy (Montessori..,"No.408, 22nd Cross, Hsr Layout Sector 2, Bangalore - 560102, Near Parangipalya Bus Stop",+(91)-7795674829,445Votes,4.7,12.9093147778,77.6505698889
140,Allamandas School,"No 11, Link Road,4th And 5th Cross, Malleswaram, Bangalore - 560003, Opposite Big Bazaar",07947158293,53Votes,4.5,12.996452,77.573159
141,The Louann Play Home And Da..,"No.123, Oil Mill Road,KSFC Layout,9th Cross, Lingarajapuram, Bangalore - 560084, Near Deepa Bakery",07947159254,2Votes,4.2,13.012037,77.630223
142,Swamy Vivekananda Internati..,"No 38, Atturu Main Road, Atturu Layout, Yelahanka New Town, Bangalore - 560064, Near NCC(Urban) &amp; Purva Apartments",07947229772,36Votes,4.0,13.1031201,77.5667348
143,Lawrence High School,"No CA 3, 9th Main, 6th Sector, Hsr Layout, Bangalore - 560102, Near BDA Complex",+(91)-080-5722777,346Votes,4.2,12.9137714,77.6350042
144,Royale Concorde Internation..,"No.31, 1st Main Road, Chamarajpet, Bangalore - 560018, Near Prakash Cafe",+(91)-080-9745680,104Votes,3.9,12.960594444444,77.570563888889
145,EuroKids,"HIG B 46, Surya City Phase 1 Chandapura, Chandapura, Bangalore - 560081, Near Chadapura  Anekal Road",07947159097,48Votes,4.0,12.792918,77.7035537
146,Lets Start Prep School & Da..,"No.400,75/2, Bellandur Main Road, Sunrise Villas, Bellandur, Bangalore - 560103, Near Bangalore Central Mall",07947157083,15Votes,4.8,12.9229532,77.6760487
147,Kids Klub,"No 11, G 10 Street, Ulsoor, Bangalore - 560008, Near Ulsoor Metro Station",07947158210,10Votes,4.7,12.9756893,77.6278576
148,New Little Wonders Internat..,"Hurulichikkanahalli, Bengaluru, Hesarghatta Main Road, Bangalore - 560090, Near Basavanna Temple",07947183623,6Votes,4.3,13.1157536,77.4853748
149,Narayana E-Techno School,"No.9, Lakshminivas Keshavamurthy, T Dasarahalli, Bangalore - 560057, Opposite Lakeview Defence Colony",07947166280,3Votes,4.3,13.059583333333,77.516888888889
150,Little Lillys English Publi..,"No 13, 8th Main,4th Block,Bel Layout, Vidyaranyapura, Bangalore - 560097, Near Post Office",07947154521,95Votes,3.9,13.0762059,77.5570077
151,I Play I Learn Preschool An..,"Cherry Street, Green Glen Layout-Bellandur, Bangalore - 560103, Behind Shoba Marvella",07947159205,11Votes,3.9,12.92679,77.673139
152,Seed International,"No-652, 4th C Mn,Ombr Lyt, Kasturi Nagar, Bangalore - 560043, Opp Bhuvanagiri Park",07947155332,28Votes,4.2,13.0111108,77.6587355
153,Planet Bloomingdale Child G..,"No.447, 12th Main,4th Block, Koramangala, Bangalore - 560034, Near Bda Complex And BSNL Telephone Exchange",+(91)-9243101700,71Votes,4.7,12.932101,77.627423
154,Kool Star Play Home,"No 116/5, 11th Cross, Malleswaram, Bangalore - 560003, Opposite Nalli Silks",07947157406,5Votes,4.8,13.002142,77.569367
155,Rising Kids Day Care And Pl..,"No.1,Ashirwada Nilaya, Sunkadakatte, Bangalore - 560091, Next Government School",07947159909,2Votes,3.5,12.994,77.478775
156,The Millennium School,"Sri Jnanagiri Educational Trust, No.57, Hessarghatta Main Road, Tarabanahalli, Bangalore - 560090",07947161777,41Votes,4.6,13.10202088,77.47439978
157,Narayana E-Techno School,"Sapthagiri Layout,, Vidyaranyapura, Bangalore - 560097, Near Thindlu Circle",07947315872,10Votes,3.9,13.098480555556,77.5596
158,New Learning Ladders Intern..,"#332/2,2nd A Main Road Channasandra, B Channasandra, Bangalore - 560043, Near Ramamurthy Nagar Signal,Next Ramurthynagar Service Road Bus Stop K R Puram Hobli",+(91)-080-1158622,33Votes,4.5,13.011043527778,77.661346416667
159,New Indus Valley Residentia..,"Garden City College Road,Subhashnagar Post, Virgonagar, Bangalore - 560049, Near Bhattarahalli",07947155068,257Votes,4.0,13.02105372937,77.70565594021
160,Seven Senses School Whitefi..,"No 360 &amp; 361,, Outer Circle, Dodsworth Layout,, Whitefield, Bangalore - 560066, 2 Min From Forum Mall Whitefield",07947160281,21Votes,3.6,12.969752777778,77.748786111111
161,Podar Jumbo Kids Plus,"No.214, 100 Feet Ring Road, Banashankari 3rd Stage, Bangalore - 560085, Near Vespa Showroom",07947156252,228Votes,4.4,12.9262316,77.548796
162,EuroKids,"No.400, J P Main Road,1st Phase, Girinagar, Bangalore - 560085, Near Shankar Mutt And Radhakrishna Hospital",07947158979,32Votes,4.2,12.940580793669,77.546591889185
163,Lakshmi Jayam English Schoo..,"No.m-53-54, 7th Cross, Lakshminarayan Puram, Srirampuram, Bangalore - 560021, Near Devaiah Park",+(91)-80-23325999,9Votes,4.5,12.994303,77.562073972222
164,Holy Angels Public School,"R R Temple Road,Devasandra.J C Layout, Krishnarajapuram, Bangalore - 560036, Near RR Temple",+(91)-9945610457,32Votes,4.5,13.0048511,77.6972255
165,Srinidhi Public School,"No.20, 21 &amp; 22, 1st Cross, 3rd Main, Srinidhi Layout, New Bank Colony, Kanakapura Road, Bangalore - 560062",+(91)-80-26324343,85Votes,4.1,12.8827874,77.5704082
166,Zeal Montessori,"No.92, Basava Bhavana, 10th Main, 7th Cross, KK Layout, Dr Vishnuvardhan Road, Uttarahalli, Bangalore - 560061, Opposite to Poornapragna Layout Water Tank",+(91)-80-26731150,13Votes,4.5,12.9082846,77.5340127
167,Vivekananda Techno School,"No 24, 2nd Cross, Konanakunte, Bangalore - 560062, Near Honey Foundation",+(91)-080-26322994,59Votes,4.7,12.8873815,77.5673592
168,Om Sri Narayana Vidya Kendr..,"No.852/1, 7th A Main Banaswadi Main Road, Hrbr Layout, Bangalore - 560043, Opp Syndicate Bank",+(91)-80-25790716,16Votes,4.2,13.0172394,77.6433386
169,Edify School,"No 388/O, 10th Main, 19th Cross,, Surya Nagar Phase -2 Chandapura, Anekal, Bangalore - 562106",+(91)-9900077180,124Votes,4.2,12.7721917,77.6934735
170,St. Josephs Convent School,"No 103, Kadaagrahara Bus Stop,Doddagubbi Post, Doddagubbi, Bangalore - 560077, Near Bus Stop",+(91)-8147753988,9Votes,4.1,13.0649095,77.6726679
171,Vriddhi Kidz,"No.43, 1st Cross,Hegde Nagar Main Road, Hegde Nagar, Bangalore - 560077",+(91)-9513311495,63Votes,4.7,13.0663985,77.6288002
172,KSVP Karnataka Sanskriti V..,"No.127, Bhagath Sigh Road, Rajarajeshwari Nagar, Bangalore - 560098, Behind Pattanagere Post Office,Near Anjanaya Temple",+(91)-9513512323,9Votes,4.4,12.920544,77.511378
173,Basava Residential Girls Sc..,"Doddabele, Mysore Road, Kengeri, Bangalore - 560060, Nr ACS  College Of Engineering",+(91)-9513731315,254Votes,4.5,12.8909259,77.4696609
174,Little Elly Pre-School,"No.248/17,, 2nd Block, 6th Cross, Jayanagar 9th Block, Bangalore - 560011",+(91)-80-50098722,125Votes,4.4,12.9407892,77.583716
175,Global High School,"No 9/1,, 4th Main, 7th Cross, Benson Town, Bangalore - 560046",+(91)-80-23544044,9Votes,3.5,13.02498852,77.59178453
176,Little Ikons,"No.127, S.P Nilayam,Kothanur Post, Kothanur, Bangalore - 560077, Near Golden Palm  Apartment",+(91)-9742664133,19Votes,4.7,13.0645015,77.6401678
177,Sri Bhavani Vidya Mandira,"No. B-153, 2nd Main, 7th Cross,, Bahubali Nagar, Jalahalli, Bangalore - 560013, Bhd Jalahalli Govt High School,",+(91)-80-23452121,7Votes,4.8,13.045407,77.550104
178,Josco Institutions,"Infant Jesus Campus, Mylanahalli Post Nelamangala to Doddaballapur Road, Nelamangala, Bangalore - 562123, JOSCO INSTITUTIONS",+(91)-080-27725950,117Votes,4.5,13.097356777778,77.384300222222
179,MES Public School,"Patel Channappa Layout, 3rd Cross, BH Road, Nelamangala, Bangalore - 562123, Near Colony Bus Stop",+(91)-080-27726600,17Votes,4.3,13.0949253,77.4053593
180,Kuddle Kidz,"No 939, 1st Main,2nd Cross,Geetanjali Layout, HAL 3rd Stage New Thippasandra, Bangalore - 560075, Opposite Beml 2nd Gate",+(91)-9845366451,26Votes,4.1,12.975719444444,77.65455
181,S V Lovely Kids Zone,"No 25,Sunshine View Building, 9th Main Road, Agrahara Dasarahalli, Bangalore - 560079, Opposite Kaapi Adda",+(91)-80-41228968,3Votes,4.3,12.981593704051,77.542607609993
182,Kriyaa Early Learning Monte..,"No-28, Sarjapura Main Road, Doddakannelli, Bangalore - 560035, Opposite Achievers Academy",+(91)-9686270267,15Votes,4.6,12.9071012,77.6959306
183,Little Millennium,"Namnele #17 &amp; 18, Bhavani Nagar Channanayakanapalya, Nagasandra, Bangalore - 560073, Near Papaya Factory",+(91)-9739448855,23Votes,4.3,13.045283,77.4808391
184,LSV Public School,"Gangondanahalli Main Road, Gangondanahalli, Bangalore - 560073, Near Gangondanahalli Bus Stop",+(91)-8553888273,13Votes,4.8,13.0545986,77.4704398
185,Raos Tutorial Institute,"No 194, 38th Cross,5th Block, Jayanagar, Bangalore - 560041, Near Telephone Exchange",+(91)-80-26631752,129Votes,3.9,12.921553,77.5826412
186,Stalwart School - Kidz Zone,"No 9, 6th Cross, Muni Nagappa Layout,Kavalbyrasandra, Rt Nagar, Bangalore - 560032, Near Kaval Byrasandra Bus Stop, Karnataka ATM",+(91)-80-23547034,26Votes,4.6,13.0175,77.606111111111
187,R V Early Learning Center,"No.12, 5th Cross,Raghuvanahalli, Kanakapura Road, Bangalore - 560062, Opposite Ksit Engineering College",+(91)-080-28435333,33Votes,4.7,12.878235,77.5470642
188,New Carmel English School,"No.59, Gokul 1st Stage, 2nd Phase, 8th A Cross, 3rd Main Road, Yeshwanthpur, Bangalore - 560022, Near Divanarapalya Bus Stop Near Shanimantam Temple",+(91)-80-23476327,42Votes,3.7,13.0246021,77.5606119
189,White Petals School,"No 5, 7th Cross, Santhosh Nagar, Attur Layout, Yelahanka New Town, Bangalore - 560064",+(91)-9148360111,56Votes,4.5,13.1061989,77.5679013
190,Mother Mary English School,"No.795, 3rd Cross,New Thippasandra, Hal 3rd Stage New Thippasandra, Bangalore - 560075",07947156421,71Votes,4.1,12.976089,77.652909
191,Broadvision World School,"29/3B Hennr Road Cross, Hennur Main Road, Bangalore - 560043, Near D Mart",07947165964,2Votes,4.3,13.036910056944,77.643150329444
192,The Louann Play Home And Da..,"No.123, Oil Mill Road,KSFC Layout,9th Cross, Lingarajapuram, Bangalore - 560084, Near Deepa Bakery",07947159254,2Votes,4.2,13.012037,77.630223
193,Floretz Academy (Montessori..,"No.408, 22nd Cross, Hsr Layout Sector 2, Bangalore - 560102, Near Parangipalya Bus Stop",+(91)-7795674829,445Votes,4.7,12.9093147778,77.6505698889
194,Brs Global School,"No 317/2, Bidaraguppe Village, Attibele, Bangalore - 562107, Sarjapura Attibee Road",07947460049,50Votes,4.1,12.807097,77.780883
195,Grv Public School,"No 20, Ganga Nagar Extension, Bangalore - 560032, Behind Shell Petrol Bunk",07947257214,46Votes,3.8,13.0212736,77.5843292
196,St Benedicts School,"Asirvanam, Anchepalya, Kengeri, Bangalore - 560060, Near Ancheplaya Circle",07947278497,25Votes,3.8,12.8897694444,77.45865
197,Narayana E-Techno School,"No.9, Lakshminivas Keshavamurthy, T Dasarahalli, Bangalore - 560057, Opposite Lakeview Defence Colony",07947166280,3Votes,4.3,13.059583333333,77.516888888889
198,Manipal International Schoo..,"Survey No.4,131, Lakshmisagar Road, Chandapura, Bangalore - 560081, Near Biotech Park",07947066774,81Votes,4.6,12.7882053,77.6967381
199,Poorna Smrithi Public Schoo..,"No 44, Shampur Main Road, LR Bande Road, Rt Nagar, Bangalore - 560032, Behind KHB Quarters, Opposite Raghavendra Temple",+(91)-7348922733,125Votes,4.0,13.028227777778,77.610175
200,Aditya Institutions,"No.12,, Kogilu Main Road, Yelahanka, Bangalore - 560064, Behind Annapoorneshwari Temple",07947159169,183Votes,3.9,13.103055,77.61242
201,Planet Bloomingdale Child G..,"No.300, 6th Main, Mahalakshmipuram Layout, Bangalore - 560086",+(91)-9243101700,111Votes,4.5,13.010558,77.546353
202,Flomont World School,"No 51, 1st Cross,4th Main,HAL 3rd Satge, New Thippasandra, Bangalore - 560075, Near 80 Feet Road And Near BSNL Office",07947160020,22Votes,4.3,12.9701617,77.6480058
203,Seven Senses School Whitefi..,"No 360 &amp; 361,, Outer Circle, Dodsworth Layout,, Whitefield, Bangalore - 560066, 2 Min From Forum Mall Whitefield",07947160281,21Votes,3.6,12.969752777778,77.748786111111
204,Touchstone,"No.730, 7th Phase, Rbi Layout, Jp Nagar, Bangalore - 560078, Opposite To Elita Porminate And Near Brigade Millinium",07947155638,26Votes,4.6,12.89162,77.578597
205,EuroKids,"HIG B 46, Surya City Phase 1 Chandapura, Chandapura, Bangalore - 560081, Near Chadapura  Anekal Road",07947159097,48Votes,4.0,12.792918,77.7035537
206,The Summit Gurukulam,"HBR 1st Block, H B R Layout 1st Block, Bangalore - 560084, Near SHELL PETROL BUNK",07947164349,52Votes,4.6,13.018622222222,77.624358333333
207,Kidzee Whitefield,"No.6,Green Park, Whitefield Main Road, Bangalore - 560066, Near Forum Value Mall ,Behind FAB India",+(91)-080-65777790,88Votes,4.2,12.963333,77.747
208,The Learning Curve,"764/725/12 7th main, 10th cross,Shubh Enclave, Harlur Road, Ambalipura, Bangalore - 560102, Sarjapur Big Bazaar",07947159310,8Votes,4.8,12.9107289,77.6662481
209,Bright Kid,"No.305, 5th Cross,1st Stage,1st Phase, Mathikere, Bangalore - 560054, Near Dhanalakshmi Book Store",07947159482,13Votes,4.5,13.027990694444,77.557539
210,Allamandas School,"No 11, Link Road,4th And 5th Cross, Malleswaram, Bangalore - 560003, Opposite Big Bazaar",07947158293,53Votes,4.5,12.996452,77.573159
211,Rising Kids Day Care And Pl..,"No.1,Ashirwada Nilaya, Sunkadakatte, Bangalore - 560091, Next Government School",07947159909,2Votes,3.5,12.994,77.478775
212,Skalvi International School,"Kottanuru Dinne Main Road, Shaneshwara Mandir Road, Jp Nagar 8th Phase, Bangalore - 560076",07947479352,62Votes,3.9,12.8780068,77.5863424
213,The Millennium School,"Sri Jnanagiri Educational Trust, No.57, Hessarghatta Main Road, Tarabanahalli, Bangalore - 560090",07947161777,41Votes,4.6,13.10202088,77.47439978
214,Hill Rock National Public S..,"Survey No.101, Brahmadevara Gutte Kodigehalli,6th Block,Vishweshwaraya Layout Off Magadi Road, Nagarbhavi, Bangalore - 560091",+(91)-9739710666,67Votes,4.2,12.966590006848,77.472426714448
215,Lawrence High School,"No CA 3, 9th Main, 6th Sector, Hsr Layout, Bangalore - 560102, Near BDA Complex",+(91)-080-5722777,346Votes,4.2,12.9137714,77.6350042
216,Royale Concorde Internation..,"No 14,, Sharadha Hills, Hesarghatta Main Road, Vidyaranyapura Post,, M S Palya, Bangalore - 560097, Near Sambram College",07947216785,130Votes,4.1,13.0857417,77.5490295
217,Lets Start Prep School & Da..,"No.400,75/2, Bellandur Main Road, Sunrise Villas, Bellandur, Bangalore - 560103, Near Bangalore Central Mall",07947157083,15Votes,4.8,12.9229532,77.6760487
218,Royale Concorde Internation..,"No.31, 1st Main Road, Chamarajpet, Bangalore - 560018, Near Prakash Cafe",+(91)-080-9745680,104Votes,3.9,12.960594444444,77.570563888889
219,Seed International,"No-652, 4th C Mn,Ombr Lyt, Kasturi Nagar, Bangalore - 560043, Opp Bhuvanagiri Park",07947155332,28Votes,4.2,13.0111108,77.6587355
220,New Learning Ladders Intern..,"#332/2,2nd A Main Road Channasandra, B Channasandra, Bangalore - 560043, Near Ramamurthy Nagar Signal,Next Ramurthynagar Service Road Bus Stop K R Puram Hobli",+(91)-080-1158622,33Votes,4.5,13.011043527778,77.661346416667
221,Kids Klub,"No 11, G 10 Street, Ulsoor, Bangalore - 560008, Near Ulsoor Metro Station",07947158210,10Votes,4.7,12.9756893,77.6278576
222,Podar Jumbo Kids Plus,"No.214, 100 Feet Ring Road, Banashankari 3rd Stage, Bangalore - 560085, Near Vespa Showroom",07947156252,228Votes,4.4,12.9262316,77.548796
223,Chistiya International Scho..,"Gunjur, Whitefield-Sarjapur Road, Varthur, Bangalore - 560087, Near Gunjur Bus Stop",07947157165,165Votes,4.2,12.9210676,77.738818
224,ANANTHA VIDYANIKETANA,"Sai Gardens, Avathi, Devanahalli, Bangalore - 562110, Next to Shirdi Sai  Baba Temple, NH-7",07947241970,86Votes,4.3,13.280104,77.728258
225,National Public School,"No 22, Anjanapura Main Road, Jp Nagar 9th Phase, Bangalore - 560062, Near Krbe Indian Oil Petrol Bunk",07947460521,2Votes,3.5,12.868707,77.563212
226,St. Johns School,"Bhuvaneshwari Nagar,Kempapura,Coffee Board Layout, Hebbal, Bangalore - 560024, Near Water Tank",07947154666,95Votes,4.2,13.0522972222,77.6069111111
227,I Play I Learn Preschool An..,"Cherry Street, Green Glen Layout-Bellandur, Bangalore - 560103, Behind Shoba Marvella",07947159205,11Votes,3.9,12.92679,77.673139
228,Kool Star Play Home,"No 116/5, 11th Cross, Malleswaram, Bangalore - 560003, Opposite Nalli Silks",07947157406,5Votes,4.8,13.002142,77.569367
229,Narayana E-Techno School,"Sapthagiri Layout,, Vidyaranyapura, Bangalore - 560097, Near Thindlu Circle",07947315872,10Votes,3.9,13.098480555556,77.5596
230,PARIPOORNA PRAJNA Internati..,"No.149,, Patel Layout, Cheemasandra, Virgonagar, Bangalore - 560049, Near Avalahalli Bus Stop &amp; Muneshwara Swamy Temple, Behind BREN Apartment",07947160719,38Votes,4.3,13.0428064,77.7358876
231,Karnataka Public School,"Chokkanahalli Village, Hegde Nagar, Bangalore - 560077",07947396714,2Votes,3.5,13.071708,77.633626
232,Sai Global School,"Whitefield, Bangalore - 560067, Near Whitefield",07947169268,2Votes,4.3,13.0061872665,77.697653355
233,Global Residential School,"Pillagumpe Chinthamane Road, Whitefield, Bangalore - 560067, Near Industrial Area",07947313589,139Votes,4.1,13.012370076043,77.66629284255
234,Narayana E Techno & Olympia..,"#105/6,Gurumurthy Swamy Krupa Building, Opp Lake Dew Residency, Haralur-HSR Layout, Bangalore - 560102, Opposite TVS Showroom",07947292139,87Votes,3.7,12.897777123731,77.65745925716
235,Swamy Vivekananda Internati..,"No 38, Atturu Main Road, Atturu Layout, Yelahanka New Town, Bangalore - 560064, Near NCC(Urban) &amp; Purva Apartments",07947229772,36Votes,4.0,13.1031201,77.5667348
236,Sai Vidya Mandir,"Bettahalasur, Bettahalsur, Bangalore - 562157, Near Government Hospital",07947161754,34Votes,4.9,13.1586248,77.6126443
237,New Little Wonders Internat..,"Hurulichikkanahalli, Bengaluru, Hesarghatta Main Road, Bangalore - 560090, Near Basavanna Temple",07947183623,6Votes,4.3,13.1157536,77.4853748
238,Little Lillys English Publi..,"No 13, 8th Main,4th Block,Bel Layout, Vidyaranyapura, Bangalore - 560097, Near Post Office",07947154521,95Votes,3.9,13.0762059,77.5570077
239,EuroKids,"No.400, J P Main Road,1st Phase, Girinagar, Bangalore - 560085, Near Shankar Mutt And Radhakrishna Hospital",07947158979,32Votes,4.2,12.940580793669,77.546591889185
240,New Indus Valley Residentia..,"Garden City College Road,Subhashnagar Post, Virgonagar, Bangalore - 560049, Near Bhattarahalli",07947155068,257Votes,4.0,13.02105372937,77.70565594021
241,Planet Bloomingdale Child G..,"No.447, 12th Main,4th Block, Koramangala, Bangalore - 560034, Near Bda Complex And BSNL Telephone Exchange",+(91)-9243101700,71Votes,4.7,12.932101,77.627423
242,Hmr International Public Sc..,"HMR Layout 80 Feet Road, Jnanajyothi Nagara, Jnana Jyothi Nagar-Jnana Bharathi, Bangalore - 560056, Near Bangalore University",07947183625,2Votes,3.5,12.945007,77.515335
243,New Carmel English School,"No.59, Gokul 1st Stage, 2nd Phase, 8th A Cross, 3rd Main Road, Yeshwanthpur, Bangalore - 560022, Near Divanarapalya Bus Stop Near Shanimantam Temple",+(91)-80-23476327,42Votes,3.7,13.0246021,77.5606119
244,St. Josephs Convent School,"No 103, Kadaagrahara Bus Stop,Doddagubbi Post, Doddagubbi, Bangalore - 560077, Near Bus Stop",+(91)-8147753988,9Votes,4.1,13.0649095,77.6726679
245,Global High School,"No 9/1,, 4th Main, 7th Cross, Benson Town, Bangalore - 560046",+(91)-80-23544044,9Votes,3.5,13.02498852,77.59178453
246,R V Early Learning Center,"No.12, 5th Cross,Raghuvanahalli, Kanakapura Road, Bangalore - 560062, Opposite Ksit Engineering College",+(91)-080-28435333,33Votes,4.7,12.878235,77.5470642
247,Vivekananda Techno School,"No 24, 2nd Cross, Konanakunte, Bangalore - 560062, Near Honey Foundation",+(91)-080-26322994,59Votes,4.7,12.8873815,77.5673592
248,Little Elly Pre-School,"No.248/17,, 2nd Block, 6th Cross, Jayanagar 9th Block, Bangalore - 560011",+(91)-80-50098722,125Votes,4.4,12.9407892,77.583716
249,Josco Institutions,"Infant Jesus Campus, Mylanahalli Post Nelamangala to Doddaballapur Road, Nelamangala, Bangalore - 562123, JOSCO INSTITUTIONS",+(91)-080-27725950,117Votes,4.5,13.097356777778,77.384300222222
250,Little Ikons,"No.127, S.P Nilayam,Kothanur Post, Kothanur, Bangalore - 560077, Near Golden Palm  Apartment",+(91)-9742664133,19Votes,4.7,13.0645015,77.6401678
251,Vriddhi Kidz,"No.43, 1st Cross,Hegde Nagar Main Road, Hegde Nagar, Bangalore - 560077",+(91)-9513311495,63Votes,4.7,13.0663985,77.6288002
252,LSV Public School,"Gangondanahalli Main Road, Gangondanahalli, Bangalore - 560073, Near Gangondanahalli Bus Stop",+(91)-8553888273,13Votes,4.8,13.0545986,77.4704398
253,MES Public School,"Patel Channappa Layout, 3rd Cross, BH Road, Nelamangala, Bangalore - 562123, Near Colony Bus Stop",+(91)-080-27726600,17Votes,4.3,13.0949253,77.4053593
254,Edify School,"No 388/O, 10th Main, 19th Cross,, Surya Nagar Phase -2 Chandapura, Anekal, Bangalore - 562106",+(91)-9900077180,124Votes,4.2,12.7721917,77.6934735
255,Lakshmi Jayam English Schoo..,"No.m-53-54, 7th Cross, Lakshminarayan Puram, Srirampuram, Bangalore - 560021, Near Devaiah Park",+(91)-80-23325999,9Votes,4.5,12.994303,77.562073972222
256,White Petals School,"No 5, 7th Cross, Santhosh Nagar, Attur Layout, Yelahanka New Town, Bangalore - 560064",+(91)-9148360111,56Votes,4.5,13.1061989,77.5679013
257,Zeal Montessori,"No.92, Basava Bhavana, 10th Main, 7th Cross, KK Layout, Dr Vishnuvardhan Road, Uttarahalli, Bangalore - 560061, Opposite to Poornapragna Layout Water Tank",+(91)-80-26731150,13Votes,4.5,12.9082846,77.5340127
258,S V Lovely Kids Zone,"No 25,Sunshine View Building, 9th Main Road, Agrahara Dasarahalli, Bangalore - 560079, Opposite Kaapi Adda",+(91)-80-41228968,3Votes,4.3,12.981593704051,77.542607609993
259,Kriyaa Early Learning Monte..,"No-28, Sarjapura Main Road, Doddakannelli, Bangalore - 560035, Opposite Achievers Academy",+(91)-9686270267,15Votes,4.6,12.9071012,77.6959306
260,Stalwart School - Kidz Zone,"No 9, 6th Cross, Muni Nagappa Layout,Kavalbyrasandra, Rt Nagar, Bangalore - 560032, Near Kaval Byrasandra Bus Stop, Karnataka ATM",+(91)-80-23547034,26Votes,4.6,13.0175,77.606111111111
261,Royale Concorde Internation..,"No.3/2, Ambalipura Village,Sarjarpur Main Road, Bellandur, Bangalore - 560103, Near Big Bazaar",+(91)-80-41476100,130Votes,3.9,12.9206575,77.6678178
262,Little Millennium,"Namnele #17 &amp; 18, Bhavani Nagar Channanayakanapalya, Nagasandra, Bangalore - 560073, Near Papaya Factory",+(91)-9739448855,23Votes,4.3,13.045283,77.4808391
263,Holy Angels Public School,"R R Temple Road,Devasandra.J C Layout, Krishnarajapuram, Bangalore - 560036, Near RR Temple",+(91)-9945610457,32Votes,4.5,13.0048511,77.6972255
264,Kuddle Kidz,"No 939, 1st Main,2nd Cross,Geetanjali Layout, HAL 3rd Stage New Thippasandra, Bangalore - 560075, Opposite Beml 2nd Gate",+(91)-9845366451,26Votes,4.1,12.975719444444,77.65455
265,V Blooms International Scho..,"No.194/4, Balagrahalli,Neraluru Post, Anekal Taluq, Attibele, Bangalore - 562107",+(91)-9986818937,24Votes,4.2,12.7826758,77.7736927
266,Om Sri Narayana Vidya Kendr..,"No.852/1, 7th A Main Banaswadi Main Road, Hrbr Layout, Bangalore - 560043, Opp Syndicate Bank",+(91)-80-25790716,16Votes,4.2,13.0172394,77.6433386
267,Raos Tutorial Institute,"No 194, 38th Cross,5th Block, Jayanagar, Bangalore - 560041, Near Telephone Exchange",+(91)-80-26631752,129Votes,3.9,12.921553,77.5826412
268,Srinidhi Public School,"No.20, 21 &amp; 22, 1st Cross, 3rd Main, Srinidhi Layout, New Bank Colony, Kanakapura Road, Bangalore - 560062",+(91)-80-26324343,85Votes,4.1,12.8827874,77.5704082
269,Sri Bhavani Vidya Mandira,"No. B-153, 2nd Main, 7th Cross,, Bahubali Nagar, Jalahalli, Bangalore - 560013, Bhd Jalahalli Govt High School,",+(91)-80-23452121,7Votes,4.8,13.045407,77.550104
270,St Joseph Chaminade Academy,"No. 1, Anekal Taluk, Deepahalli, Anandpura Village, Bommasandra, Bangalore - 560099, Opposite to Concorde Sylvan View Apartments",07947158764,55Votes,4.7,12.8279469,77.705926199722
271,Royale Concorde Internation..,"No 14,, Sharadha Hills, Hesarghatta Main Road, Vidyaranyapura Post,, M S Palya, Bangalore - 560097, Near Sambram College",07947216785,130Votes,4.1,13.0857417,77.5490295
272,Narayana E-Techno School,"No.9, Lakshminivas Keshavamurthy, T Dasarahalli, Bangalore - 560057, Opposite Lakeview Defence Colony",07947166280,3Votes,4.3,13.059583333333,77.516888888889
273,Seven Senses School Whitefi..,"No 360 &amp; 361,, Outer Circle, Dodsworth Layout,, Whitefield, Bangalore - 560066, 2 Min From Forum Mall Whitefield",07947160281,21Votes,3.6,12.969752777778,77.748786111111
274,The Louann Play Home And Da..,"No.123, Oil Mill Road,KSFC Layout,9th Cross, Lingarajapuram, Bangalore - 560084, Near Deepa Bakery",07947159254,2Votes,4.2,13.012037,77.630223
275,Floretz Academy (Montessori..,"No.408, 22nd Cross, Hsr Layout Sector 2, Bangalore - 560102, Near Parangipalya Bus Stop",+(91)-7795674829,445Votes,4.7,12.9093147778,77.6505698889
276,Royale Concorde Internation..,"No.31, 1st Main Road, Chamarajpet, Bangalore - 560018, Near Prakash Cafe",+(91)-080-9745680,104Votes,3.9,12.960594444444,77.570563888889
277,Lady Vailankanni Group Of I..,"No 175/2, Lady Vailankanni Road, Varthur, Bangalore - 560087, Behind Varthur Vinayaka Theater,Near Varthur Government Hospital",07947154118,133Votes,4.0,12.935277777778,77.746388888889
278,Rising Kids Day Care And Pl..,"No.1,Ashirwada Nilaya, Sunkadakatte, Bangalore - 560091, Next Government School",07947159909,2Votes,3.5,12.994,77.478775
279,Mount Litera Zee School,"No 40/123, Kadugodi, Bangalore - 560067, Near Satya Sai Baba Ashram and Skylark Arcade",07947330712,182Votes,4.3,13.002595,77.7429602
280,The Millennium School,"Sri Jnanagiri Educational Trust, No.57, Hessarghatta Main Road, Tarabanahalli, Bangalore - 560090",07947161777,41Votes,4.6,13.10202088,77.47439978
281,Swamy Vivekananda Internati..,"No 38, Atturu Main Road, Atturu Layout, Yelahanka New Town, Bangalore - 560064, Near NCC(Urban) &amp; Purva Apartments",07947229772,36Votes,4.0,13.1031201,77.5667348
282,Janani Vidya Mandira,"No 9/119 3rd Block, Ullal Main Road Sir M V Layout, Ullalu, Bangalore - 560110, Near to Chithanya Pu College",07947275696,25Votes,4.3,12.9503104,77.4836966
283,EuroKids,"HIG B 46, Surya City Phase 1 Chandapura, Chandapura, Bangalore - 560081, Near Chadapura  Anekal Road",07947159097,48Votes,4.0,12.792918,77.7035537
284,Gnan Srishti School Of Exce..,"No 85/63/61, 19th Main, 17th Cross, Sector 1, Hsr Layout, Bangalore - 560102, Near Hsr Water Tank",07947155246,157Votes,3.8,12.9123242,77.6455393
285,Seed International,"No-652, 4th C Mn,Ombr Lyt, Kasturi Nagar, Bangalore - 560043, Opp Bhuvanagiri Park",07947155332,28Votes,4.2,13.0111108,77.6587355
286,New Little Wonders Internat..,"Hurulichikkanahalli, Bengaluru, Hesarghatta Main Road, Bangalore - 560090, Near Basavanna Temple",07947183623,6Votes,4.3,13.1157536,77.4853748
287,I Play I Learn Preschool An..,"Cherry Street, Green Glen Layout-Bellandur, Bangalore - 560103, Behind Shoba Marvella",07947159205,11Votes,3.9,12.92679,77.673139
288,Kidzee Whitefield,"No.6,Green Park, Whitefield Main Road, Bangalore - 560066, Near Forum Value Mall ,Behind FAB India",+(91)-080-65777790,88Votes,4.2,12.963333,77.747
289,Little Lillys English Publi..,"No 13, 8th Main,4th Block,Bel Layout, Vidyaranyapura, Bangalore - 560097, Near Post Office",07947154521,95Votes,3.9,13.0762059,77.5570077
290,New Learning Ladders Intern..,"#332/2,2nd A Main Road Channasandra, B Channasandra, Bangalore - 560043, Near Ramamurthy Nagar Signal,Next Ramurthynagar Service Road Bus Stop K R Puram Hobli",+(91)-080-1158622,33Votes,4.5,13.011043527778,77.661346416667
291,Podar Jumbo Kids Plus,"No.214, 100 Feet Ring Road, Banashankari 3rd Stage, Bangalore - 560085, Near Vespa Showroom",07947156252,228Votes,4.4,12.9262316,77.548796
292,The Summit Gurukulam,"HBR 1st Block, H B R Layout 1st Block, Bangalore - 560084, Near SHELL PETROL BUNK",07947164349,52Votes,4.6,13.018622222222,77.624358333333
293,Holy Child Convent,"No 1133/44,, 9th Cross, Banashankari 1st Stage, Bangalore - 560050, Near Shankarnag Circle",08045793376,83Votes,3.7,12.9368498,77.5599428
294,Planet Bloomingdale Child G..,"No.447, 12th Main,4th Block, Koramangala, Bangalore - 560034, Near Bda Complex And BSNL Telephone Exchange",+(91)-9243101700,71Votes,4.7,12.932101,77.627423
295,Little Genie Montessori & D..,"No 116, 3rd Main, Beml Layout-Kundalhalli-Whitefield, Bangalore - 560066",07947249418,1Votes,3.0,12.9608773,77.7200407
296,Manipal International Schoo..,"Survey No.4,131, Lakshmisagar Road, Chandapura, Bangalore - 560081, Near Biotech Park",07947066774,81Votes,4.6,12.7882053,77.6967381
297,Broadvision World School,"29/3B Hennr Road Cross, Hennur Main Road, Bangalore - 560043, Near D Mart",07947165964,2Votes,4.3,13.036910056944,77.643150329444
298,Planet Bloomingdale Child G..,"No.300, 6th Main, Mahalakshmipuram Layout, Bangalore - 560086",+(91)-9243101700,111Votes,4.5,13.010558,77.546353
299,Mother Mary English School,"No.795, 3rd Cross,New Thippasandra, Hal 3rd Stage New Thippasandra, Bangalore - 560075",07947156421,71Votes,4.1,12.976089,77.652909
300,Lawrence High School,"No CA 3, 9th Main, 6th Sector, Hsr Layout, Bangalore - 560102, Near BDA Complex",+(91)-080-5722777,346Votes,4.2,12.9137714,77.6350042
301,Bright Kid,"No.305, 5th Cross,1st Stage,1st Phase, Mathikere, Bangalore - 560054, Near Dhanalakshmi Book Store",07947159482,13Votes,4.5,13.027990694444,77.557539
302,Kids Klub,"No 11, G 10 Street, Ulsoor, Bangalore - 560008, Near Ulsoor Metro Station",07947158210,10Votes,4.7,12.9756893,77.6278576
303,Narayana E-Techno School,"Sapthagiri Layout,, Vidyaranyapura, Bangalore - 560097, Near Thindlu Circle",07947315872,10Votes,3.9,13.098480555556,77.5596
304,EuroKids,"No.400, J P Main Road,1st Phase, Girinagar, Bangalore - 560085, Near Shankar Mutt And Radhakrishna Hospital",07947158979,32Votes,4.2,12.940580793669,77.546591889185
305,Lets Start Prep School & Da..,"No.400,75/2, Bellandur Main Road, Sunrise Villas, Bellandur, Bangalore - 560103, Near Bangalore Central Mall",07947157083,15Votes,4.8,12.9229532,77.6760487
306,Touchstone,"No.730, 7th Phase, Rbi Layout, Jp Nagar, Bangalore - 560078, Opposite To Elita Porminate And Near Brigade Millinium",07947155638,26Votes,4.6,12.89162,77.578597
307,The Learning Curve,"764/725/12 7th main, 10th cross,Shubh Enclave, Harlur Road, Ambalipura, Bangalore - 560102, Sarjapur Big Bazaar",07947159310,8Votes,4.8,12.9107289,77.6662481
308,New Indus Valley Residentia..,"Garden City College Road,Subhashnagar Post, Virgonagar, Bangalore - 560049, Near Bhattarahalli",07947155068,257Votes,4.0,13.02105372937,77.70565594021
309,Kool Star Play Home,"No 116/5, 11th Cross, Malleswaram, Bangalore - 560003, Opposite Nalli Silks",07947157406,5Votes,4.8,13.002142,77.569367
310,Allamandas School,"No 11, Link Road,4th And 5th Cross, Malleswaram, Bangalore - 560003, Opposite Big Bazaar",07947158293,53Votes,4.5,12.996452,77.573159
311,St Benedicts School,"Asirvanam, Anchepalya, Kengeri, Bangalore - 560060, Near Ancheplaya Circle",07947278497,25Votes,3.8,12.8897694444,77.45865
312,Aditya Institutions,"No.12,, Kogilu Main Road, Yelahanka, Bangalore - 560064, Behind Annapoorneshwari Temple",07947159169,183Votes,3.9,13.103055,77.61242
313,Lakshmi Jayam English Schoo..,"No.m-53-54, 7th Cross, Lakshminarayan Puram, Srirampuram, Bangalore - 560021, Near Devaiah Park",+(91)-80-23325999,9Votes,4.5,12.994303,77.562073972222
314,Holy Angels Public School,"R R Temple Road,Devasandra.J C Layout, Krishnarajapuram, Bangalore - 560036, Near RR Temple",+(91)-9945610457,32Votes,4.5,13.0048511,77.6972255
315,Srinidhi Public School,"No.20, 21 &amp; 22, 1st Cross, 3rd Main, Srinidhi Layout, New Bank Colony, Kanakapura Road, Bangalore - 560062",+(91)-80-26324343,85Votes,4.1,12.8827874,77.5704082
316,New Carmel English School,"No.59, Gokul 1st Stage, 2nd Phase, 8th A Cross, 3rd Main Road, Yeshwanthpur, Bangalore - 560022, Near Divanarapalya Bus Stop Near Shanimantam Temple",+(91)-80-23476327,42Votes,3.7,13.0246021,77.5606119
317,Vivekananda Techno School,"No 24, 2nd Cross, Konanakunte, Bangalore - 560062, Near Honey Foundation",+(91)-080-26322994,59Votes,4.7,12.8873815,77.5673592
318,St. Josephs Convent School,"No 103, Kadaagrahara Bus Stop,Doddagubbi Post, Doddagubbi, Bangalore - 560077, Near Bus Stop",+(91)-8147753988,9Votes,4.1,13.0649095,77.6726679
319,Zeal Montessori,"No.92, Basava Bhavana, 10th Main, 7th Cross, KK Layout, Dr Vishnuvardhan Road, Uttarahalli, Bangalore - 560061, Opposite to Poornapragna Layout Water Tank",+(91)-80-26731150,13Votes,4.5,12.9082846,77.5340127
320,Little Ikons,"No.127, S.P Nilayam,Kothanur Post, Kothanur, Bangalore - 560077, Near Golden Palm  Apartment",+(91)-9742664133,19Votes,4.7,13.0645015,77.6401678
321,Edify School,"No 388/O, 10th Main, 19th Cross,, Surya Nagar Phase -2 Chandapura, Anekal, Bangalore - 562106",+(91)-9900077180,124Votes,4.2,12.7721917,77.6934735
322,Om Sri Narayana Vidya Kendr..,"No.852/1, 7th A Main Banaswadi Main Road, Hrbr Layout, Bangalore - 560043, Opp Syndicate Bank",+(91)-80-25790716,16Votes,4.2,13.0172394,77.6433386
323,R V Early Learning Center,"No.12, 5th Cross,Raghuvanahalli, Kanakapura Road, Bangalore - 560062, Opposite Ksit Engineering College",+(91)-080-28435333,33Votes,4.7,12.878235,77.5470642
324,MES Public School,"Patel Channappa Layout, 3rd Cross, BH Road, Nelamangala, Bangalore - 562123, Near Colony Bus Stop",+(91)-080-27726600,17Votes,4.3,13.0949253,77.4053593
325,Global High School,"No 9/1,, 4th Main, 7th Cross, Benson Town, Bangalore - 560046",+(91)-80-23544044,9Votes,3.5,13.02498852,77.59178453
326,KSVP Karnataka Sanskriti V..,"No.127, Bhagath Sigh Road, Rajarajeshwari Nagar, Bangalore - 560098, Behind Pattanagere Post Office,Near Anjanaya Temple",+(91)-9513512323,9Votes,4.4,12.920544,77.511378
327,LSV Public School,"Gangondanahalli Main Road, Gangondanahalli, Bangalore - 560073, Near Gangondanahalli Bus Stop",+(91)-8553888273,13Votes,4.8,13.0545986,77.4704398
328,Basava Residential Girls Sc..,"Doddabele, Mysore Road, Kengeri, Bangalore - 560060, Nr ACS  College Of Engineering",+(91)-9513731315,254Votes,4.5,12.8909259,77.4696609
329,Sri Bhavani Vidya Mandira,"No. B-153, 2nd Main, 7th Cross,, Bahubali Nagar, Jalahalli, Bangalore - 560013, Bhd Jalahalli Govt High School,",+(91)-80-23452121,7Votes,4.8,13.045407,77.550104
330,Kuddle Kidz,"No 939, 1st Main,2nd Cross,Geetanjali Layout, HAL 3rd Stage New Thippasandra, Bangalore - 560075, Opposite Beml 2nd Gate",+(91)-9845366451,26Votes,4.1,12.975719444444,77.65455
331,Josco Institutions,"Infant Jesus Campus, Mylanahalli Post Nelamangala to Doddaballapur Road, Nelamangala, Bangalore - 562123, JOSCO INSTITUTIONS",+(91)-080-27725950,117Votes,4.5,13.097356777778,77.384300222222
332,White Petals School,"No 5, 7th Cross, Santhosh Nagar, Attur Layout, Yelahanka New Town, Bangalore - 560064",+(91)-9148360111,56Votes,4.5,13.1061989,77.5679013
333,Stalwart School - Kidz Zone,"No 9, 6th Cross, Muni Nagappa Layout,Kavalbyrasandra, Rt Nagar, Bangalore - 560032, Near Kaval Byrasandra Bus Stop, Karnataka ATM",+(91)-80-23547034,26Votes,4.6,13.0175,77.606111111111
334,Raos Tutorial Institute,"No 194, 38th Cross,5th Block, Jayanagar, Bangalore - 560041, Near Telephone Exchange",+(91)-80-26631752,129Votes,3.9,12.921553,77.5826412
335,Royale Concorde Internation..,"No.3/2, Ambalipura Village,Sarjarpur Main Road, Bellandur, Bangalore - 560103, Near Big Bazaar",+(91)-80-41476100,130Votes,3.9,12.9206575,77.6678178
336,Little Elly Pre-School,"No.248/17,, 2nd Block, 6th Cross, Jayanagar 9th Block, Bangalore - 560011",+(91)-80-50098722,125Votes,4.4,12.9407892,77.583716
337,Vriddhi Kidz,"No.43, 1st Cross,Hegde Nagar Main Road, Hegde Nagar, Bangalore - 560077",+(91)-9513311495,63Votes,4.7,13.0663985,77.6288002
338,Kriyaa Early Learning Monte..,"No-28, Sarjapura Main Road, Doddakannelli, Bangalore - 560035, Opposite Achievers Academy",+(91)-9686270267,15Votes,4.6,12.9071012,77.6959306
339,V Blooms International Scho..,"No.194/4, Balagrahalli,Neraluru Post, Anekal Taluq, Attibele, Bangalore - 562107",+(91)-9986818937,24Votes,4.2,12.7826758,77.7736927
340,The Millennium School,"Sri Jnanagiri Educational Trust, No.57, Hessarghatta Main Road, Tarabanahalli, Bangalore - 560090",07947161777,41Votes,4.6,13.10202088,77.47439978
341,Gnan Srishti School Of Exce..,"No 85/63/61, 19th Main, 17th Cross, Sector 1, Hsr Layout, Bangalore - 560102, Near Hsr Water Tank",07947155246,157Votes,3.8,12.9123242,77.6455393
342,Swamy Vivekananda Internati..,"No 38, Atturu Main Road, Atturu Layout, Yelahanka New Town, Bangalore - 560064, Near NCC(Urban) &amp; Purva Apartments",07947229772,36Votes,4.0,13.1031201,77.5667348
343,EuroKids,"HIG B 46, Surya City Phase 1 Chandapura, Chandapura, Bangalore - 560081, Near Chadapura  Anekal Road",07947159097,48Votes,4.0,12.792918,77.7035537
344,Seed International,"No-652, 4th C Mn,Ombr Lyt, Kasturi Nagar, Bangalore - 560043, Opp Bhuvanagiri Park",07947155332,28Votes,4.2,13.0111108,77.6587355
345,Janani Vidya Mandira,"No 9/119 3rd Block, Ullal Main Road Sir M V Layout, Ullalu, Bangalore - 560110, Near to Chithanya Pu College",07947275696,25Votes,4.3,12.9503104,77.4836966
346,New Little Wonders Internat..,"Hurulichikkanahalli, Bengaluru, Hesarghatta Main Road, Bangalore - 560090, Near Basavanna Temple",07947183623,6Votes,4.3,13.1157536,77.4853748
347,I Play I Learn Preschool An..,"Cherry Street, Green Glen Layout-Bellandur, Bangalore - 560103, Behind Shoba Marvella",07947159205,11Votes,3.9,12.92679,77.673139
348,Holy Child Convent,"No 1133/44,, 9th Cross, Banashankari 1st Stage, Bangalore - 560050, Near Shankarnag Circle",08045793376,83Votes,3.7,12.9368498,77.5599428
349,Little Lillys English Publi..,"No 13, 8th Main,4th Block,Bel Layout, Vidyaranyapura, Bangalore - 560097, Near Post Office",07947154521,95Votes,3.9,13.0762059,77.5570077
350,New Learning Ladders Intern..,"#332/2,2nd A Main Road Channasandra, B Channasandra, Bangalore - 560043, Near Ramamurthy Nagar Signal,Next Ramurthynagar Service Road Bus Stop K R Puram Hobli",+(91)-080-1158622,33Votes,4.5,13.011043527778,77.661346416667
351,Kidzee Whitefield,"No.6,Green Park, Whitefield Main Road, Bangalore - 560066, Near Forum Value Mall ,Behind FAB India",+(91)-080-65777790,88Votes,4.2,12.963333,77.747
352,Podar Jumbo Kids Plus,"No.214, 100 Feet Ring Road, Banashankari 3rd Stage, Bangalore - 560085, Near Vespa Showroom",07947156252,228Votes,4.4,12.9262316,77.548796
353,Little Genie Montessori & D..,"No 116, 3rd Main, Beml Layout-Kundalhalli-Whitefield, Bangalore - 560066",07947249418,1Votes,3.0,12.9608773,77.7200407
354,The Summit Gurukulam,"HBR 1st Block, H B R Layout 1st Block, Bangalore - 560084, Near SHELL PETROL BUNK",07947164349,52Votes,4.6,13.018622222222,77.624358333333
355,Broadvision World School,"29/3B Hennr Road Cross, Hennur Main Road, Bangalore - 560043, Near D Mart",07947165964,2Votes,4.3,13.036910056944,77.643150329444
356,Manipal International Schoo..,"Survey No.4,131, Lakshmisagar Road, Chandapura, Bangalore - 560081, Near Biotech Park",07947066774,81Votes,4.6,12.7882053,77.6967381
357,Planet Bloomingdale Child G..,"No.447, 12th Main,4th Block, Koramangala, Bangalore - 560034, Near Bda Complex And BSNL Telephone Exchange",+(91)-9243101700,71Votes,4.7,12.932101,77.627423
358,Mother Mary English School,"No.795, 3rd Cross,New Thippasandra, Hal 3rd Stage New Thippasandra, Bangalore - 560075",07947156421,71Votes,4.1,12.976089,77.652909
359,Planet Bloomingdale Child G..,"No.300, 6th Main, Mahalakshmipuram Layout, Bangalore - 560086",+(91)-9243101700,111Votes,4.5,13.010558,77.546353
360,Touchstone,"No.730, 7th Phase, Rbi Layout, Jp Nagar, Bangalore - 560078, Opposite To Elita Porminate And Near Brigade Millinium",07947155638,26Votes,4.6,12.89162,77.578597
361,Narayana E-Techno School,"Sapthagiri Layout,, Vidyaranyapura, Bangalore - 560097, Near Thindlu Circle",07947315872,10Votes,3.9,13.098480555556,77.5596
362,St Benedicts School,"Asirvanam, Anchepalya, Kengeri, Bangalore - 560060, Near Ancheplaya Circle",07947278497,25Votes,3.8,12.8897694444,77.45865
363,Lawrence High School,"No CA 3, 9th Main, 6th Sector, Hsr Layout, Bangalore - 560102, Near BDA Complex",+(91)-080-5722777,346Votes,4.2,12.9137714,77.6350042
364,Kids Klub,"No 11, G 10 Street, Ulsoor, Bangalore - 560008, Near Ulsoor Metro Station",07947158210,10Votes,4.7,12.9756893,77.6278576
365,Bright Kid,"No.305, 5th Cross,1st Stage,1st Phase, Mathikere, Bangalore - 560054, Near Dhanalakshmi Book Store",07947159482,13Votes,4.5,13.027990694444,77.557539
366,EuroKids,"No.400, J P Main Road,1st Phase, Girinagar, Bangalore - 560085, Near Shankar Mutt And Radhakrishna Hospital",07947158979,32Votes,4.2,12.940580793669,77.546591889185
367,Aditya Institutions,"No.12,, Kogilu Main Road, Yelahanka, Bangalore - 560064, Behind Annapoorneshwari Temple",07947159169,183Votes,3.9,13.103055,77.61242
368,Allamandas School,"No 11, Link Road,4th And 5th Cross, Malleswaram, Bangalore - 560003, Opposite Big Bazaar",07947158293,53Votes,4.5,12.996452,77.573159
369,Kool Star Play Home,"No 116/5, 11th Cross, Malleswaram, Bangalore - 560003, Opposite Nalli Silks",07947157406,5Votes,4.8,13.002142,77.569367
370,Lets Start Prep School & Da..,"No.400,75/2, Bellandur Main Road, Sunrise Villas, Bellandur, Bangalore - 560103, Near Bangalore Central Mall",07947157083,15Votes,4.8,12.9229532,77.6760487
371,New Indus Valley Residentia..,"Garden City College Road,Subhashnagar Post, Virgonagar, Bangalore - 560049, Near Bhattarahalli",07947155068,257Votes,4.0,13.02105372937,77.70565594021
372,The Learning Curve,"764/725/12 7th main, 10th cross,Shubh Enclave, Harlur Road, Ambalipura, Bangalore - 560102, Sarjapur Big Bazaar",07947159310,8Votes,4.8,12.9107289,77.6662481
373,Lakshmi Jayam English Schoo..,"No.m-53-54, 7th Cross, Lakshminarayan Puram, Srirampuram, Bangalore - 560021, Near Devaiah Park",+(91)-80-23325999,9Votes,4.5,12.994303,77.562073972222
374,Holy Angels Public School,"R R Temple Road,Devasandra.J C Layout, Krishnarajapuram, Bangalore - 560036, Near RR Temple",+(91)-9945610457,32Votes,4.5,13.0048511,77.6972255
375,Srinidhi Public School,"No.20, 21 &amp; 22, 1st Cross, 3rd Main, Srinidhi Layout, New Bank Colony, Kanakapura Road, Bangalore - 560062",+(91)-80-26324343,85Votes,4.1,12.8827874,77.5704082
376,New Carmel English School,"No.59, Gokul 1st Stage, 2nd Phase, 8th A Cross, 3rd Main Road, Yeshwanthpur, Bangalore - 560022, Near Divanarapalya Bus Stop Near Shanimantam Temple",+(91)-80-23476327,42Votes,3.7,13.0246021,77.5606119
377,Vivekananda Techno School,"No 24, 2nd Cross, Konanakunte, Bangalore - 560062, Near Honey Foundation",+(91)-080-26322994,59Votes,4.7,12.8873815,77.5673592
378,St. Josephs Convent School,"No 103, Kadaagrahara Bus Stop,Doddagubbi Post, Doddagubbi, Bangalore - 560077, Near Bus Stop",+(91)-8147753988,9Votes,4.1,13.0649095,77.6726679
379,Zeal Montessori,"No.92, Basava Bhavana, 10th Main, 7th Cross, KK Layout, Dr Vishnuvardhan Road, Uttarahalli, Bangalore - 560061, Opposite to Poornapragna Layout Water Tank",+(91)-80-26731150,13Votes,4.5,12.9082846,77.5340127
380,Little Ikons,"No.127, S.P Nilayam,Kothanur Post, Kothanur, Bangalore - 560077, Near Golden Palm  Apartment",+(91)-9742664133,19Votes,4.7,13.0645015,77.6401678
381,Edify School,"No 388/O, 10th Main, 19th Cross,, Surya Nagar Phase -2 Chandapura, Anekal, Bangalore - 562106",+(91)-9900077180,124Votes,4.2,12.7721917,77.6934735
382,Om Sri Narayana Vidya Kendr..,"No.852/1, 7th A Main Banaswadi Main Road, Hrbr Layout, Bangalore - 560043, Opp Syndicate Bank",+(91)-80-25790716,16Votes,4.2,13.0172394,77.6433386
383,R V Early Learning Center,"No.12, 5th Cross,Raghuvanahalli, Kanakapura Road, Bangalore - 560062, Opposite Ksit Engineering College",+(91)-080-28435333,33Votes,4.7,12.878235,77.5470642
384,Global High School,"No 9/1,, 4th Main, 7th Cross, Benson Town, Bangalore - 560046",+(91)-80-23544044,9Votes,3.5,13.02498852,77.59178453
385,MES Public School,"Patel Channappa Layout, 3rd Cross, BH Road, Nelamangala, Bangalore - 562123, Near Colony Bus Stop",+(91)-080-27726600,17Votes,4.3,13.0949253,77.4053593
386,LSV Public School,"Gangondanahalli Main Road, Gangondanahalli, Bangalore - 560073, Near Gangondanahalli Bus Stop",+(91)-8553888273,13Votes,4.8,13.0545986,77.4704398
387,KSVP Karnataka Sanskriti V..,"No.127, Bhagath Sigh Road, Rajarajeshwari Nagar, Bangalore - 560098, Behind Pattanagere Post Office,Near Anjanaya Temple",+(91)-9513512323,9Votes,4.4,12.920544,77.511378
388,Basava Residential Girls Sc..,"Doddabele, Mysore Road, Kengeri, Bangalore - 560060, Nr ACS  College Of Engineering",+(91)-9513731315,254Votes,4.5,12.8909259,77.4696609
389,Sri Bhavani Vidya Mandira,"No. B-153, 2nd Main, 7th Cross,, Bahubali Nagar, Jalahalli, Bangalore - 560013, Bhd Jalahalli Govt High School,",+(91)-80-23452121,7Votes,4.8,13.045407,77.550104
390,Kuddle Kidz,"No 939, 1st Main,2nd Cross,Geetanjali Layout, HAL 3rd Stage New Thippasandra, Bangalore - 560075, Opposite Beml 2nd Gate",+(91)-9845366451,26Votes,4.1,12.975719444444,77.65455
391,Josco Institutions,"Infant Jesus Campus, Mylanahalli Post Nelamangala to Doddaballapur Road, Nelamangala, Bangalore - 562123, JOSCO INSTITUTIONS",+(91)-080-27725950,117Votes,4.5,13.097356777778,77.384300222222
392,White Petals School,"No 5, 7th Cross, Santhosh Nagar, Attur Layout, Yelahanka New Town, Bangalore - 560064",+(91)-9148360111,56Votes,4.5,13.1061989,77.5679013
393,Stalwart School - Kidz Zone,"No 9, 6th Cross, Muni Nagappa Layout,Kavalbyrasandra, Rt Nagar, Bangalore - 560032, Near Kaval Byrasandra Bus Stop, Karnataka ATM",+(91)-80-23547034,26Votes,4.6,13.0175,77.606111111111
394,Raos Tutorial Institute,"No 194, 38th Cross,5th Block, Jayanagar, Bangalore - 560041, Near Telephone Exchange",+(91)-80-26631752,129Votes,3.9,12.921553,77.5826412
395,Royale Concorde Internation..,"No.3/2, Ambalipura Village,Sarjarpur Main Road, Bellandur, Bangalore - 560103, Near Big Bazaar",+(91)-80-41476100,130Votes,3.9,12.9206575,77.6678178
396,Little Elly Pre-School,"No.248/17,, 2nd Block, 6th Cross, Jayanagar 9th Block, Bangalore - 560011",+(91)-80-50098722,125Votes,4.4,12.9407892,77.583716
397,Kriyaa Early Learning Monte..,"No-28, Sarjapura Main Road, Doddakannelli, Bangalore - 560035, Opposite Achievers Academy",+(91)-9686270267,15Votes,4.6,12.9071012,77.6959306
398,Vriddhi Kidz,"No.43, 1st Cross,Hegde Nagar Main Road, Hegde Nagar, Bangalore - 560077",+(91)-9513311495,63Votes,4.7,13.0663985,77.6288002
399,V Blooms International Scho..,"No.194/4, Balagrahalli,Neraluru Post, Anekal Taluq, Attibele, Bangalore - 562107",+(91)-9986818937,24Votes,4.2,12.7826758,77.7736927
400,Sai Global School,"Whitefield, Bangalore - 560067, Near Whitefield",07947169268,2Votes,4.3,13.0061872665,77.697653355
401,Lets Start Prep School & Da..,"No.400,75/2, Bellandur Main Road, Sunrise Villas, Bellandur, Bangalore - 560103, Near Bangalore Central Mall",07947157083,15Votes,4.8,12.9229532,77.6760487
402,Poorna Smrithi Public Schoo..,"No 44, Shampur Main Road, LR Bande Road, Rt Nagar, Bangalore - 560032, Behind KHB Quarters, Opposite Raghavendra Temple",+(91)-7348922733,125Votes,4.0,13.028227777778,77.610175
403,Kids Klub,"No 11, G 10 Street, Ulsoor, Bangalore - 560008, Near Ulsoor Metro Station",07947158210,10Votes,4.7,12.9756893,77.6278576
404,Hill Rock National Public S..,"Survey No.101, Brahmadevara Gutte Kodigehalli,6th Block,Vishweshwaraya Layout Off Magadi Road, Nagarbhavi, Bangalore - 560091",+(91)-9739710666,67Votes,4.2,12.966590006848,77.472426714448
405,Podar Jumbo Kids Plus,"No.214, 100 Feet Ring Road, Banashankari 3rd Stage, Bangalore - 560085, Near Vespa Showroom",07947156252,228Votes,4.4,12.9262316,77.548796
406,New Learning Ladders Intern..,"#332/2,2nd A Main Road Channasandra, B Channasandra, Bangalore - 560043, Near Ramamurthy Nagar Signal,Next Ramurthynagar Service Road Bus Stop K R Puram Hobli",+(91)-080-1158622,33Votes,4.5,13.011043527778,77.661346416667
407,Kool Star Play Home,"No 116/5, 11th Cross, Malleswaram, Bangalore - 560003, Opposite Nalli Silks",07947157406,5Votes,4.8,13.002142,77.569367
408,Seed International,"No-652, 4th C Mn,Ombr Lyt, Kasturi Nagar, Bangalore - 560043, Opp Bhuvanagiri Park",07947155332,28Votes,4.2,13.0111108,77.6587355
409,Narayana E-Techno School,"Sapthagiri Layout,, Vidyaranyapura, Bangalore - 560097, Near Thindlu Circle",07947315872,10Votes,3.9,13.098480555556,77.5596
410,Innovative School Of Excell..,"8/6.BBMP Office Roa, Horamavu Agara Village, Bangalore - 560043",07947188286,6Votes,4.3,13.039196972222,77.658404
411,Royale Concorde Internation..,"No.31, 1st Main Road, Chamarajpet, Bangalore - 560018, Near Prakash Cafe",+(91)-080-9745680,104Votes,3.9,12.960594444444,77.570563888889
412,Brs Global School,"No 317/2, Bidaraguppe Village, Attibele, Bangalore - 562107, Sarjapura Attibee Road",07947460049,50Votes,4.1,12.807097,77.780883
413,Flomont World School,"No 51, 1st Cross,4th Main,HAL 3rd Satge, New Thippasandra, Bangalore - 560075, Near 80 Feet Road And Near BSNL Office",07947160020,22Votes,4.3,12.9701617,77.6480058
414,I Play I Learn Preschool An..,"Cherry Street, Green Glen Layout-Bellandur, Bangalore - 560103, Behind Shoba Marvella",07947159205,11Votes,3.9,12.92679,77.673139
415,Swamy Vivekananda Internati..,"No 38, Atturu Main Road, Atturu Layout, Yelahanka New Town, Bangalore - 560064, Near NCC(Urban) &amp; Purva Apartments",07947229772,36Votes,4.0,13.1031201,77.5667348
416,Royale Concorde Internation..,"No 14,, Sharadha Hills, Hesarghatta Main Road, Vidyaranyapura Post,, M S Palya, Bangalore - 560097, Near Sambram College",07947216785,130Votes,4.1,13.0857417,77.5490295
417,Skalvi International School,"Kottanuru Dinne Main Road, Shaneshwara Mandir Road, Jp Nagar 8th Phase, Bangalore - 560076",07947479352,62Votes,3.9,12.8780068,77.5863424
418,EuroKids,"No.400, J P Main Road,1st Phase, Girinagar, Bangalore - 560085, Near Shankar Mutt And Radhakrishna Hospital",07947158979,32Votes,4.2,12.940580793669,77.546591889185
419,Planet Bloomingdale Child G..,"No.447, 12th Main,4th Block, Koramangala, Bangalore - 560034, Near Bda Complex And BSNL Telephone Exchange",+(91)-9243101700,71Votes,4.7,12.932101,77.627423
420,New Little Wonders Internat..,"Hurulichikkanahalli, Bengaluru, Hesarghatta Main Road, Bangalore - 560090, Near Basavanna Temple",07947183623,6Votes,4.3,13.1157536,77.4853748
421,Little Lillys English Publi..,"No 13, 8th Main,4th Block,Bel Layout, Vidyaranyapura, Bangalore - 560097, Near Post Office",07947154521,95Votes,3.9,13.0762059,77.5570077
422,New Indus Valley Residentia..,"Garden City College Road,Subhashnagar Post, Virgonagar, Bangalore - 560049, Near Bhattarahalli",07947155068,257Votes,4.0,13.02105372937,77.70565594021
423,New Carmel English School,"No.59, Gokul 1st Stage, 2nd Phase, 8th A Cross, 3rd Main Road, Yeshwanthpur, Bangalore - 560022, Near Divanarapalya Bus Stop Near Shanimantam Temple",+(91)-80-23476327,42Votes,3.7,13.0246021,77.5606119
424,Holy Angels Public School,"R R Temple Road,Devasandra.J C Layout, Krishnarajapuram, Bangalore - 560036, Near RR Temple",+(91)-9945610457,32Votes,4.5,13.0048511,77.6972255
425,Global High School,"No 9/1,, 4th Main, 7th Cross, Benson Town, Bangalore - 560046",+(91)-80-23544044,9Votes,3.5,13.02498852,77.59178453
426,Lakshmi Jayam English Schoo..,"No.m-53-54, 7th Cross, Lakshminarayan Puram, Srirampuram, Bangalore - 560021, Near Devaiah Park",+(91)-80-23325999,9Votes,4.5,12.994303,77.562073972222
427,St. Josephs Convent School,"No 103, Kadaagrahara Bus Stop,Doddagubbi Post, Doddagubbi, Bangalore - 560077, Near Bus Stop",+(91)-8147753988,9Votes,4.1,13.0649095,77.6726679
428,Srinidhi Public School,"No.20, 21 &amp; 22, 1st Cross, 3rd Main, Srinidhi Layout, New Bank Colony, Kanakapura Road, Bangalore - 560062",+(91)-80-26324343,85Votes,4.1,12.8827874,77.5704082
429,R V Early Learning Center,"No.12, 5th Cross,Raghuvanahalli, Kanakapura Road, Bangalore - 560062, Opposite Ksit Engineering College",+(91)-080-28435333,33Votes,4.7,12.878235,77.5470642
430,Little Elly Pre-School,"No.248/17,, 2nd Block, 6th Cross, Jayanagar 9th Block, Bangalore - 560011",+(91)-80-50098722,125Votes,4.4,12.9407892,77.583716
431,Vriddhi Kidz,"No.43, 1st Cross,Hegde Nagar Main Road, Hegde Nagar, Bangalore - 560077",+(91)-9513311495,63Votes,4.7,13.0663985,77.6288002
432,Josco Institutions,"Infant Jesus Campus, Mylanahalli Post Nelamangala to Doddaballapur Road, Nelamangala, Bangalore - 562123, JOSCO INSTITUTIONS",+(91)-080-27725950,117Votes,4.5,13.097356777778,77.384300222222
433,LSV Public School,"Gangondanahalli Main Road, Gangondanahalli, Bangalore - 560073, Near Gangondanahalli Bus Stop",+(91)-8553888273,13Votes,4.8,13.0545986,77.4704398
434,Vivekananda Techno School,"No 24, 2nd Cross, Konanakunte, Bangalore - 560062, Near Honey Foundation",+(91)-080-26322994,59Votes,4.7,12.8873815,77.5673592
435,Little Ikons,"No.127, S.P Nilayam,Kothanur Post, Kothanur, Bangalore - 560077, Near Golden Palm  Apartment",+(91)-9742664133,19Votes,4.7,13.0645015,77.6401678
436,White Petals School,"No 5, 7th Cross, Santhosh Nagar, Attur Layout, Yelahanka New Town, Bangalore - 560064",+(91)-9148360111,56Votes,4.5,13.1061989,77.5679013
437,S V Lovely Kids Zone,"No 25,Sunshine View Building, 9th Main Road, Agrahara Dasarahalli, Bangalore - 560079, Opposite Kaapi Adda",+(91)-80-41228968,3Votes,4.3,12.981593704051,77.542607609993
438,MES Public School,"Patel Channappa Layout, 3rd Cross, BH Road, Nelamangala, Bangalore - 562123, Near Colony Bus Stop",+(91)-080-27726600,17Votes,4.3,13.0949253,77.4053593
439,Om Sri Narayana Vidya Kendr..,"No.852/1, 7th A Main Banaswadi Main Road, Hrbr Layout, Bangalore - 560043, Opp Syndicate Bank",+(91)-80-25790716,16Votes,4.2,13.0172394,77.6433386
440,Kriyaa Early Learning Monte..,"No-28, Sarjapura Main Road, Doddakannelli, Bangalore - 560035, Opposite Achievers Academy",+(91)-9686270267,15Votes,4.6,12.9071012,77.6959306
441,Stalwart School - Kidz Zone,"No 9, 6th Cross, Muni Nagappa Layout,Kavalbyrasandra, Rt Nagar, Bangalore - 560032, Near Kaval Byrasandra Bus Stop, Karnataka ATM",+(91)-80-23547034,26Votes,4.6,13.0175,77.606111111111
442,KSVP Karnataka Sanskriti V..,"No.127, Bhagath Sigh Road, Rajarajeshwari Nagar, Bangalore - 560098, Behind Pattanagere Post Office,Near Anjanaya Temple",+(91)-9513512323,9Votes,4.4,12.920544,77.511378
443,Basava Residential Girls Sc..,"Doddabele, Mysore Road, Kengeri, Bangalore - 560060, Nr ACS  College Of Engineering",+(91)-9513731315,254Votes,4.5,12.8909259,77.4696609
444,Zeal Montessori,"No.92, Basava Bhavana, 10th Main, 7th Cross, KK Layout, Dr Vishnuvardhan Road, Uttarahalli, Bangalore - 560061, Opposite to Poornapragna Layout Water Tank",+(91)-80-26731150,13Votes,4.5,12.9082846,77.5340127
445,Royale Concorde Internation..,"No.3/2, Ambalipura Village,Sarjarpur Main Road, Bellandur, Bangalore - 560103, Near Big Bazaar",+(91)-80-41476100,130Votes,3.9,12.9206575,77.6678178
446,Sri Bhavani Vidya Mandira,"No. B-153, 2nd Main, 7th Cross,, Bahubali Nagar, Jalahalli, Bangalore - 560013, Bhd Jalahalli Govt High School,",+(91)-80-23452121,7Votes,4.8,13.045407,77.550104
447,Little Millennium,"Namnele #17 &amp; 18, Bhavani Nagar Channanayakanapalya, Nagasandra, Bangalore - 560073, Near Papaya Factory",+(91)-9739448855,23Votes,4.3,13.045283,77.4808391
448,Edify School,"No 388/O, 10th Main, 19th Cross,, Surya Nagar Phase -2 Chandapura, Anekal, Bangalore - 562106",+(91)-9900077180,124Votes,4.2,12.7721917,77.6934735
449,V Blooms International Scho..,"No.194/4, Balagrahalli,Neraluru Post, Anekal Taluq, Attibele, Bangalore - 562107",+(91)-9986818937,24Votes,4.2,12.7826758,77.7736927
450,Flomont World School,"No 51, 1st Cross,4th Main,HAL 3rd Satge, New Thippasandra, Bangalore - 560075, Near 80 Feet Road And Near BSNL Office",07947160020,22Votes,4.3,12.9701617,77.6480058
451,Narayana E-Techno School,"Sapthagiri Layout,, Vidyaranyapura, Bangalore - 560097, Near Thindlu Circle",07947315872,10Votes,3.9,13.098480555556,77.5596
452,Royale Concorde Internation..,"No.31, 1st Main Road, Chamarajpet, Bangalore - 560018, Near Prakash Cafe",+(91)-080-9745680,104Votes,3.9,12.960594444444,77.570563888889
453,Royale Concorde Internation..,"No 14,, Sharadha Hills, Hesarghatta Main Road, Vidyaranyapura Post,, M S Palya, Bangalore - 560097, Near Sambram College",07947216785,130Votes,4.1,13.0857417,77.5490295
454,I Play I Learn Preschool An..,"Cherry Street, Green Glen Layout-Bellandur, Bangalore - 560103, Behind Shoba Marvella",07947159205,11Votes,3.9,12.92679,77.673139
455,EuroKids,"No.400, J P Main Road,1st Phase, Girinagar, Bangalore - 560085, Near Shankar Mutt And Radhakrishna Hospital",07947158979,32Votes,4.2,12.940580793669,77.546591889185
456,Swamy Vivekananda Internati..,"No 38, Atturu Main Road, Atturu Layout, Yelahanka New Town, Bangalore - 560064, Near NCC(Urban) &amp; Purva Apartments",07947229772,36Votes,4.0,13.1031201,77.5667348
457,Planet Bloomingdale Child G..,"No.447, 12th Main,4th Block, Koramangala, Bangalore - 560034, Near Bda Complex And BSNL Telephone Exchange",+(91)-9243101700,71Votes,4.7,12.932101,77.627423
458,New Little Wonders Internat..,"Hurulichikkanahalli, Bengaluru, Hesarghatta Main Road, Bangalore - 560090, Near Basavanna Temple",07947183623,6Votes,4.3,13.1157536,77.4853748
459,Silicon City Academy Of Sec..,"Silicon City Educational Trust, Kumar Nursery, New Bank Colony, Konanakunte Cross, Bangalore - 560062, Off Kanakapura Road, Near Saudhamani Marriage Hall",07947154306,320Votes,4.3,12.8812062,77.5689372
460,Skalvi International School,"Kottanuru Dinne Main Road, Shaneshwara Mandir Road, Jp Nagar 8th Phase, Bangalore - 560076",07947479352,62Votes,3.9,12.8780068,77.5863424
461,Little Lillys English Publi..,"No 13, 8th Main,4th Block,Bel Layout, Vidyaranyapura, Bangalore - 560097, Near Post Office",07947154521,95Votes,3.9,13.0762059,77.5570077
462,New Indus Valley Residentia..,"Garden City College Road,Subhashnagar Post, Virgonagar, Bangalore - 560049, Near Bhattarahalli",07947155068,257Votes,4.0,13.02105372937,77.70565594021
463,New Carmel English School,"No.59, Gokul 1st Stage, 2nd Phase, 8th A Cross, 3rd Main Road, Yeshwanthpur, Bangalore - 560022, Near Divanarapalya Bus Stop Near Shanimantam Temple",+(91)-80-23476327,42Votes,3.7,13.0246021,77.5606119
464,Global High School,"No 9/1,, 4th Main, 7th Cross, Benson Town, Bangalore - 560046",+(91)-80-23544044,9Votes,3.5,13.02498852,77.59178453
465,Holy Angels Public School,"R R Temple Road,Devasandra.J C Layout, Krishnarajapuram, Bangalore - 560036, Near RR Temple",+(91)-9945610457,32Votes,4.5,13.0048511,77.6972255
466,Lakshmi Jayam English Schoo..,"No.m-53-54, 7th Cross, Lakshminarayan Puram, Srirampuram, Bangalore - 560021, Near Devaiah Park",+(91)-80-23325999,9Votes,4.5,12.994303,77.562073972222
467,St. Josephs Convent School,"No 103, Kadaagrahara Bus Stop,Doddagubbi Post, Doddagubbi, Bangalore - 560077, Near Bus Stop",+(91)-8147753988,9Votes,4.1,13.0649095,77.6726679
468,R V Early Learning Center,"No.12, 5th Cross,Raghuvanahalli, Kanakapura Road, Bangalore - 560062, Opposite Ksit Engineering College",+(91)-080-28435333,33Votes,4.7,12.878235,77.5470642
469,Little Elly Pre-School,"No.248/17,, 2nd Block, 6th Cross, Jayanagar 9th Block, Bangalore - 560011",+(91)-80-50098722,125Votes,4.4,12.9407892,77.583716
470,Srinidhi Public School,"No.20, 21 &amp; 22, 1st Cross, 3rd Main, Srinidhi Layout, New Bank Colony, Kanakapura Road, Bangalore - 560062",+(91)-80-26324343,85Votes,4.1,12.8827874,77.5704082
471,Vriddhi Kidz,"No.43, 1st Cross,Hegde Nagar Main Road, Hegde Nagar, Bangalore - 560077",+(91)-9513311495,63Votes,4.7,13.0663985,77.6288002
472,Josco Institutions,"Infant Jesus Campus, Mylanahalli Post Nelamangala to Doddaballapur Road, Nelamangala, Bangalore - 562123, JOSCO INSTITUTIONS",+(91)-080-27725950,117Votes,4.5,13.097356777778,77.384300222222
473,Vivekananda Techno School,"No 24, 2nd Cross, Konanakunte, Bangalore - 560062, Near Honey Foundation",+(91)-080-26322994,59Votes,4.7,12.8873815,77.5673592
474,LSV Public School,"Gangondanahalli Main Road, Gangondanahalli, Bangalore - 560073, Near Gangondanahalli Bus Stop",+(91)-8553888273,13Votes,4.8,13.0545986,77.4704398
475,Little Ikons,"No.127, S.P Nilayam,Kothanur Post, Kothanur, Bangalore - 560077, Near Golden Palm  Apartment",+(91)-9742664133,19Votes,4.7,13.0645015,77.6401678
476,MES Public School,"Patel Channappa Layout, 3rd Cross, BH Road, Nelamangala, Bangalore - 562123, Near Colony Bus Stop",+(91)-080-27726600,17Votes,4.3,13.0949253,77.4053593
477,White Petals School,"No 5, 7th Cross, Santhosh Nagar, Attur Layout, Yelahanka New Town, Bangalore - 560064",+(91)-9148360111,56Votes,4.5,13.1061989,77.5679013
478,S V Lovely Kids Zone,"No 25,Sunshine View Building, 9th Main Road, Agrahara Dasarahalli, Bangalore - 560079, Opposite Kaapi Adda",+(91)-80-41228968,3Votes,4.3,12.981593704051,77.542607609993
479,Kriyaa Early Learning Monte..,"No-28, Sarjapura Main Road, Doddakannelli, Bangalore - 560035, Opposite Achievers Academy",+(91)-9686270267,15Votes,4.6,12.9071012,77.6959306
480,Om Sri Narayana Vidya Kendr..,"No.852/1, 7th A Main Banaswadi Main Road, Hrbr Layout, Bangalore - 560043, Opp Syndicate Bank",+(91)-80-25790716,16Votes,4.2,13.0172394,77.6433386
481,Stalwart School - Kidz Zone,"No 9, 6th Cross, Muni Nagappa Layout,Kavalbyrasandra, Rt Nagar, Bangalore - 560032, Near Kaval Byrasandra Bus Stop, Karnataka ATM",+(91)-80-23547034,26Votes,4.6,13.0175,77.606111111111
482,KSVP Karnataka Sanskriti V..,"No.127, Bhagath Sigh Road, Rajarajeshwari Nagar, Bangalore - 560098, Behind Pattanagere Post Office,Near Anjanaya Temple",+(91)-9513512323,9Votes,4.4,12.920544,77.511378
483,Basava Residential Girls Sc..,"Doddabele, Mysore Road, Kengeri, Bangalore - 560060, Nr ACS  College Of Engineering",+(91)-9513731315,254Votes,4.5,12.8909259,77.4696609
484,Royale Concorde Internation..,"No.3/2, Ambalipura Village,Sarjarpur Main Road, Bellandur, Bangalore - 560103, Near Big Bazaar",+(91)-80-41476100,130Votes,3.9,12.9206575,77.6678178
485,Little Millennium,"Namnele #17 &amp; 18, Bhavani Nagar Channanayakanapalya, Nagasandra, Bangalore - 560073, Near Papaya Factory",+(91)-9739448855,23Votes,4.3,13.045283,77.4808391
486,Sri Bhavani Vidya Mandira,"No. B-153, 2nd Main, 7th Cross,, Bahubali Nagar, Jalahalli, Bangalore - 560013, Bhd Jalahalli Govt High School,",+(91)-80-23452121,7Votes,4.8,13.045407,77.550104
487,Zeal Montessori,"No.92, Basava Bhavana, 10th Main, 7th Cross, KK Layout, Dr Vishnuvardhan Road, Uttarahalli, Bangalore - 560061, Opposite to Poornapragna Layout Water Tank",+(91)-80-26731150,13Votes,4.5,12.9082846,77.5340127
488,Edify School,"No 388/O, 10th Main, 19th Cross,, Surya Nagar Phase -2 Chandapura, Anekal, Bangalore - 562106",+(91)-9900077180,124Votes,4.2,12.7721917,77.6934735
489,V Blooms International Scho..,"No.194/4, Balagrahalli,Neraluru Post, Anekal Taluq, Attibele, Bangalore - 562107",+(91)-9986818937,24Votes,4.2,12.7826758,77.7736927
490,New Little Wonders Internat..,"Hurulichikkanahalli, Bengaluru, Hesarghatta Main Road, Bangalore - 560090, Near Basavanna Temple",07947183623,6Votes,4.3,13.1157536,77.4853748
491,Little Lillys English Publi..,"No 13, 8th Main,4th Block,Bel Layout, Vidyaranyapura, Bangalore - 560097, Near Post Office",07947154521,95Votes,3.9,13.0762059,77.5570077
492,New Indus Valley Residentia..,"Garden City College Road,Subhashnagar Post, Virgonagar, Bangalore - 560049, Near Bhattarahalli",07947155068,257Votes,4.0,13.02105372937,77.70565594021
493,New Carmel English School,"No.59, Gokul 1st Stage, 2nd Phase, 8th A Cross, 3rd Main Road, Yeshwanthpur, Bangalore - 560022, Near Divanarapalya Bus Stop Near Shanimantam Temple",+(91)-80-23476327,42Votes,3.7,13.0246021,77.5606119
494,Holy Angels Public School,"R R Temple Road,Devasandra.J C Layout, Krishnarajapuram, Bangalore - 560036, Near RR Temple",+(91)-9945610457,32Votes,4.5,13.0048511,77.6972255
495,Global High School,"No 9/1,, 4th Main, 7th Cross, Benson Town, Bangalore - 560046",+(91)-80-23544044,9Votes,3.5,13.02498852,77.59178453
496,Lakshmi Jayam English Schoo..,"No.m-53-54, 7th Cross, Lakshminarayan Puram, Srirampuram, Bangalore - 560021, Near Devaiah Park",+(91)-80-23325999,9Votes,4.5,12.994303,77.562073972222
497,St. Josephs Convent School,"No 103, Kadaagrahara Bus Stop,Doddagubbi Post, Doddagubbi, Bangalore - 560077, Near Bus Stop",+(91)-8147753988,9Votes,4.1,13.0649095,77.6726679
498,Srinidhi Public School,"No.20, 21 &amp; 22, 1st Cross, 3rd Main, Srinidhi Layout, New Bank Colony, Kanakapura Road, Bangalore - 560062",+(91)-80-26324343,85Votes,4.1,12.8827874,77.5704082
499,R V Early Learning Center,"No.12, 5th Cross,Raghuvanahalli, Kanakapura Road, Bangalore - 560062, Opposite Ksit Engineering College",+(91)-080-28435333,33Votes,4.7,12.878235,77.5470642
500,Little Elly Pre-School,"No.248/17,, 2nd Block, 6th Cross, Jayanagar 9th Block, Bangalore - 560011",+(91)-80-50098722,125Votes,4.4,12.9407892,77.583716
501,Vriddhi Kidz,"No.43, 1st Cross,Hegde Nagar Main Road, Hegde Nagar, Bangalore - 560077",+(91)-9513311495,63Votes,4.7,13.0663985,77.6288002
502,Josco Institutions,"Infant Jesus Campus, Mylanahalli Post Nelamangala to Doddaballapur Road, Nelamangala, Bangalore - 562123, JOSCO INSTITUTIONS",+(91)-080-27725950,117Votes,4.5,13.097356777778,77.384300222222
503,LSV Public School,"Gangondanahalli Main Road, Gangondanahalli, Bangalore - 560073, Near Gangondanahalli Bus Stop",+(91)-8553888273,13Votes,4.8,13.0545986,77.4704398
504,Vivekananda Techno School,"No 24, 2nd Cross, Konanakunte, Bangalore - 560062, Near Honey Foundation",+(91)-080-26322994,59Votes,4.7,12.8873815,77.5673592
505,Little Ikons,"No.127, S.P Nilayam,Kothanur Post, Kothanur, Bangalore - 560077, Near Golden Palm  Apartment",+(91)-9742664133,19Votes,4.7,13.0645015,77.6401678
506,S V Lovely Kids Zone,"No 25,Sunshine View Building, 9th Main Road, Agrahara Dasarahalli, Bangalore - 560079, Opposite Kaapi Adda",+(91)-80-41228968,3Votes,4.3,12.981593704051,77.542607609993
507,White Petals School,"No 5, 7th Cross, Santhosh Nagar, Attur Layout, Yelahanka New Town, Bangalore - 560064",+(91)-9148360111,56Votes,4.5,13.1061989,77.5679013
508,Om Sri Narayana Vidya Kendr..,"No.852/1, 7th A Main Banaswadi Main Road, Hrbr Layout, Bangalore - 560043, Opp Syndicate Bank",+(91)-80-25790716,16Votes,4.2,13.0172394,77.6433386
509,MES Public School,"Patel Channappa Layout, 3rd Cross, BH Road, Nelamangala, Bangalore - 562123, Near Colony Bus Stop",+(91)-080-27726600,17Votes,4.3,13.0949253,77.4053593
510,Kriyaa Early Learning Monte..,"No-28, Sarjapura Main Road, Doddakannelli, Bangalore - 560035, Opposite Achievers Academy",+(91)-9686270267,15Votes,4.6,12.9071012,77.6959306
511,Stalwart School - Kidz Zone,"No 9, 6th Cross, Muni Nagappa Layout,Kavalbyrasandra, Rt Nagar, Bangalore - 560032, Near Kaval Byrasandra Bus Stop, Karnataka ATM",+(91)-80-23547034,26Votes,4.6,13.0175,77.606111111111
512,KSVP Karnataka Sanskriti V..,"No.127, Bhagath Sigh Road, Rajarajeshwari Nagar, Bangalore - 560098, Behind Pattanagere Post Office,Near Anjanaya Temple",+(91)-9513512323,9Votes,4.4,12.920544,77.511378
513,Basava Residential Girls Sc..,"Doddabele, Mysore Road, Kengeri, Bangalore - 560060, Nr ACS  College Of Engineering",+(91)-9513731315,254Votes,4.5,12.8909259,77.4696609
514,Zeal Montessori,"No.92, Basava Bhavana, 10th Main, 7th Cross, KK Layout, Dr Vishnuvardhan Road, Uttarahalli, Bangalore - 560061, Opposite to Poornapragna Layout Water Tank",+(91)-80-26731150,13Votes,4.5,12.9082846,77.5340127
515,Royale Concorde Internation..,"No.3/2, Ambalipura Village,Sarjarpur Main Road, Bellandur, Bangalore - 560103, Near Big Bazaar",+(91)-80-41476100,130Votes,3.9,12.9206575,77.6678178
516,Sri Bhavani Vidya Mandira,"No. B-153, 2nd Main, 7th Cross,, Bahubali Nagar, Jalahalli, Bangalore - 560013, Bhd Jalahalli Govt High School,",+(91)-80-23452121,7Votes,4.8,13.045407,77.550104
517,Little Millennium,"Namnele #17 &amp; 18, Bhavani Nagar Channanayakanapalya, Nagasandra, Bangalore - 560073, Near Papaya Factory",+(91)-9739448855,23Votes,4.3,13.045283,77.4808391
518,Edify School,"No 388/O, 10th Main, 19th Cross,, Surya Nagar Phase -2 Chandapura, Anekal, Bangalore - 562106",+(91)-9900077180,124Votes,4.2,12.7721917,77.6934735
519,V Blooms International Scho..,"No.194/4, Balagrahalli,Neraluru Post, Anekal Taluq, Attibele, Bangalore - 562107",+(91)-9986818937,24Votes,4.2,12.7826758,77.7736927
520,Little Elly Pre-School,"No.248/17,, 2nd Block, 6th Cross, Jayanagar 9th Block, Bangalore - 560011",+(91)-80-50098722,125Votes,4.4,12.9407892,77.583716
521,Om Sri Narayana Vidya Kendr..,"No.852/1, 7th A Main Banaswadi Main Road, Hrbr Layout, Bangalore - 560043, Opp Syndicate Bank",+(91)-80-25790716,16Votes,4.2,13.0172394,77.6433386
522,Josco Institutions,"Infant Jesus Campus, Mylanahalli Post Nelamangala to Doddaballapur Road, Nelamangala, Bangalore - 562123, JOSCO INSTITUTIONS",+(91)-080-27725950,117Votes,4.5,13.097356777778,77.384300222222
523,KSVP Karnataka Sanskriti V..,"No.127, Bhagath Sigh Road, Rajarajeshwari Nagar, Bangalore - 560098, Behind Pattanagere Post Office,Near Anjanaya Temple",+(91)-9513512323,9Votes,4.4,12.920544,77.511378
524,R V Early Learning Center,"No.12, 5th Cross,Raghuvanahalli, Kanakapura Road, Bangalore - 560062, Opposite Ksit Engineering College",+(91)-080-28435333,33Votes,4.7,12.878235,77.5470642
525,Basava Residential Girls Sc..,"Doddabele, Mysore Road, Kengeri, Bangalore - 560060, Nr ACS  College Of Engineering",+(91)-9513731315,254Votes,4.5,12.8909259,77.4696609
526,Edify School,"No 388/O, 10th Main, 19th Cross,, Surya Nagar Phase -2 Chandapura, Anekal, Bangalore - 562106",+(91)-9900077180,124Votes,4.2,12.7721917,77.6934735
527,Vivekananda Techno School,"No 24, 2nd Cross, Konanakunte, Bangalore - 560062, Near Honey Foundation",+(91)-080-26322994,59Votes,4.7,12.8873815,77.5673592
528,Sri Bhavani Vidya Mandira,"No. B-153, 2nd Main, 7th Cross,, Bahubali Nagar, Jalahalli, Bangalore - 560013, Bhd Jalahalli Govt High School,",+(91)-80-23452121,7Votes,4.8,13.045407,77.550104
529,S V Lovely Kids Zone,"No 25,Sunshine View Building, 9th Main Road, Agrahara Dasarahalli, Bangalore - 560079, Opposite Kaapi Adda",+(91)-80-41228968,3Votes,4.3,12.981593704051,77.542607609993
530,Kriyaa Early Learning Monte..,"No-28, Sarjapura Main Road, Doddakannelli, Bangalore - 560035, Opposite Achievers Academy",+(91)-9686270267,15Votes,4.6,12.9071012,77.6959306
531,LSV Public School,"Gangondanahalli Main Road, Gangondanahalli, Bangalore - 560073, Near Gangondanahalli Bus Stop",+(91)-8553888273,13Votes,4.8,13.0545986,77.4704398
532,White Petals School,"No 5, 7th Cross, Santhosh Nagar, Attur Layout, Yelahanka New Town, Bangalore - 560064",+(91)-9148360111,56Votes,4.5,13.1061989,77.5679013
533,Stalwart School - Kidz Zone,"No 9, 6th Cross, Muni Nagappa Layout,Kavalbyrasandra, Rt Nagar, Bangalore - 560032, Near Kaval Byrasandra Bus Stop, Karnataka ATM",+(91)-80-23547034,26Votes,4.6,13.0175,77.606111111111
534,Little Millennium,"Namnele #17 &amp; 18, Bhavani Nagar Channanayakanapalya, Nagasandra, Bangalore - 560073, Near Papaya Factory",+(91)-9739448855,23Votes,4.3,13.045283,77.4808391
535,Kuddle Kidz,"No 939, 1st Main,2nd Cross,Geetanjali Layout, HAL 3rd Stage New Thippasandra, Bangalore - 560075, Opposite Beml 2nd Gate",+(91)-9845366451,26Votes,4.1,12.975719444444,77.65455
536,Royale Concorde Internation..,"No.3/2, Ambalipura Village,Sarjarpur Main Road, Bellandur, Bangalore - 560103, Near Big Bazaar",+(91)-80-41476100,130Votes,3.9,12.9206575,77.6678178
537,Little Ikons,"No.127, S.P Nilayam,Kothanur Post, Kothanur, Bangalore - 560077, Near Golden Palm  Apartment",+(91)-9742664133,19Votes,4.7,13.0645015,77.6401678
538,St. Josephs Convent School,"No 103, Kadaagrahara Bus Stop,Doddagubbi Post, Doddagubbi, Bangalore - 560077, Near Bus Stop",+(91)-8147753988,9Votes,4.1,13.0649095,77.6726679
539,Raos Tutorial Institute,"No 194, 38th Cross,5th Block, Jayanagar, Bangalore - 560041, Near Telephone Exchange",+(91)-80-26631752,129Votes,3.9,12.921553,77.5826412
540,Stalwart School - Kidz Zone,"No 9, 6th Cross, Muni Nagappa Layout,Kavalbyrasandra, Rt Nagar, Bangalore - 560032, Near Kaval Byrasandra Bus Stop, Karnataka ATM",+(91)-80-23547034,26Votes,4.6,13.0175,77.606111111111
541,Om Sri Narayana Vidya Kendr..,"No.852/1, 7th A Main Banaswadi Main Road, Hrbr Layout, Bangalore - 560043, Opp Syndicate Bank",+(91)-80-25790716,16Votes,4.2,13.0172394,77.6433386
542,Edify School,"No 388/O, 10th Main, 19th Cross,, Surya Nagar Phase -2 Chandapura, Anekal, Bangalore - 562106",+(91)-9900077180,124Votes,4.2,12.7721917,77.6934735
543,Royale Concorde Internation..,"No.3/2, Ambalipura Village,Sarjarpur Main Road, Bellandur, Bangalore - 560103, Near Big Bazaar",+(91)-80-41476100,130Votes,3.9,12.9206575,77.6678178
544,KSVP Karnataka Sanskriti V..,"No.127, Bhagath Sigh Road, Rajarajeshwari Nagar, Bangalore - 560098, Behind Pattanagere Post Office,Near Anjanaya Temple",+(91)-9513512323,9Votes,4.4,12.920544,77.511378
545,Basava Residential Girls Sc..,"Doddabele, Mysore Road, Kengeri, Bangalore - 560060, Nr ACS  College Of Engineering",+(91)-9513731315,254Votes,4.5,12.8909259,77.4696609
546,Little Millennium,"Namnele #17 &amp; 18, Bhavani Nagar Channanayakanapalya, Nagasandra, Bangalore - 560073, Near Papaya Factory",+(91)-9739448855,23Votes,4.3,13.045283,77.4808391
547,Sri Bhavani Vidya Mandira,"No. B-153, 2nd Main, 7th Cross,, Bahubali Nagar, Jalahalli, Bangalore - 560013, Bhd Jalahalli Govt High School,",+(91)-80-23452121,7Votes,4.8,13.045407,77.550104
548,V Blooms International Scho..,"No.194/4, Balagrahalli,Neraluru Post, Anekal Taluq, Attibele, Bangalore - 562107",+(91)-9986818937,24Votes,4.2,12.7826758,77.7736927
549,Kuddle Kidz,"No 939, 1st Main,2nd Cross,Geetanjali Layout, HAL 3rd Stage New Thippasandra, Bangalore - 560075, Opposite Beml 2nd Gate",+(91)-9845366451,26Votes,4.1,12.975719444444,77.65455
550,Little Millennium,"Namnele #17 &amp; 18, Bhavani Nagar Channanayakanapalya, Nagasandra, Bangalore - 560073, Near Papaya Factory",+(91)-9739448855,23Votes,4.3,13.045283,77.4808391
551,S V Lovely Kids Zone,"No 25,Sunshine View Building, 9th Main Road, Agrahara Dasarahalli, Bangalore - 560079, Opposite Kaapi Adda",+(91)-80-41228968,3Votes,4.3,12.981593704051,77.542607609993
552,shivjyotiboardingschool.com,"Rathkankara , Rawatbhata Road, Rawatbhata Road Kota, Rawat Bhata Road, Kota-Rajasthan - 324001",08045785852,11Votes,4.3,12.981593704051,77.542607609993
553,Bishop Cotton Boys High Sch..,"No 15, Residency Road, Bangalore - 560025, Opposite Cash Pharmacy",+(91)-080-40527888,2198Votes,4.2,12.9679725,77.6002963
554,St Josephs Boys High School,"No.27, Museum Road, Bangalore - 560025, Opposite India Post Office",+(91)-080-22214416,1889Votes,4.1,12.971971,77.603599
555,St Josephs Indian High Scho..,"No.2, Grant Road, Vittal Mallya Road, Bangalore - 560001, Near Malya Hospital",+(91)-080-22229052,1742Votes,4.1,12.969238,77.594729
556,Delhi Public Schools,"Survey, No.35/1A, Sathnur Village, Bagalur, Bangalore - 562149, Near Country Club",+(91)-80-29724861,1456Votes,4.1,13.1185319,77.6414326
557,Delhi Public Schools,"No.19/1, Bikaspura Main Road, Kanakapura Road, Bangalore - 560062, Behind Metro",+(91)-80-26668581,1306Votes,4.0,12.8932804,77.5635332
558,Bishop Cotton Girls High Sc..,"No. 01, St Marks Road, Bangalore - 560001",+(91)-080-22213083,1263Votes,4.2,12.9700371,77.6016916
559,Baldwin Girls High School,"No.90, Richmond Road, Bangalore - 560025, Opposite to Tata Indicom Office",+(91)-80-40493000,1243Votes,4.2,12.964551,77.600561
560,Sophia High School,"No. 70, Palace Road, Bangalore - 560001, Near High Point &amp; Gulf Main Gate",+(91)-080-22208794,1015Votes,4.2,12.9859231,77.5883807
561,Baldwin Boys High School,"No.14, Hosur Road, Richmond Road, Bangalore - 560025, Near Johnson Market",+(91)-80-22211981,1001Votes,4.1,12.962258,77.606048
562,National Public School,"No.1036 A, Rajajinagar 5th Block, Bangalore - 560010, Near Girias Showroom",+(91)-80-23350361,911Votes,4.0,12.9841909,77.5497319
563,Delhi Public Schools,"No.43/1B &amp; 45, Sullikunte Village, Sarjapura, Bangalore - 562125",+(91)-80-27822260,888Votes,4.0,12.8844269,77.7254381
564,Venkat International Public..,"No.331/A, 5th Block, Kb Temple Street, Rajajinagar, Bangalore - 560010, Near Bashyam Circle",+(91)-080-23152016,875Votes,4.0,12.982162,77.553013
565,Kendriya Vidyalaya,"Malleswaram, Bangalore - 560003, 18th Cross",+(91)-080-23341454,867Votes,4.2,13.0092187,77.5687686
566,Vidyaniketan Public School,"Ullal Road, Kengeri-ullal Upanagar, Bangalore - 560056",+(91)-080-23240364,849Votes,4.2,12.952033,77.4866286
567,Cathedral Composite High Sc..,"No.63, Richmond Road, Bangalore - 560025, Near Sapphire Toys Shop",+(91)-080-25572656,839Votes,3.9,12.9656919,77.6086757
568,National Public School,"12th A Main Road, Hal 2nd Stage-indiranagar, Bangalore - 560008, Near Jevan Bheema Nagar Telephone Exchange",+(91)-080-25280611,836Votes,4.0,12.9695643,77.6467946
569,Army Public School,"Cubbon Road,Commercial Street, Kamaraj Road, Bangalore - 560042",+(91)-80-25581238,803Votes,4.2,12.9782108,77.6106838
570,New Baldwin Residential Sch..,"No. 25, Ramamurthy Nagar Main Road, Banaswadi, Bangalore - 560043, Next to Rashi Diagnostic Centre",+(91)-080-25429440,798Votes,4.1,13.0148877,77.657354
571,Bethany High School,"No. CA/12, 20th Main Road, 6th Block, Koramangala, Bangalore - 560095, Near  Koramangala Police Station",+(91)-80-25532189,753Votes,4.1,12.9406589,77.6207459
572,The Frank Anthony Public Sc..,"No.13, Cambridge Road, Ulsoor, Bangalore - 560008",+(91)-80-25570970,739Votes,4.2,12.9717885,77.6286881
573,Kendriya Vidyalaya,"Hebbal, Sadashivanagar, Bangalore - 560080",+(91)-080-23602491,676Votes,4.2,13.01584,77.575802
574,Bangalore International Aca..,"32nd Cross, 2nd Main, Jayanagar 7th Block, Bangalore - 560070, Near National City College",+(91)-80-22444411,655Votes,4.0,12.927052,77.57782
575,New Horizon Public School,"100 Feet Road, HAL 2nd Stage, Indiranagar, Bangalore - 560008",+(91)-080-25261735,649Votes,4.1,12.9677595,77.6419731
576,Sindhi High School,"No.33/2a &amp; 2b, Kempapura, Hebbal, Bangalore - 560024, Near to Esteem Mall",+(91)-080-23621394,648Votes,4.1,13.0504739,77.5987157
577,Royale Concorde Internation..,"6th B Main Road, Hrbr Layout, 2nd Block, Kalyan Nagar, Bangalore - 560043, Next to Sony World",+(91)-80-25435454,648Votes,3.8,13.02509,77.64249
578,Vibgyor High School,"Survey No.84/ 4, K R Puram Hobli, Bangalore East Taluk,Horamavu Village, Horamavu, Bangalore - 560043, Opposite GK Vale",+(91)-80-61596100,644Votes,3.9,13.0246819,77.6695529
579,Orchids The International S..,"Sector 2,HMT Colony, Jalahalli, Bangalore - 560013, Behind P F Quarters,Near HMT Theatre",+(91)-080-60017100,642Votes,3.8,13.0473928,77.5445958
580,Bgs National Public School,"Ramalingeswara Cave Temple, Hulimavu, Bannerghatta Road, Bangalore - 560076, Near Meenakshi Mall",+(91)-080-26484933,640Votes,4.0,12.8777914,77.5993361
581,CMR National Public School,"No.2079, 2nd Main Road, 3rd Stage, H B R Layout 3rd Block, Bangalore - 560084, Behind Jalvayu Vihar",+(91)-80-25440693,636Votes,4.0,13.0227289,77.6324997
582,New Baldwin International R..,"No.128, Old Madras Road, Virgonagar, Bangalore - 560049, Near Budigere Cross Road",+(91)-80-25559145,635Votes,4.2,13.0728374,77.7363222
583,Carmel School,"Padmanabhanagar, Banashankari 2nd Stage, Bangalore - 560070, Near DG Hospital",+(91)-080-26691040,632Votes,4.1,12.9194785,77.5593694
584,Jyothy Kendriya Vidyalaya,"Yelachenahalli, Kanakapura Road, Bangalore - 560062, Behind Kanakapura Metro Station",+(91)-080-26321932,629Votes,4.1,12.8948979,77.5705553
585,St Johns High School,"No.132, Cleveland Town, St Johns Church Road, Frazer Town, Bangalore - 560005, Behind Thoms Bakery",+(91)-080-29719720,629Votes,4.0,12.9922127,77.6120648
586,Vidyashilp Academy,"No 42/3, Post Box No 6437, Shivanahalli Village, Yelahanka, Bangalore - 560064, Near Jakkur Flying Club",+(91)-80-28561824,627Votes,4.0,13.0875623,77.5971611
587,Vibgyor High School,"No. 58/1, Whitefield Road, Marathahalli, Thubrahalli, Bangalore - 560066, Behind Shriram Samruddhi Apartment",+(91)-080-42777000,627Votes,3.9,12.9483479,77.7185196
588,Indus International School,"Bilapura Cross, Sarjapura, Bangalore - 562125, Near Exide Gate &amp;  Mayura Bakery",+(91)-080-22895900,599Votes,4.2,12.8352232,77.7783215
589,Ryan International School,"M H Colony, Kundalahalli, Bangalore - 560037, Behind Hindustan Lever Ltd",+(91)-080-28476963,598Votes,3.8,12.9641157,77.7249416
590,Presidency School,"No.CA/4, Rt Nagar, Bangalore - 560032, Near Reebok Showroom",+(91)-80-42351167,591Votes,3.8,13.0258294,77.5946143
591,Vidyaniketan School,"No 30, Kempapura, Hebbal, Bangalore - 560024, Behind Esteem Mall",+(91)-80-23331531,586Votes,4.1,13.0475813,77.5967682
592,Greenwood High Internationa..,"No.8/14, Chikkawadayarapura, Gunjur Post, Varthur Sarjapur Road, Varthur, Bangalore - 560087, Near to Heggondahalli",+(91)-080-27822888,578Votes,4.0,12.899778,77.7489978
593,National Hill View Public S..,"No.275/3/4, Ideal Homes Township, Rajarajeshwari Nagar, Bangalore - 560098, Near Off Mysore Road",+(91)-80-28603163,574Votes,3.9,12.9233378,77.5234848
594,New Baldwin International S..,"No.32/4, Maragondahalli Main Road,Tc Palya,Anandapura, Krishnarajapuram, Bangalore - 560036",+(91)-80-28493366,566Votes,4.6,13.0337044,77.6935426
595,Clarence High School,"No.8, Richards Town, Pottery Road, Bangalore - 560005, Near Richards Park",+(91)-080-46334633,546Votes,4.0,13.0027046,77.6158524
596,Jain Heritage School,"Anjaneya Temple Street, Hebbal, Bangalore - 560024, Next to Esteem Mall",+(91)-80-23626122,540Votes,4.0,13.0485125,77.6016669
597,Sri Aurobindo Memorial Scho..,"No.525, 22nd Cross, 13th A Main Road, Banashankari 2nd Stage, Bangalore - 560070",+(91)-80-26717777,534Votes,4.1,12.9259308,77.5683548
598,Kensri School And College,"No.1348/444A, Old No.18/2A, Mariya Street, Mariyannapalya, Hebbal Agri Farm, Bangalore - 560024, Next St James Church",+(91)-080-22026000,527Votes,3.8,13.0495867,77.6144257
599,Vagdevi Vilas School,"Survey No.77/2, 77/3 B, 77/4, 77/5, Munnekolalu Main Road, Marathahalli, Bangalore - 560037, Near Lakshminarayana Temple",+(91)-080-28495850,522Votes,4.1,12.9438229,77.709961
600,National Public School,"No.81, 3rd Cross, 60 Feet Road, Kengeri Main Road Banashankari 5th Stage, Uttarahalli, Bangalore - 560061",+(91)-80-28611799,514Votes,3.9,12.89968,77.5275541
601,National Public School,"81 3rd cross 60feet road, Uttarahalli, Bangalore - 560061, Near mantri alpyne",+(91)-9008785566,514Votes,3.9,12.899688,77.527549
602,Rns Vidyaniketan,"No.324, Bunts Sangha Complex, Woc Road, Vijayanagar, Bangalore - 560040",+(91)-080-23398922,512Votes,3.9,12.9621567,77.5328032
603,Cluny Convent High School,"No.71, 13th Cross, 11th Main Road, Malleswaram, Bangalore - 560003, Near Malleshwaram Railway Station",+(91)-080-23469275,511Votes,4.2,13.0045904,77.5622461
604,Clarence Public School,"No 19, 4th Cross,4th Phase,Dollars Colony, Jp Nagar, Bangalore - 560078, Near Delmia Circle",+(91)-80-26494420,501Votes,4.1,12.9034944,77.5958857
605,Sri Chaitanya Techno School,"No. 27, 3rd Main, Uttarahalli, Bangalore - 560061",+(91)-80-65469750,491Votes,4.1,12.9137059,77.5428118
606,Sri Chaitanya Techno School,"Sri Chaitanya Techno School, 27, 3rd Main, Uttarahalli, Bangalore - 560061, Near Sri Chaitanya College Uttarahalli",+(91)-8861004634,491Votes,4.1,12.9136839,77.5428055
607,Jawahar Navodaya Vidyalaya,"Sh 104, Bagalur, Bangalore - 562149, Near Ganesha Temple, Yelahanka North",,485Votes,4.1,13.1492246,77.6738584
608,Vibgyor High School,"No.107/1, Royal Placid, Haralur Road, Haralur-HSR Layout, Bangalore - 560102",+(91)-80-40968427,479Votes,3.8,12.8989638,77.6570992
609,Little Flower Public School,"No.1, 100 Feet Ring Road, Hosakarehalli, Banashankari 3rd Stage, Bangalore - 560085, Next to Telephone Exchange",+(91)-80-26421964,474Votes,4.1,12.9317164,77.5414503
610,National Public School,"No. 9/1, Raghavendra Layout, Pipe Line Road, Yeshwanthpur, Bangalore - 560022, Behind Rns Motors",+(91)-80-23571220,474Votes,3.9,13.0303142,77.5442505
611,Sudarshan Vidya Mandir,"No.1163, 1164, 1165 &amp; 1166, 26th A Main, 4th T Block, Jayanagar, Bangalore - 560041, Near Rajiv Ganghi Institute For Medical Science",+(91)-80-26646221,467Votes,4.2,12.9253332,77.5940063
612,Presidency School,"East Of Ngef Layout, 2nd A Main Road, 3rd A Cross, Kasturi Nagar, Bangalore - 560043, Near",+(91)-80-25425597,467Votes,4.1,13.005372,77.6610762
613,Gopalan National School,"Plot No.13, Gopalan National School Campus, Doddanekundi, 2nd Phase, Brookefield Road, Whitefield Main Road, Bangalore - 560066, Near to St Anthony Brick Work",+(91)-80-41157829,463Votes,4.3,12.986285,77.707373
614,Prarthana Education Society,"Kadarenahalli, Padmanabhanagar, Bengaluru, Uttarahalli Main Road, Banashankari 2nd Stage, Bangalore - 560070",+(91)-80-26790625,463Votes,4.1,12.9145327,77.5592786
615,Kendriya Vidyalaya,"Drdo Complex, C V Raman Nagar, Bangalore - 560093",+(91)-80-25243919,463Votes,4.0,12.9873827,77.6644232
616,Baldwin Co Education Extens..,"No.185, 10th Main, 2nd Cross, 5th Stage, Rajarajeshwari Nagar, Bangalore - 560098, Behind Crazy Park",+(91)-80-28616568,460Votes,4.1,12.9078962,77.525217
617,Cambridge Public School,"No.CA-13, 19th Main Road, 25th Cross, Hsr Layout Sector 2, Bangalore - 560102, HSR Club, IBP Petrol Pump",+(91)-80-25727335,460Votes,3.9,12.9077615,77.6452598
618,Kendriya Vidyalaya,"Victoria Layout, Bangalore - 560047, Opposite Lifestyle",+(91)-80-25302862,456Votes,4.1,12.9664486,77.6158936
619,National Public School,"No.32/P2, 17th B Main, Hsr Layout Sector 4, Bangalore - 560102, Behind Freedom International",+(91)-80-25729406,452Votes,4.0,12.916521,77.6430316
620,St Vincent Pallotti School,"No.95/2, Babusapalya, Bangalore - 560043, Near Horamavu Agara Railway Gate &amp; Windgates Apartment",+(91)-80-25603768,450Votes,4.2,13.0324904,77.6511516
621,St Francis Xaviers Girls Hi..,"No.49, Promenade Road, Frazer Town, Bangalore - 560005, Opposite St Johns School",+(91)-80-25368222,449Votes,4.1,12.9931895,77.6129871
622,Orchids The International S..,"CA Site No 1, Survey No.38 &amp; 39, Rajaji Nagar Housing Co Operative Society, Nagarbhavi, Bangalore - 560072, Near Nagarbhavi Bda Complex, Sree Ganadadakaval, Annopoorneswari Layout",+(91)-80-60017100,449Votes,4.0,12.975651,77.50524
623,Gopalan International Schoo..,"Seetharam Palya, Basavanagar, Hoodi, Bangalore - 560048, Behind SAP Labs",+(91)-080-40936034,445Votes,4.1,12.9850831,77.7182011
624,Sri Kumaran Public School,"Survey No. 44-50, Mallasandra Village, Off Kanakapura Main Road, Uttarahalli, Bangalore - 560061",+(91)-80-26763381,441Votes,4.1,12.905636,77.542708
625,Bgs International Residenti..,"Nithyananda Nagar, K Gollahalli Post, Kumbalgodu, Bangalore - 560074, Near Vivekananda Institute Of Technology",+(91)-080-28437653,434Votes,4.0,12.8493643,77.462193
626,Narayana E-Techno School,"No.103/2, Ashwath Narayana Layout, Jp Nagar 7th Phase, Bangalore - 560078, Near Puttenahalli Lake",+(91)-80-26655322,431Votes,3.8,12.8963741,77.5784913
627,Vidyasagar Preschool,"No.9, 3rd Cross, Rmv 2nd Stage, Bhoopasandra, Bangalore - 560094",+(91)-080-41253433,428Votes,4.0,13.0419137,77.5816512
628,National Public School,"Housing Complex, 80 Feet Road, Koramangala, Bangalore - 560095, Next to National Games Village",+(91)-80-25705171,428Votes,4.0,12.9490812,77.6209241
629,Speaking India,"#1210, 1st Floor(, Stage 2, Bengaluru, 16th Main Road, Bangalore - 560076, Above Kollad Cafe",+(91)-9148294666,425Votes,4.7,12.9126053,77.6098935
630,Florence Public School,"No 5, P &amp; T Colony, Rt Nagar, Bangalore - 560032, Next to Post Office",+(91)-80-23333938,420Votes,4.1,13.0220109,77.5927855
631,Oakridge International,"Varthur Road, Sarjapura, Bangalore - 562125, Near Dommasandra Circle",+(91)-8501876611,417Votes,4.1,12.887557,77.751968
632,Ssb International Schools,"No 5/A, Hal 2nd Stage, Indiranagar, Bangalore - 560038, Near G G Hospital",+(91)-080-41523548,416Votes,3.7,12.9736771,77.6399874
633,Sri Chaitanya Techno School,"Seethappa Garden, T C Palya Main Road, Ramamurthy Nagar, Bangalore - 560016, Near Raghavendra Circle &amp; Opposite A2B",+(91)-80-65685615,410Votes,3.9,13.0196278,77.6731839
634,Gems B School,"The Royal Cottage, Bangalore Palace, Vasanth Nagar, Bangalore - 560001, Near Mount Carmel College",+(91)-80-23560387,405Votes,3.8,12.9966024,77.5920931
635,The International School Ba..,"Nafl Valley, Whitefield Sarjapur Road, Sarjapura, Bangalore - 562125, Near Dommasandra Circle",+(91)-80-67235900,403Votes,4.2,12.8912197,77.7501073
636,Psbb Learning Leadership Ac..,"No.52, Sahasra Deepika Road, Laxmipura, Sakalvara, Bannerghatta, Bangalore - 560083, Near Tulip Resort",+(91)-80-27809159,402Votes,4.1,12.8183671,77.5998063
637,National Centre For Excelle..,"No.154/1, Vijaya Kiran Knowledge Park, 5th Main, Malleshpalya, New Thippasandra, Bangalore - 560075, Opposite to Top In Town Supermarket",+(91)-80-25344939,401Votes,3.6,12.9792697,77.6741721
638,AIR Force School,"Head Quarters Training Command Unit, Hebbal, Jc Nagar, Bangalore - 560006, Near Mekhri Circle",+(91)-80-23411081,397Votes,4.2,13.0150142,77.578984
639,Mallya Aditi International ..,"No.6427, 5th Mile, Bellary Road, Yelahanka New Town, Bangalore - 560106, Opposite Wheel and Accel Factory, Behind NIPCCD Building",+(91)-080-40447000,397Votes,4.1,13.1017306,77.5837356
640,Orchids The International S..,"3rd Main, 6th Cross, N S Palya Main Road, Btm Layout 2nd Stage, Bangalore - 560076, Near Universal Gym &amp; Cafe Coffee Day",+(91)-80-60017100,397Votes,3.7,12.9043266,77.605289
641,Kendriya Vidyalaya,"Airforce Station, Yelahanka, Bangalore - 560064",+(91)-80-28478744,395Votes,4.2,13.1298636,77.6168766
642,Ryan International School,"No. 2, Vederapura Village, Gentiganahalli Road, Air Force Station Yelahanka, Bangalore - 560063, Behind Reserve Police Training Centre",+(91)-080-29733412,395Votes,3.8,13.1238053,77.601471
643,Vydehi School Of Excellence,"No. 82, Vydehi Campus, Epip Area, Whitefield, Bangalore - 560066, Near Vydehi Hospital",+(91)-080-46636000,392Votes,4.2,12.9745066,77.7309535
644,The Oxford English School,"Site No.40, Jp Nagar 1st Phase, Bangalore - 560078, Near RV Dental College",+(91)-80-30410501,390Votes,3.9,12.909682,77.5814046
645,Carmel High School,"2nd Block, 3rd Stage, Judges Colony, West Of Chord Road, Basaveshwara Nagar, Bangalore - 560079",+(91)-80-23227015,389Votes,4.0,12.9885636,77.5443423
646,Mahila Seva Samaja High Sch..,"No.80, K R Road, Basavanagudi, Bangalore - 560004",+(91)-80-26673391,388Votes,4.1,12.9531687,77.5731935
647,Kendriya Vidyalaya,"No.1, Airforce Station, KG Halli Road, Jalahalli West, Bangalore - 560015",+(91)-80-28389852,387Votes,4.4,13.0551761,77.5355574
648,Orchids The International S..,"No 13, Sarjapur Road, Hsr Layout Sector 1, Bangalore - 560102, Ambalipura",+(91)-80-69999396,386Votes,4.0,12.917192,77.670585
649,Sri Chaitanya Techno School,"No. 86/1c, Munnekolala, Marathahalli, Bangalore - 560037, Opposite Sgr Dental College",+(91)-9591998948,385Votes,3.9,12.947022,77.701028
650,Sri Chaitanya Techno School,"No. 75/A, Hulimavu Main Road, Bannerghatta Road, Bangalore - 560076, Near Meenakshi Temple",+(91)-80-64510262,378Votes,3.9,12.880013,77.5951213
651,JSS Public School,"No.4 A, 6th Sector, 14th Main Road, Hsr Layout, Bangalore - 560102, Next to Bda Complex",+(91)-080-22970133,378Votes,3.9,12.9148162,77.6378958
652,MES Kishora Kendra Primary ..,"No.62, 10th Main Road, 15th Cross, Malleswaram, Bangalore - 560003",+(91)-80-23561133,374Votes,4.0,13.0046884,77.5639936
653,Narayana E-Techno School,"No.8, Cholanayakanahalli Main Road, Rt Nagar, Bangalore - 560032, Opposite Bright Kids, Vishweshwaraiah Layout",+(91)-7022294015,374Votes,3.8,13.0360504,77.5994606
654,Trio World Academy,"No.3/5, Kodigehalli Main Road, Sahakara Nagar, Bangalore - 560092, Near Chairmans Club",+(91)-80-40611222,371Votes,4.1,13.0586937,77.5834052
655,S Cadambi Vidya Kendra,"No CA/2, 10th Main, 2nd Cross, Basaveshwara Nagar, Bangalore - 560079, Opposite Post Office",+(91)-080-23226019,370Votes,4.1,12.9936419,77.5394266
656,Sri Krishna International S..,"No.2P, Kathriguppe Main Road, ITI Layout, Banashankari 3rd Stage, Bangalore - 560085, Near Vidyapeeta Circle",+(91)-80-26690799,370Votes,3.9,12.9313112,77.5577366
657,Orchids The International S..,"No.76/6, Mysore Road, Kengeri, Bangalore - 560060, Opposite R V Engineering College",+(91)-080-65604041,368Votes,3.9,12.9254501,77.4986124
658,The Brigade School,"No.26/1, Brigade Gateway Enclave, Railway Parallel Road, Malleswaram West, Bangalore - 560055",+(91)-80-41411581,364Votes,3.9,13.0121442,77.5577277
659,Sindhi High School,"No.10/7, Kumara Krupa Road, Bangalore - 560001",+(91)-80-22261509,363Votes,4.3,12.9879383,77.5808117
660,Harvest International Schoo..,"Sarjapur Road, Bangalore - 560034, Near Central Silk Farm",+(91)-9686199416,361Votes,4.2,12.924731,77.638046
661,B P Indian Public School,"No.23/2, Post Box No.395, 11th Cross, 5th Main Road, Malleswaram, Bangalore - 560003",+(91)-80-23347314,361Votes,3.9,13.001184,77.5680148
662,Martin Luther Public School,"No.206, 15th Main, Nagendra Block, Girinagar Extension, Banashankari 3rd Stage, Bangalore - 560085, Behind Swamy Vivekananda Statue",+(91)-80-26729030,360Votes,4.2,12.9399163,77.5487787
663,Sri Chaitanya Techno School,"Srinivasa Complex, 1st Main Road,Palace Guttahalli, Seshadripuram, Bangalore - 560020, Near FORTIS HOSPITAL",+(91)-9663488997,359Votes,4.0,12.994065,77.5782716
664,Christ English School,"Siddagunte Palya, Hosur Road, Dharmaram College, Bangalore - 560029, Opposite Dairy Circle",+(91)-080-26684053,358Votes,3.9,12.931073607156,77.6040676885
665,Presidency School,"5th Cross, Nandhini Layout, Bangalore - 560096, Near to Old Bus Stop",+(91)-80-23496742,356Votes,4.0,13.0142167,77.5359185
666,National Public School,"No.8/C, Hoysala Circle, Kengeri Satellite Town, Kengeri, Bangalore - 560060, Near New Police Quarters",+(91)-80-28488856,356Votes,3.9,12.9223316,77.4891294
667,Acharyas Bangalore B School,"No.3, Lingadheeranahalli, Andrahalli, Bangalore - 560091, Near Sukandakatte",+(91)-9513999535,354Votes,4.1,13.0032252,77.4846402
668,Sherwood High School,"No.1, Bannerghatta Road, Bangalore - 560076, Near Nice Road Junction,Basavanapura",+(91)-080-28429731,354Votes,4.1,12.866568,77.591961
669,Deens Academy,"ECC Road, Whitefield, Bangalore - 560066",+(91)-080-28454464,353Votes,3.9,12.9759885,77.7419192
670,Deccan International School,"No.11, 18th Main Road, Padmanabhanagar, Uttarahalli, Bangalore - 560061, Near Brigade Apartments",+(91)-80-26250501,352Votes,4.1,12.9133176,77.5541312
671,Bangalore Education Guideli..,"#68, 1st Floor, 4th Main, Postal Colony, Sanjay Nagar, Bangalore - 560094, Near Daffodils High School",+(91)-80-45555555,349Votes,4.1,13.0349545,77.5786104
672,R T Nagar Public School,"No.10/13, 3rd Main Road, Khm Block, Ganganagar, Rt Nagar, Bangalore - 560032, Near Shanthi Sagar Hotel",+(91)-080-23339307,347Votes,3.9,13.0227007,77.5917685
673,Sri Vani Education Centre S..,"No.143, Hanumavana, 16th Kilo Meter, Off Magadi Road, Bapagrama, Bangalore - 560091",+(91)-80-23286998,346Votes,4.0,12.9951774,77.4608824
674,Christ School,"Hosur Road, Bangalore - 560029, Opposite Bangalore Dairy Circle",+(91)-080-26684053,344Votes,4.0,12.9286147,77.6060339
675,Aecs Magnolia Maaruti Publi..,"No.36/909, Arekere Gate, Bannerghatta Road, Bangalore - 560076, Opposite Bata Showroom",+(91)-080-26485622,342Votes,3.7,12.8847665,77.5969505
676,Mother Teresa Public School,"No.1320, MES Ring Road, Jalahalli, Bangalore - 560013, Near to BEL Circle",+(91)-80-23458727,341Votes,4.2,13.043426,77.5513889
677,Chitrakoota School,"No.37/6, Kengeri Ring Road, Nagadevanahalli-gnanabharathi, Bangalore - 560056, Behind Bangalore University Campus",+(91)-80-28484660,339Votes,4.5,12.934456,77.494063
678,Swargarani School & Pu Coll..,"608, 4th Stage, Rr Nagar, J. Nehru Road, Rajarajeshwari Nagar, Bangalore - 560098",+(91)-80-28616115,339Votes,4.1,12.9123848,77.5272449
679,Vidya Vardhaka Sangha Trust..,"1st Block, Rajajinagar, Bangalore - 560010",+(91)-080-23378717,337Votes,4.1,13.0038882,77.5525543
680,Rashtriya Military School,"PB No. 25040, Richmond Town, Museum Road, Bangalore - 560025, Opposite Jhonson Market",,336Votes,4.4,12.9625752,77.6071718
681,Sri Vani Education Centre,"No.1246/47, E Block, Ramavana Building, 4th Main Road, 2nd Stage, Rajajinagar, Bangalore - 560010, Behind Subramanya Nagar Police Station",+(91)-080-23322239,334Votes,4.0,13.0039526,77.5549728
682,Sri Chaitanya Techno School,"Kothanuru Dinne Main Road, Jumbo Savari Dinne, 8th Phase, Jp Nagar, Bangalore - 560078",+(91)-9663833997,333Votes,3.9,12.8800745,77.5952113
683,Hmr International School,"No.41/1, 11th Cross,9th Main,4th Block,Maruthi Layout, Kalyan Nagar, Bangalore - 560043",+(91)-80-25436699,332Votes,4.3,13.0330712,77.6343459
684,Kendriya Vidyalaya,"N A L Campus, Old Airport Road, Nal Road, Bangalore - 560017, Near Jeevan Bima Nagar Bus Terminal",+(91)-80-25275473,331Votes,4.2,12.9660139,77.6557555
685,Global Academy For Learning,"No.40, Sri Chowdeshwari Farm, Pattanagere Main Road, Rajarajeshwari Nagar, Global Village, Bangalore - 560059, Near R V Engineering College",+(91)-9886174080,329Votes,4.6,12.9252645,77.5042212
686,Daffodils English School As..,"4th Main,Sanjay Nagar,RMV 2nd Stage, Sanjay Nagar, Bangalore - 560094",+(91)-80-32483095,328Votes,4.0,13.034649,77.5789093
687,KLE Societys School,"No.1, 3rd Block, 2nd Stage, Nagarbhavi, Bangalore - 560072, Near to Bda Complex",+(91)-80-23214001,326Votes,4.1,12.9792383,77.5110883
688,Sri Dhanalakshmi Books & St..,"No. 33, 6th Cross, 11th Main 1st Stage., Mathikere, Bangalore - 560054, Near LIC Building &amp; Near Indian Oil Petrol Bunk",+(91)-080-23371174,326Votes,4.0,13.028883,77.559026
689,Chrysalis High,"No.219/3, 219/5, Marathahalli Sarjapur Road, Varthur, Bangalore - 560087, Near Forum Value Mall, Off Marathahalli",+(91)-8861063812,324Votes,4.0,12.930213,77.741379
690,Delhi Public Schools,"Survey No.119/2,124-123, Mallasandra Village, Hoskote Taluk, Whitefield Main Road, Bangalore - 560067, NH207",+(91)-7815041659,324Votes,3.9,13.0124188,77.7814657
691,Canadian International Scho..,"No. 4 &amp; 20, Manchenahalli Village, Yelahanka, Bangalore - 560064, Near Sai Care",+(91)-9591003005,321Votes,4.0,13.1189952,77.5950769
692,Soundarya Educational Trust,"Havanoor Extension, Post, Road, Hesarghatta Main Rd, Bengaluru, Nagasandra, Bangalore - 560073, Near 8th Mile",+(91)-080-28391115,320Votes,4.0,13.0492756,77.5062233
693,Bangalore International Sch..,"Hennur Bagalur Road, Geddalahalli, Kothanur, Bangalore - 560077, Near Cratis Hospital",+(91)-80-28445852,319Votes,4.0,13.0474453,77.6466669
694,Bbul Jain Vidyalaya School,"No.84, K R Road, Shankarapuram, Bangalore - 560004, Opposite To Vv Puram College",+(91)-80-22422936,318Votes,4.1,12.954144,77.5731639
695,Narayana E-Techno School,"Thubrahalli, Bangalore - 560066, Near to Kundahalli Gate, Beside Sri Ram Samrudhi Appartment",+(91)-80-28476662,318Votes,3.9,12.9543393,77.7200357
696,Shree Swaminarayan Gurukul ..,"Mysore Road, Kaniminike Village, Kumbalgodu, Bangalore - 560074, Next Pepsi Factory",+(91)-9845195000,317Votes,4.1,12.8656638,77.4368928
697,NARAYANA IIT OLYMPIAD AND E..,"No 338,RR Dwithi Square, Green Glen Layout, Bellandur, Bangalore - 560103, Behind Sobha Marvella",+(91)-7022293908,316Votes,3.9,12.9268187,77.6731863
698,Ryan International School,"Survey No.13, Gollahalli, Jigani Hobli, Bannerghatta, Bangalore - 560083, Opposite Confident Cascade, Near AMC Engineering College",+(91)-80-29761532,314Votes,4.0,12.8200209,77.583613
699,St Francis De Sales Public ..,"Hebbagodi, Electronic City, Bangalore - 560100, Near Sfs Campus",+(91)-80-27831451,313Votes,4.1,12.8341466,77.6809683
700,St Sophia Convent,"No.CA 6, 10th Block, 2nd Stage, Nagarbhavi, Bangalore - 560072, Next to BSNL Telephone Exchange",+(91)-080-29771133,311Votes,4.3,12.965878027778,77.509871305556
701,Treamis World School,"Hulimangla Post, Electronic City Phase 1, Bangalore - 560100, Near Wipro Gate 9",+(91)-9972399046,311Votes,4.0,12.8169802,77.6510399
702,St Germain High School,"No.504, Promenade Road, Cleveland Town, Frazer Town, Bangalore - 560005, Near Colespark",+(91)-80-25511353,310Votes,4.3,12.9937197,77.6105348
703,The Brigade School,"Brigade Millennium, 7th Phase, Puttenahalli, Jp Nagar, Bangalore - 560078, Near Inchara Hotel",+(91)-80-41301390,309Votes,4.0,12.8922362,77.5854747
704,Jain International Resident..,"Jain Global Campus, Kanapura Main Road, Nh 209, Ramanagara Distric, Harohalli Cross, Bangalore - 562114, 3kms Ahead Harohalli Industrial Area",+(91)-9448361044,308Votes,4.1,12.639169,77.44382
705,St Charles High School,"Lingarajapuram Main Road, St Thomas Town, Bangalore - 560084, Near Tolgate Bus Stop",+(91)-080-25472062,308Votes,4.0,13.0065601,77.6227344
706,The Valley School,"The Valley School Campus, Thataguni Post, Kanakapura Road, Bangalore - 560062",+(91)-80-28435241,306Votes,4.3,12.8543147,77.5099453
707,Shree Ramana Maharishi Acad..,"No.ca-1b, 3rd Cross, 3rd Phase, Jp Nagar, Bangalore - 560078, Near Ragigudda",+(91)-80-26588045,304Votes,4.3,12.914333,77.5958406
708,The New Cambridge High Scho..,"1902, 7th D Cross Road, Binny Layout, Hoshalli Extension, Hosahalli Extension, Hosahalli Extension, Bangalore - 560104",+(91)-80-23301499,302Votes,4.0,12.964633,77.5435509
709,Poornaprajna Education Cent..,"No.4, 16th Cross, Sadashivanagar, Bangalore - 560080, Near Sankey Tank In Between Janatha Bazar",+(91)-80-23618181,298Votes,4.1,13.0066749,77.581061
710,Jnanodaya School,"Shankarmutt Compound, Shankarapuram, Basavanagudi, Bangalore - 560004",+(91)-80-26500524,298Votes,3.9,12.9548014,77.5676957
711,National Public School,"No.22/B/1, Sector B, Yelahanka New Town, Bangalore - 560064, Next to Police Station",+(91)-80-28462222,297Votes,3.9,13.0996697,77.5844021
712,Vibgyor High School,"No 41, Pm Building, N S Palya, Bannerghatta Road, 4th Main, BTM Layout 2nd Stage, Bangalore - 560076",+(91)-80-33743000,295Votes,4.0,12.9120412,77.6029144
713,SJES Institutions,"Medahalli,Old Madras Road,Virgo Nagar Post, Bhattarahalli, Bangalore - 560049, Opposite RTO",+(91)-80-25611169,295Votes,3.7,13.025054,77.7148933
714,New Cambridge English Schoo..,"No.2087, 9th Cross, Rpc Layout, 2nd Stage, Vijayanagar, Bangalore - 560040",+(91)-080-23301578,289Votes,4.1,12.9646333,77.5435565
715,Vyasa International School,"Survey No.101/2, Vidyaranyapura Post, Dodda Bommasandra, Bangalore - 560097, Near BEL North Gate",+(91)-080-23454777,289Votes,3.7,13.0545868,77.5683414
716,Sri Chaitanya Techno School,"Lakshmi Narayanapura, Huskur Post, Electronic City, Bangalore - 560100, Behind Apmc Fruit Market",+(91)-080-27848052,287Votes,3.6,12.8443005,77.702127
717,Freedom International Schoo..,"No.C A -33, 4th Sector, Hsr Layout, Bangalore - 560102",+(91)-80-25729825,285Votes,3.8,12.916546,77.641994
718,St. Pauls School,"No.1, 2nd Main Road,Bda Layout,Prashanathnagar,Pattegarapalya, Vijayanagar, Bangalore - 560040, Near Karnataka Bank",+(91)-80-23288822,284Votes,4.4,12.9770082,77.525994
719,St. Anns High School,"No. 19/A, 19/2, K B Temple Street, 6th Block, Rajajinagar, Bangalore - 560010",+(91)-80-23201718,284Votes,4.2,12.9801666,77.5565281
720,St. Marys Public School,"No.1 1 St Main Road, Near Bailappa Circle, T Dasarahalli, Bangalore - 560057, Near Jain Temple",+(91)-80-28392711,284Votes,4.1,13.0474608,77.5134861
721,SRI Vani Education Centre,"No.1, Shamavana, 4th B Main, 3rd Block, 3rd Stage, Basaveshwara Nagar, Bangalore - 560079",+(91)-80-23238608,284Votes,3.9,12.9881767,77.541364
722,Sri Vidya Kendra The Smart ..,"No.77/2, Machohalli, Bapagram Post, Magadi Main Road-vijaynagar, Bangalore - 560091, Off Magadi Road",+(91)-80-28536789,283Votes,4.3,12.999889,77.452681
723,Rashtrothana Vidya Kendra,"6th Phase, Banashankari 6th Stage, Bangalore - 560062, Behind Nice Head Office",+(91)-9945202661,281Votes,4.2,12.8832114,77.4945106
724,Sri Sri Ravishankar Vidya M..,"No.4, Vidyaranyapura, Bangalore - 560097, Near Durgaparameshwari Arch",+(91)-080-23641305,280Votes,4.1,13.081598,77.5578836
725,Holy Angels High School,"No.2, 4th Cross, 5th Main, Rpc Layout, Vijayanagar, Bangalore - 560040",+(91)-080-23404465,280Votes,4.0,12.9654249,77.5378197
726,Vss International Public Sc..,"No.78, Outer Ring Road, Gnanabharathi, Bangalore - 560056, Behind Bangalore University",+(91)-8884029156,279Votes,4.1,12.9426574,77.4949773
727,Kendriya Vidyalaya,"Magadi Road, Bangalore - 560023, Near MG Railway Colony",+(91)-080-23157282,279Votes,4.0,12.981066,77.5678388
728,Sri Chaitanya Techno School,"No.573, Vyalikaval, Hbcs Colony, Veerannapalya Main Road, Arabic College, Bangalore - 560045, Behind Bel Corporate Office",+(91)-9663833992,278Votes,3.9,13.0387723,77.6132238
729,Bangalore International Pub..,"No. 58/2, Chikkalasandra, Subramanyapuram Main Road, Uttarahalli, Bangalore - 560061, Near to Uttarahalli Circle",+(91)-80-26665526,278Votes,3.9,12.9094982,77.5502539
730,ST Benedicts School,"Anchepalaya, Kumbalgud Post, Kumbalgodu, Bangalore - 560074",+(91)-080-28437920,276Votes,4.4,12.886888,77.4630918
731,Sishu Griha Montessori & Hi..,"No.3, Hal 3rd Stage, New Thippasandra, Bangalore - 560075, Behind Post Office",+(91)-80-25213940,276Votes,4.1,12.9734345,77.6557543
732,Narayana E Techno School,"ANR Complex, Papamma Layout, Ramamurthy Nagar, Bangalore - 560016, Near Police Station &amp; Opposite Andhra Bank &amp; Behind Food Bazar",+(91)-080-42111548,276Votes,4.0,13.0127899,77.6673599
733,Shishya Beml Public School,"Beml Township, New Thippasandra, Bangalore - 560075",+(91)-80-64520004,275Votes,3.7,12.9729647,77.6689135
734,The Amaatra Academy,"No.45/3, Kasavanahalli Main Road, Devasandra, Bangalore - 560012, Off Sarjapur Road",+(91)-9686329789,271Votes,3.8,12.89669,77.672544
735,National Academy For Learni..,"3rd Cross, 3rd Block, 3rd Stage, Basaveshwara Nagar, Bangalore - 560079, Opp Vidyavardhaka Coll",+(91)-80-23231567,270Votes,3.9,12.9879813,77.542262
736,Shantiniketan Educational I..,"No.58, 15th Main, 3rd Cross, Mico Layout, 2nd Stage, Btm Layout, Bangalore - 560076, Near Balaji Temple",+(91)-80-26689385,269Votes,4.0,12.9147387,77.6027462
737,Ebenezer International Scho..,"Singena Agrahara Road, Bommasandra Industrial Area, Bangalore - 560099, Near Apmc Yard &amp; Electronic City Phase 2, Huskur Gate",+(91)-80-27848224,269Votes,4.0,12.840292,77.707649
738,Cambridge School & Pre Univ..,"TC PALYA SIGNAL, Krishnarajapuram, Bangalore - 560036, Near TC PALYA CIRCLE",+(91)-80-25612067,269Votes,3.9,13.0108127,77.7044832
739,Insight Academy,"No.20, Vasanthapura Main Road, Kanakapura Road, Bangalore - 560062, Behind Panchvati Comforts",+(91)-080-26667333,267Votes,4.4,12.8929375,77.5596803
740,Kendriya Vidyalaya,"No 2, Jalahalli East, Bangalore - 560014, Near Air Force Station",+(91)-80-28389700,267Votes,4.4,13.0648707,77.5439094
741,Cluny Convent,"Subrato Mukharjee Rd,HMT Po, Jalahalli, Bangalore - 560013, Near Fathima Church",+(91)-080-28389725,267Votes,4.2,13.055196,77.540625
742,Sri Chaitanya Techno School..,"No.107&amp;, 69th Cross, 5th Block, Rajajinagar, Bangalore - 560010, Near Bashyam Circle",+(91)-9900041428,266Votes,3.7,12.9804329,77.5525988
743,EuroSchool,"No 36/183, Hoodi, Whitefield Main Road, Mahadevapura, Bangalore - 560048, Opposite to Shell Petrol Bunk, Behind KPS Yard",+(91)-9916760000,265Votes,4.0,12.9805645,77.7119674
744,Amara Jyothi Public School,"No.4/2, Basavanapura Main Road, Devasandra, Krishnarajapuram, Bangalore - 560036, Opposuite to Silicon City College and Bank Of India",+(91)-080-25612555,265Votes,3.9,13.0099627,77.7016483
745,Seventh Day Adventist Schoo..,"No. 98, Spencer Road, Frazer Town, Bangalore - 560005, Near Coles Park",+(91)-080-25552426,259Votes,3.9,12.9942575,77.6120242
746,Akash International Residen..,"Prasannahalli Road, Devanahalli, Bangalore - 562110, Near Bangalore International Airport",+(91)-9480355444,258Votes,3.7,13.2346147,77.7100339
747,Poornaprajna Education Cent..,"No.48, Hal 3rd Stage, New Thippasandra, Bangalore - 560075, Beside Post Office",+(91)-80-25292930,257Votes,4.2,12.9720952,77.6564504
748,Deva Matha Central School,"Ashirwad Colony, P &amp; T Layout, Horamavu, Bangalore - 560043, Near Horamavu Railway Gate",+(91)-080-25458180,257Votes,3.8,13.0265206,77.6558986
749,Nirmala Rani High School,"18th Cross, Malleswaram West, Bangalore - 560055",+(91)-080-23346525,256Votes,4.2,13.0092064,77.5619223
750,Chinmaya Vidyalaya,"No.31, 15th Main Road, Koramangala 4th Block, Bangalore - 560034, Near to Canara Bank",+(91)-080-25538341,254Votes,4.1,12.9349957,77.6276958
751,Jaigopal Garodia Rashtrotth..,"Kodanda Reddy Layout, Ramamurthy Nagar, Bangalore - 560016, Next to Panchami Bakery",+(91)-80-25665133,253Votes,3.9,13.0103813,77.6694235
752,Narayana E-Techno School,"No 65/B,K No 441, Sri Muneshwara Temple Circle,Ayyappanagar,Hoodi Main Road, Krishnarajapuram, Bangalore - 560036",+(91)-7022293859,253Votes,3.7,13.0124345,77.6672941
753,Hymamshu Jyothi Kala Peetha..,"No.74, 4th Main Road, 15th Cross, Hymamshu Shastry Road, Malleswaram West, Bangalore - 560055, Next to Telephone Exchnage",+(91)-80-23564845,251Votes,4.0,13.0064311,77.5687034
754,St. Claret School,"MES Ring Road, Jalahalli, Bangalore - 560013",+(91)-080-28383180,250Votes,4.2,13.0439548,77.5456974
755,Rashtrotthana Vidya Kendra,"Arkavathy Layout, Thanisandra Main Road, Hegde Nagar, Bangalore - 560077",+(91)-80-28465972,250Votes,3.9,13.068411,77.6346399
756,The Oxford Educational Grou..,"CA Site No. 40, 30th Main, Jp Nagar 1st Phase, Bangalore - 560078",+(91)-80-30410502,250Votes,3.7,12.9096707,77.5812578
757,Jss Public School,"No. 31, 22nd Cross, 15th Main Road, Banashankari 2nd Stage, Bangalore - 560070, Opposite Devagiri Temple",+(91)-80-22970131,247Votes,4.0,12.9257796,77.5666926
758,Venus International Public ..,"No.19A, 19/2-1, 6th Block,Kodi Basavana Temple  Street, Rajajinagar, Bangalore - 560010",+(91)-080-23504358,245Votes,3.9,12.9806472,77.5601982
759,Orchids The International S..,"Sy. No.93/2 Situated At Hommadevanahalli Village Begur Hobli, Bannerghatta, Bangalore - 560083",+(91)-9513386916,244Votes,4.1,12.840249,77.5940955
760,Appollo National Public Sch..,"No.125/1, U Block, Bhavani HBCS Layout, 100 Feet Ring Road, Bannegiri Hills, Banashankari 3rd Stage, Bangalore - 560085, Near Devegowda Petrol Bunk",+(91)-80-26692847,242Votes,3.8,12.9231135,77.5576317
761,Siddaganga Public School,"No.1, 1st Stage, 2nd Phase, Nagarbhavi, Bangalore - 560072, Opposite  Chandragiri Udyanavana Park",+(91)-080-23397600,240Votes,3.9,12.95412,77.5224799
762,Mitra Academy,"No.7/1, 2nd Main Road, Bannerghatta Road, Bangalore - 560076, Opposite to British Biologicals",+(91)-80-41107545,239Votes,4.4,12.887978,77.5996263
763,Chrysalis High School,"No 15/1b, Sector A, Lbs Nagar, Yelahanka New Town, Bangalore - 560064, Near to Yelahanka Police Station",+(91)-7259381504,239Votes,3.9,13.0947957,77.5910202
764,Army Public School,"Agaram, Bangalore - 560007, Near India Garage",+(91)-080-25550677,238Votes,4.3,12.9637737,77.6191579
765,Janaseva Vidya Kendra,"Magadi Road, Kadabagere, Bangalore - 562130",+(91)-9241216119,237Votes,4.4,12.977084,77.4324346
766,New Generation School,"No 34, Kanakapura Road, Basavanagudi, Bangalore - 560004, Opposite M N Krishna Rao Park",+(91)-80-26578699,237Votes,4.3,12.9424639,77.5772694
767,Mount Litera Zee School,"No.58/4, Kudlu Main Road,H S R Layout, Bommanahalli, Bangalore - 560068, Near Pratham Motors",+(91)-9008556161,237Votes,3.9,12.8927336,77.6509913
768,Narayana E-Techno School,"No.497, Adugodi Main Road, Koramangala 8th Block, Bangalore - 560095, Near Corporation Bank",+(91)-7022294007,236Votes,3.8,12.9426341,77.6145005
769,Sree Cauvery School,"CA-01, Double Road, 2nd Stage, Indiranagar, Bangalore - 560038, Opposite To Shanti Sagar",+(91)-80-25250894,236Votes,3.8,12.9762527,77.6366825
770,St Francis High School,"No.3417, 8th Main Road, Sarjapur Main Road, Koramangala 3rd Block, Bangalore - 560034, Opposite Krupanidhi College",+(91)-80-25635757,234Votes,4.3,12.9252766,77.6290851
771,Global City International S..,"No.135, 5th Main Road, 6th Cross, Malleshpalya, Bangalore - 560075, Near Jalakanteshwara Temple",+(91)-80-25349188,232Votes,3.9,12.9770155,77.6717254
772,RMS International School,"No.18, Srinivasa Industrial Estate, Kanakapura Road, Bangalore - 560062, Next to Metro",+(91)-80-41250487,230Votes,3.8,12.8922627,77.5655568
773,Triveni Public School,"No.39, Bagalakunte, Nagasandra Post, Hessargatta Main Road, Bangalore - 560073, Triveni Service Station",+(91)-80-28397648,228Votes,4.2,13.0546894,77.5069091
774,St Charles English School,"St Thomas Town, Kammanahalli, Bangalore - 560084, Opposite to Satya Hospital",+(91)-80-25423292,228Votes,4.1,13.0067814,77.621775
775,NET Public School,"No. 17, 2nd Main Road, Sri Nijagunara Road, Gavipuram Extension, Bangalore - 560019, Near Kohinoor Ground",+(91)-80-26611418,228Votes,3.9,12.9449229,77.5666231
776,Vidya Bharathi English Scho..,"No.463, 2nd Stage, West Of Chord Road, Mahalakshmipuram Layout, Bangalore - 560086, Opposite to Mahalakshmipuram Layout Police Station and Post Office",+(91)-80-23493608,227Votes,4.1,13.0028083,77.5466336
777,Sri Kumaran Childrens Home,"Survey No.44- 50, Uttarahali, Mallasandra, Kanakapura Road-talaghattapura, Bangalore - 560063, Near Holiday Village",+(91)-080-22538100,226Votes,4.3,12.846841,77.542506
778,Global Indian International..,"No-5,6,8, Whitefield Sarjapur Main Road,Gunjur Road,, Gunjur, Bangalore - 560087, Heggondahalli Village,",18005722810,226Votes,4.1,12.90325,77.7490209
779,Kendriya Vidyalaya,"Bangalore City, Bangalore - 560002, Malleshwaram",+(91)-80-23313339,225Votes,4.4,12.9810751,77.5678379
780,Sri Jnanakshi Vidyaniketan,"No. 248, Halagevaderahalli, Rajarajeshwari Nagar, Bangalore - 560098, Opposite  Manipal Hospital",+(91)-80-28604356,223Votes,4.1,12.9124115,77.5133048
781,Nitte International School,"No.12, Mylappanahalli Road, Yelahanka Hesaraghatta Road, Shivakote, Bangalore - 560089, Near Power Grid and Singanayakanahalli RTO Office",+(91)-80-23093600,223Votes,3.9,13.139554,77.539948
782,Legacy School Bangalore,"No.6/1 A &amp; 6/2, East Taluk, Gubbi Cross, Kothanur, Bangalore - 560077, Near Biozeen ,Byrathi Village, Bidarahalli Hobli",+(91)-7022292405,223Votes,3.9,13.062681,77.652152
783,Vijaya High School,"No.30, 15th Cross, South End Circle, Jayanagar 3rd Block, Bangalore - 560011, Near Ramkrishna Nursinbg Home, Near Petrol Bunk",+(91)-80-26648494,222Votes,4.3,12.936313,77.581485
784,Sarala Birla Academy,"Jigani Road, Bannerghatta, Bangalore - 560083, Near Bannerghatta National Circle",+(91)-80-41348200,222Votes,4.2,12.8095503,77.5837716
785,Sri Sri Ravishankar Vidya M..,"No.29, Kachamaranahalli, Gunjur Village, Varthur, Bangalore - 560087",+(91)-8746885859,222Votes,3.9,12.9038477,77.7310395
786,Navkis Educational Centre,"M S Ramaiah Memorial Hall, M S Ramaiah Main Road, Mathikere, Bangalore - 560054, Movenpick Hotel &amp; Spa",+(91)-80-23456663,221Votes,3.9,13.0418689,77.5551302
787,Vibgyor High School,"Survey No 45/ 1 &amp; 112, Begur Road, Bangalore - 560068, Vittasandra Village, Begur Hobli, South Taluka, Electronic C",+(91)-80-33280500,221Votes,3.8,12.8504994,77.6397907
788,Kendriya Vidyalaya,"Railway Parallel Road, Yeshwanthpur, Bangalore - 560022, Next Railway Ground,  Pampanagar",+(91)-080-23371316,219Votes,4.0,13.028985459595,77.542624909668
789,Carmel Convent Higher Prima..,"East End Road, Jayanagar 4th T Block, Bangalore - 560041, Next to Sanjaygandhi Hospital",+(91)-80-26636599,217Votes,4.0,12.92708,77.598111
790,St Josephs Convent Girls Hi..,"No.49, Promenade Road, Frazer Town, Bangalore - 560005, Opposite St Johns High School",+(91)-80-25541818,217Votes,4.0,12.9925201,77.6140952
791,Primus Public School,"No.21, Chikkanayakana Halli Road, Doddakannelli, Bangalore - 560035, Near Wipro Corporate Office, Off Sarjapur Road",+(91)-080-25741452,216Votes,4.1,12.8879308,77.6968893
792,Christ Academy School,"Begur Koppa Road, Hullahalli, Sakalavara, Bangalore - 560083",+(91)-9448204411,214Votes,4.0,12.8251841,77.6203136
793,Narayana E-Techno School,"No 1 A, Sapthagiri Layout, Thindlu Main Road, Vidyaranyapura, Bangalore - 560097, Near Thindlu Circle",+(91)-7022293941,214Votes,3.6,13.0740697,77.5641565
794,Narayana E-Techno School,"No 29, Kaggadasapura,  C Cross, Balaji Layout, C V Raman Nagar, Bangalore - 560093, Opposite to SS Paradise",+(91)-9441533445,213Votes,3.7,12.9796134,77.6772751
795,Mount Litera Zee School,"No 9, 1st Main, Ramanna Garden, Vidyaranyapura, Bangalore - 560097, Ramchandrapura Main Road",+(91)-80-65666676,212Votes,3.9,13.0640006,77.5530833
796,Mes Kishore Kendra Public S..,"3rd Stage, 4th Main, 11th Cross, Vidyaranyapura, Bangalore - 560097, opp to canara bank",+(91)-80-23641565,211Votes,4.0,13.0730041,77.5533164
797,The Regency Public School,"No.5/1, AMS Extension, Vidyaranyapura, Bangalore - 560097, Near Vidyaranyapura Last Bus Stop",+(91)-80-23642370,210Votes,4.3,13.0861241,77.5577445
798,Sri Chaitanya Techno School,"Devasandra Main Road, Krishnarajapuram, Bangalore - 560036, Near Kaveri Bakery",+(91)-9663833991,208Votes,3.7,13.0065651,77.7046183
799,Delhi Public Schools,"Survey No.33, Begur Road, Bangalore - 560068, Near  Bettadasanpura",+(91)-9632190257,207Votes,3.7,12.8476351,77.6300336
800,Federal Public School,"No 27, Tirumenahalli,Hegde Nagar Road,Thanisandra Main Road-Reva College, Yelahanka, Bangalore - 560064, Opposite KNS Engineering College",07947155236,206Votes,4.2,13.087897222222,77.634513888889
801,R V Public School,"V V Puram, Bangalore - 560004, Near to Lalbagh West Gate",+(91)-080-26569588,205Votes,4.2,12.9491845,77.5801909
802,Iqra International School,"No.202, 2nd Cross, 27th Main, Jaibhima Nagar, Btm Layout 1st Stage, Bangalore - 560068, Near AXA Building",+(91)-80-26789961,205Votes,4.2,12.9176295,77.614403
803,Embassy Public School,"No. 60, Chikka Gollarahatti, Magadi Main Road-gollarhatti, Bangalore - 560091, Near Nice Road Junction",+(91)-080-23580252,205Votes,4.1,12.9910113,77.4635076
804,Harsha International Public..,"No.193/4, MS Ramaiah  Harsha Hospital Campus, Sondekoppa Circle, Nh 4, Nelamangala, Bangalore - 562123, Beside Harsha Hospital",+(91)-80-28023515,205Votes,4.0,13.093106,77.395994
805,Auden Public School,"No.17, 2nd Phase, Girinagar, Bangalore - 560085, Near Ganapathi Sacchidananda Ashram",+(91)-80-26721901,204Votes,4.1,12.9381884,77.5431984
806,Narayana Olympiad School,"No 1606/30/1, 1st Phase,Rajeev Gandi Nagar,Amco Layout,5th Cross, Sahakara Nagar, Bangalore - 560092, Near Chairmans Club",+(91)-7022293951,203Votes,3.7,13.0549914,77.5794691
807,Sri Aurobindo Vidya Mandir,"No.6/C, 5th Main, 2nd Stage, Dr.M C Modi Road, Mahalakshmipuram Layout, Bangalore - 560086, Opposite to SBI Road",+(91)-80-23490843,202Votes,4.2,12.9985834,77.5456023
808,Bgs Public School,"No.67, Uttarahalli Main Road, Dr Vishnuvardhana Road, Bgs Health &amp; Education City, Kengeri, Bangalore - 560060, Near Abhiman Studio",+(91)-9071455540,202Votes,4.0,12.8969176,77.4958383
809,Florence English School,"No.308, 3rd Block, 3rd Stage, Basaveshwara Nagar, Bangalore - 560079",+(91)-80-23236160,200Votes,4.3,12.9890549,77.5406345
810,Presidency School,"No.121, 3rd Cross, Jp Nagar 3rd Phase, Bangalore - 560078, Near to Ragi Gudda Temple &amp; Opposite to Shivabalayogi Kalyana Mantapa",+(91)-80-26584619,200Votes,4.0,12.913424,77.590601
811,Vidya Soudha Public School,"No.9/1, 1st Main, 1st Stage, Peenya, Bangalore - 560058, Near Basveshwara Bus Station",+(91)-80-28391219,200Votes,3.9,13.0420017,77.5246947
812,Sjr Public School,"No.3D, 5th Cross, 7th Main, 1st Stage, 3rd Block, Ganapathi Temple, Kalyan Nagar, Bangalore - 560043, Near BDA Complex Bangalore One",+(91)-80-25432147,200Votes,3.7,13.0285635,77.6273901
813,SGPTA School,"No 76/1, Netaji Road, Thyagaraja Nagar, Bangalore - 560004, Near By Saibaba Temple",+(91)-80-26769654,196Votes,4.2,12.9348014,77.5699641
814,Ganga International School,"Nagaraja Farm, Nelagadaranahalli, Gruhalakshmi Layout, Nagasandra, Bangalore - 560073",+(91)-80-28397029,196Votes,4.0,13.0284925,77.496026
815,Ekya School,"No.16, 6th B Main Road, Dollar Layout, Jp Nagar 3rd Phase, Bangalore - 560078, Next to SAI Baba Temple",+(91)-80-46809096,196Votes,3.8,12.907795,77.596938
816,EuroKids,"No.38, 5th Main,Inbetween 7th And 8th Cross, Malleswaram, Bangalore - 560003, Near Malleshwaram Club",+(91)-080-23348844,195Votes,4.4,13.0037943,77.5775592
817,Vidyanjali Academy For Lear..,"Cholanayakanahalli, Rt Nagar, Bangalore - 560032, Opposite to SBI Bank",+(91)-80-23544891,195Votes,4.2,13.0368366,77.5979186
818,Shiksha Sagar High School,"No.4, keb layout, Sanjay Nagar, Bangalore - 560094, near axis bank",+(91)-9449192813,195Votes,4.1,13.038054,77.577031
819,St Annes Education Society,"No.2, Vasanth Nagar, Millers Road, Bangalore - 560051, Opposite Syndicate Bank",+(91)-80-22203386,195Votes,4.0,12.9879448,77.5908295
820,EuroSchool,"Survey No 27, Srinivasa Pura Village, Bella Halli - North Campus Main Road, Yelahanka, Bangalore - 560064",+(91)-7829163111,195Votes,3.8,13.103407,77.624774
821,Gangothri International Pub..,"Gangothri Campus,M S Venkateshwara Farm, Block A,Rajivgandhi Nagar,Magadi Main Road, Vishwaneedam, Bangalore - 560091, Near Sunkadakatte",07947155063,194Votes,3.9,12.9840898,77.5035553
822,Stella Maris Girls High Sch..,"No.23, Gaythri Devi Park Road, 16th Cross, Vyalikaval, Bangalore - 560003, Near Chodaiyya Memorial Hall",+(91)-80-23461544,193Votes,4.2,13.006912,77.5759122
823,St Paul English School,"No.121, 3rd Cross, 3rd Phase, Jp Nagar, Bangalore - 560078, Opposite To Shiva Bala Yogi Ashram",+(91)-080-26584619,193Votes,4.2,12.914819,77.5963047
824,Widia Poornaprajna School,"14th Km, Tumkur Road, Nagasandra, Bangalore - 560073, Near Kennametal Factory",+(91)-80-28391399,193Votes,4.1,13.0502313,77.5022022
825,St. Michaels High School,"Geddalahalli, Hennur Main Road, Kothanur, Bangalore - 560077, Near to Bangalore International School",+(91)-80-28465281,192Votes,4.3,13.0513367,77.6451027
826,Sacred Heart Girls Higher P..,"No.25, Museum Road, Bangalore - 560025",+(91)-80-22211237,191Votes,4.2,12.98053,77.606541
827,Sri Chaitanya Techno School,"No.32/1, Maruthi Layout, Singasandra, Kudlu Gate, Hosur Road, Bangalore - 560068, Near Shiva Temple",+(91)-80-64552081,191Votes,3.5,12.8866173,77.652078
828,Stonehill International Sch..,"Chikkajala, Bangalore - 562157, Tarahunise Village Post, Jala Hobli",+(91)-80-43418300,190Votes,4.3,13.170133,77.595611
829,Stella Maris School,"No. 23, Gayathri Devi Park Extension, Malleswaram West, Bangalore - 560055",+(91)-80-23461544,189Votes,4.5,13.0063436,77.5780627
830,Delhi Public School Head Of..,"No.3/2, Al Ameen Apartments, Pattalamma Temple Street Road, Basavanagudi, Bangalore - 560004, Near South End Circle",+(91)-80-26570314,189Votes,3.8,12.939948,77.578209
831,St. Peters School,"No.56 &amp; 58, Kaikondrahalli, Sarjapur Main Road, Sarjapur Road, Bangalore - 560034, Near To Wipro Campus",+(91)-080-65688671,189Votes,3.7,12.914754,77.678999
832,Narayana E-Techno School,"3rd Main, 15th Cross, Hoyasala Nagar, Ramamurthy Nagar, Bangalore - 560016, Near Vinayaka Temple",+(91)-80-65354525,189Votes,3.7,13.0204249,77.665321
833,New Millennium Public Schoo..,"No.22, Subramanyapura Main Road, Uttarahalli, Bangalore - 560061, Near Uttarahalli Bus Stop",+(91)-80-26396599,188Votes,4.2,12.9041709,77.5444838
834,ITI Vidya Mandir,"No.200, 4th A Cross, Jayamaruthi, R R Layout, Vijinapura, ITI Colony, Dooravani Nagar, Bangalore - 560016",+(91)-80-25662028,187Votes,4.3,13.007259,77.6839624
835,National Public School,"T John College Campus, Gottigere, Nice Road Junction, Bannerghatta, Bangalore - 560083",+(91)-80-40250582,187Votes,4.1,12.851616,77.593606
836,Presidency School,"No. 80/1 &amp; 80/2, Bilekahalli, Bannerghatta Road, Bangalore - 560076, Near to Anugraha Layout",+(91)-80-26485649,187Votes,4.0,12.9040368,77.6018979
837,Vibgyor High School,"Survey No 9/ 2, Kadugodi Main Road, Kadugodi, Bangalore - 560067, Konadasapura Village, Bidarahalli Hobli",+(91)-80-33743300,187Votes,3.9,13.046437,77.7608187
838,Vibgyor High,"Survey No.55/6, 80 Feet Road, Arkavathy Layout, Jakkur, Bangalore - 560065",+(91)-80-33159400,187Votes,3.9,13.073204,77.610838
839,India International School,"No.26/1, Chikka Bellandur, Sarjapur Road, Carmelram, Bangalore - 560035, Near Wipro Office",+(91)-80-28439001,187Votes,3.7,12.899366,77.713088
840,Gear Innovative Internation..,"No.175, Gear Road, Doddakannelli, Sarjapur Road, Bellandur, Bangalore - 560037, Off Outer Ring Road",+(91)-9741777799,187Votes,3.6,12.917698,77.697303
841,Sarvodaya National Public S..,"No. 12, 10th Main Road, Binny Layout, Nagarbhavi Main Road, Vijayanagar, Bangalore - 560040, Near Shobha Hospital",+(91)-80-23303772,183Votes,3.9,12.974108,77.531178
842,Frank Public School,"No.10, 17th Cross, 33rd Main, Jp Nagar 6th Phase, Bangalore - 560078",+(91)-080-26644696,182Votes,4.1,12.9053503,77.5799427
843,Capitol Public School,"No.18/1, 9th Cross, Rbi Layout, Jp Nagar 7th Phase, Bangalore - 560078, Opp to RBI  Play Ground",+(91)-80-26851095,182Votes,4.0,12.8880758,77.5769072
844,Chrysalis High School,"Sy. No 125, Kumbena Agrahara, Bengaluru, Whitefield Kadugodi Road, Kadugodi, Bangalore - 560067, Behind Hp Petrol Pump",+(91)-9739150011,181Votes,4.5,13.0068389,77.7674602
845,Maria Niketan High School,"Dicosta Layout, St Marys Town, St Thomas Town, Bangalore - 560084",+(91)-80-25464484,180Votes,4.2,13.0027765,77.626811
846,St Thomas Public School,"No.32, Church Road, 7th Main, New Thippasandra, Bangalore - 560075, Near Kakde Nursing Home",+(91)-80-25282890,180Votes,4.0,12.97594,77.652584
847,Oasis International School,"No.89, Charles Campbell Road, Cox Town, Bangalore - 560005, Near Srivasa Nursing Home",+(91)-80-41253104,180Votes,4.0,12.9964683,77.6229561
848,Athena Public School,"No.361/3, 5th Main Road, Chamarajpet, Bangalore - 560018",+(91)-80-26675909,179Votes,3.9,12.956931,77.564478
849,Kendriya Vidyalaya,"Wheel &amp; Axle Plant, Rail Wheel Factory Road, Doddabalapur Main Road, Yelahanka New Town, Bangalore - 560106, West Colony",+(91)-80-28460979,178Votes,4.2,13.1026316,77.5801519
850,Podar International School,"No.3/2, Basavanapura,Hommadevanahalli, Bannerghatta Road, Bangalore - 560076, Behind T Johns College",+(91)-9916909038,178Votes,4.2,12.880259,77.595542
851,Vishwa Venkateshwara Intern..,"Sy No. 72, Tirumala Garden, Kodipalya, Kengeri, Bangalore - 560060, Near Sridhar Gudda",07947158865,178Votes,4.1,12.901541531368,77.488330379964
852,Bangalore Education Society,"8th Cross, 4th Main Road, Malleswaram, Bangalore - 560003, Behind Malleswaram Play Ground",+(91)-80-23311770,178Votes,4.0,12.9991332,77.5686854
853,Vidya Sanskaar Internationa..,"Machohalli Gate, Magadi Main Road-machohalli, Bangalore - 560091, Behind Pooja Hospital",+(91)-80-28536856,177Votes,4.1,13.010529,77.494521
854,Innisfree House School,"No 9,, 9th Cross, 23rd Main Road, 2nd Phase, Jp Nagar, Bangalore - 560078",+(91)-080-26597110,176Votes,3.9,12.9110528,77.5873172
855,Narayana E-Techno School,"166, 2nd Cross Road, Hongasandra, Bangalore - 560068",+(91)-80-41530698,176Votes,3.9,12.8963881,77.6340455
856,Goodwill Girls High School,"No. 10, Promenade Road, Frazer Town, Bangalore - 560005, Opposite Coles Park, Pulikeshi Nagar",+(91)-80-25542352,176Votes,3.7,12.995376,77.6088874
857,Ashok Group Of Institutions,"Forest Road, Jalahalli West, Bangalore - 560015",+(91)-080-23450848,176Votes,3.6,13.065103,77.5307896
858,Cordial High School,"West 8th Main Road, Marenahalli, Vijayanagar, Bangalore - 560040, Near Shoba Hospital",+(91)-80-23352646,175Votes,4.1,12.9754338,77.5325406
859,Narayana E-Techno School,"No. 58/1 &amp; 58/2, RTO Offce Road, Ullal Main Road, Mallathahalli, Bangalore - 560056, Near Varaha Sidhi Vinayaka Temple",+(91)-7022293912,175Votes,3.7,12.9590795,77.4940523
860,Maxwell Public School,"9th Main, 1st Block, Kalyan Nagar, Bangalore - 560043, Near Banaswadi Fire Station, Hrbr Layout",+(91)-080-25450822,174Votes,3.9,13.0163234,77.6473945
861,School Of INDIA,"Jigani, Anekal Road, Bannerghatta, Bangalore - 560083, Opposite Sarala Birla Academy",+(91)-7795051947,172Votes,4.2,12.81336,77.586266
862,Agasthya Vidyanikethan,"No. 1566, D Group Layout, 60 Feet Road, Sri Ganda Kaval, Nagarbhavi, Bangalore - 560072, Near Second Water Tank and Relience Fresh",+(91)-80-41610101,169Votes,4.5,12.9716187,77.4966641
863,Lowry Memorial College,"No.1603, Whitefield Road, Dooravani Nagar, Bangalore - 560016, Opposite K R Puram Railway Station",+(91)-80-61161500,169Votes,4.0,12.999562,77.6783928
864,Jawahar Navodaya Vidyalaya,"Bashettihalli, Doddaballapur, Bangalore - 561203, Opposite Birla Cement Factory",+(91)-8116438494,167Votes,4.5,13.2688828,77.5525211
865,Adarsha Vidyalaya,"CA Site No 3, 12th Cross, 1st Block , Bda Extn, Rt Nagar, Bangalore - 560032",+(91)-80-23332789,167Votes,3.9,13.0185335,77.595695
866,Mirambika School,"Sri Aurobindo Complex, 9th Cross, 30th Main Road, Sri Aurobindo Marg,1st Phase, Jp Nagar, Bangalore - 560078",+(91)-80-22449882,166Votes,4.2,12.9113414,77.581608
867,Mother Teresa Group Of Inst..,"No 1320, MES Ring Road, Jalahalli, Bangalore - 560013",+(91)-80-23548727,166Votes,4.1,13.043335,77.551179
868,Holy Cross School,"Abhayadhama Campus, Whitefield, Bangalore - 560066, Near Cafe Day",+(91)-80-28454604,166Votes,4.0,12.9797439,77.7481791
869,Sadhguru Sainath Internatio..,"No. 165, Kudlu Village, Hosur Road, Madiwala, Bangalore - 560068",+(91)-80-64536855,166Votes,3.8,12.8889405,77.6628812
870,St Patricks Academy Bengalu..,"No.256, Ambedkara Nagar, Carmallaram Post, Sarjapur Road, Bangalore - 560034, Near Railway Cross",+(91)-80-28439115,165Votes,4.2,12.898441,77.716081
871,St. Johns High School,"No.6, Papareddy Palya, Nagarbhavi 2nd Stage, Bangalore - 560072",+(91)-80-23210044,165Votes,4.0,12.9698839,77.5076958
872,St. Marys Public School,"No.13, Queens Road, Bangalore - 560051, Next to Congress Building,",+(91)-80-22202854,164Votes,4.3,12.9891971,77.5987244
873,Aradhana Academy,"Bannerghatta Road, Aradhana Layout, IIMB Post, Arekere Gate, Bangalore - 560076, Near to South City Apartment",+(91)-080-26585781,164Votes,4.2,12.8848254,77.5924617
874,Anthony Claret School,"No.200/S, 5th Cross, MES Road, Sharadamba Nagar, Jalahalli, Bangalore - 560013, Near St Thomas Church",+(91)-80-23452133,164Votes,4.1,13.0433484,77.5451797
875,Seshadripuram Public School,"No.CA-22, Yelahanka New Town, Bangalore - 560064, Opposite to Mallaya Aditi School",+(91)-80-22955376,164Votes,4.0,13.1009995,77.5840627
876,Lake Mont Fort School Main ..,"Virgonagar Industrial Estate, Aavalahalli, Bengaluru, Medahalli, Virgonagar, Bangalore - 560049, Hoskote Road",+(91)-9902627483,164Votes,4.0,13.0152385,77.7318093
877,Wisdom International School,"No. 31, Norris Road, Richmond Town, Bangalore - 560025, Near Hockey Stadium",+(91)-080-41479136,164Votes,4.0,12.961409,77.602368
878,Sinclairs High School,"No.7, 3rd Cross, D Muniyappa Layout,Chelekere Extension, Kalyan Nagar, Bangalore - 560043",+(91)-80-25443745,163Votes,4.5,13.0316959,77.6437335
879,New Baldwin School,"Arkawathi Layout,Hennur Bagaluru Main Road, K Narayanapura, Bangalore - 560077, Behind Coffee Day",+(91)-80-28444207,163Votes,4.0,13.052578,77.646368
880,Army Public School Parachut..,"Bengaluru, Jayachamaraja Wodeyar Road, Bangalore - 560002, Near Mekhri Circle,Opposite Army Training",+(91)-80-23431787,162Votes,4.1,12.962198,77.580731
881,HAL Public School,"Suranjandas Road, Vimanapura, Bangalore - 560017, Opposite Hal Management Academy",+(91)-80-25220762,161Votes,4.0,12.963542,77.663394
882,Kendriya Vidyalaya,"No.69 B, Diesel Loco Shed, Krishnarajapuram, Bangalore - 560036, Near To Bmtc Depot",+(91)-80-25616000,161Votes,3.9,13.0005974,77.6974125
883,Dev In National School,"No.3/1, 60 Feet Road, Sahakara Nagar, Bangalore - 560092, Near Cauvery College &amp; Off International Airport Road",+(91)-80-65651001,160Votes,4.0,13.0598724,77.5823459
884,East West Academy,"No.3, 63rd &amp; 64th Cross, Rajajinagar 5th Block, Bangalore - 560010, Near Bhashyam Circle",+(91)-080-65463718,160Votes,3.7,12.9834396,77.5517333
885,Narayana E-Techno School,"No 90/2, Mutturaya Swami Layout Lake Road, Hulimavu, Bangalore - 560076, Behind Royal Meenakshi Mall",+(91)-7022960895,159Votes,4.1,12.8743596,77.6023877
886,Soundarya School,"Soundarya Road, Havanoor Extension,, Nagasandra, Bangalore - 560073",+(91)-80-28391789,159Votes,4.0,13.0493178,77.5058201
887,Geetanjali Olympiad School,"No.77/7, Panathur Village Road,Varthoor Hobli,Kadabisenahalli,Outer Ring Road, Marathahalli, Bangalore - 560037, Behind Cessna Business Park",+(91)-80-65605559,159Votes,4.0,12.9360081,77.6975146
888,Bm English School,"No.111/112, Sivan Chetty Garden Rd, St Johns Road, Bangalore - 560042, Nr Lavanya Theatre",+(91)-80-25547030,158Votes,4.2,12.9846201,77.6143115
889,Hillside Group Of Instituti..,"No.9, Raghuvanahalli, Gubbalala Cross, Kanakpura Main Road, Kanakapura Road, Bangalore - 560062, Opp to YDIT College",+(91)-080-22560097,157Votes,4.0,12.884107,77.5463037
890,Vishwa Vidyapeeth,"Survey No 65, Singanayahanahalli Doddaballapur Road, Yelahanka, Bangalore - 560064, Opposite to  Royal Prestidge",+(91)-80-23095600,156Votes,4.1,13.1422896,77.568377
891,ITI Central School,"Iti Colony, Theater Inner Road, Krishnaraja Pura, Dooravani Nagar, Bangalore - 560016",+(91)-080-28503867,156Votes,4.1,13.0080812,77.6848164
892,Sri Chaitanya Techno School,"No.27, 5th B Cross, Post Office Road, 3rd Phase, Yelahanka New Town, Bangalore - 560106",+(91)-80-65469738,155Votes,3.9,13.0938704,77.5787669
893,Carmel Academy,"Carmel Jyothi Campus, Bannerghatta Road, Bangalore - 560076",+(91)-9620165722,154Votes,4.2,12.8622041,77.5902148
894,Vijaya Bharathi Vidyalaya,"No. 570 A, 11th A Cross, 2nd Phase, Girinagar, Bangalore - 560085, Near Girinagar Bus Stop",+(91)-080-26720854,154Votes,4.1,12.941603,77.540627
895,Sri Chaitanya Techno School,"No. 55/2, 27th Cross, 19th Main, Hsr Layout Sector 2, Bangalore - 560102, Opposite Nagarjuna Appartments",+(91)-8861004640,154Votes,3.7,12.9048418,77.6458814
896,Acts Secondary School,"15km Hosur Road, Electronic City, Bangalore - 560100, Next to Audi Showroom",+(91)-80-65370156,153Votes,4.1,12.866191,77.6580733
897,Radcliffe School,"15th Milestone, Gottigere, Bannerghatta Road, Bangalore - 560076, Next to Rml Law College",+(91)-080-40969219,153Votes,4.0,12.8564346,77.5895241
898,Ekya School,"No.2851, Friends Layout, Itpl Bypass Road, Doddanekundi Extension, Marathahalli, Bangalore - 560037, Next to Big Basket Godown",+(91)-9844065937,152Votes,3.8,12.9715496,77.704302
899,Airforce School,"Air Force Station, Jalahalli East, Bangalore - 560014",+(91)-80-23455069,150Votes,4.1,13.0709075,77.5511402
900,National Public School,"R R Layout, Chikbanavara, Bangalore - 560090, Near Railway Station",+(91)-80-28391155,150Votes,3.8,13.0717714,77.5098202
901,Maithry Vidyanikethan Schoo..,"Kalkere Main Road, 3rd Main Road, Ramamurthy Nagar, Bangalore - 560016, Near Koshy Hospital",+(91)-80-25652342,150Votes,3.7,13.0254557,77.6798948
902,St Aloysius English Medium ..,"Cox Town, Bangalore - 560005",+(91)-80-25484826,149Votes,4.3,12.9936421,77.6194238
903,S J R Kengeri Public School,"No.19, 3rd Main Road, Satellite Town, Kengeri, Bangalore - 560060, Near Kengri Railway Station",+(91)-80-28484675,148Votes,3.9,12.916569,77.481583
904,Narayana Olympiad School,"B- Chennasandra, Near Banaswadi, Kasturi Nagar, Bangalore - 560043, Behind HDFC Branch",+(91)-080-40934501,148Votes,3.7,13.0086042,77.6616283
905,Presidency School,"No. 6455, Avalahalli,Doddaballapur Road, Yelahanka New Town, Bangalore - 560064, Near Bmsit College",+(91)-80-46699333,147Votes,4.1,13.1332246,77.5586513
906,SLS International Gurukul,"2nd Cross, Kalkere Main Road, K Channasandra, Bangalore - 560043",+(91)-080-69990999,146Votes,4.6,13.0412568,77.6798861
907,Jnana Sweekar Public School,"No.19/1,19/2, Thalaghattapura Main Road, Kanakapura Road, Bangalore - 560062",+(91)-80-28427472,146Votes,3.8,12.8662634,77.5336122
908,Airforce School,"Airforce Station, International Airport Road, Yelahanka, Bangalore - 560064, Near Bsf",+(91)-80-28478067,145Votes,3.8,13.1325774,77.6236513
909,St. Marys High School,"No.3, Millers Road, Vasanth Nagar, Bangalore - 560001, Opposite Vikram Hospital",+(91)-080-22269537,143Votes,4.4,12.9886027,77.5909424
910,The Indiranagar Cambridge S..,"No.52, 6th Cross, 8th Main, Hal 3rd Stage, Indiranagar, Bangalore - 560038",+(91)-80-25283213,142Votes,4.1,12.9696793,77.6505475
911,Achievers Academy Bangalore,"No.49, Off Hosur Road, Bommasandra, Srirampuram, Jigani, Bangalore - 560105, Behind Sobha Interiors",+(91)-80-27839266,141Votes,3.9,12.7991946,77.6665501
912,Cluny Convent school,"No.11, 11th Main Road, 15th Cross, Malleswaram, Bangalore - 560003, Near MES College",+(91)-80-23341316,140Votes,4.3,13.0045904,77.5622461
913,Vibgyor High,"Survey No.137, Kammanahalli Village, Begur Hobli, Bannerghatta Road, Bangalore - 560076",+(91)-80-61023000,140Votes,3.9,12.910326,77.6038381
914,Vivekananda Educational Cen..,"No. 1, 4th Main Road, Jayanagar 4th Block East, Bangalore - 560011, Near School Joint",+(91)-80-26633167,140Votes,3.8,12.928619,77.58754
915,Max Muller High School,"No.43, 1st Stage,  Khb Colony, Basaveshwara Nagar, Bangalore - 560079, Near Khb Bus Stop, Next  to BSNL Office Road",+(91)-80-23481682,137Votes,4.1,12.982941,77.5348031
916,Gulabi Girls High School,"No.70, Nandidurga Road, 4th Cross, Jayamahal Extension, Bangalore - 560046, Near Jayamahal Park",+(91)-080-23331349,137Votes,4.0,13.0015855,77.598647
917,St Francis ICSE School,"Begur Main Road, Hongasandra, Bommanahalli, Bangalore - 560068",+(91)-80-25731347,137Votes,4.0,12.8889803,77.6247989
918,School Vivekananda,"No.1350, A Block, Damodaran Road, Sahakara Nagar, Bangalore - 560092, Off International Airport Road",+(91)-80-23433559,135Votes,4.1,13.0689645,77.5807037
919,Outreach School,"No.24/1-1, Bts Road, Wilson Garden, Bangalore - 560027, Near Bmtc Bus Stop",+(91)-80-41506103,135Votes,4.0,12.9536176,77.5941033
920,Nightingales English School,"No 1/ B and C, BTM 4th Stage, Bannerghatta Road, Devarachikanahalli, Bilekahalli, Bangalore - 560076, Near Vijaya Bank Enclave",+(91)-80-26484666,135Votes,3.8,12.8929255,77.6133848
921,Sri Chaitanya Techno School,"No 2068/A, GF3, Gublala Village, Kanakpura Road, Konanakunte Cross, Bangalore - 560062, Near Mantri Trankil Appartment",+(91)-8861286992,134Votes,4.4,12.886898,77.5458274
922,National High School,"K R Road, Basavanagudi, Bangalore - 560004, Near Indian Petrole Bunk",+(91)-080-26506451,134Votes,4.3,12.9489602,77.5730928
923,The Paradise Residential Sc..,"No.1,, Maruthi Layout Basapura Village Hosa Road, Electronic City, Bangalore - 560100, Behind Concorde Appartments",+(91)-9972144559,134Votes,4.1,12.8656963,77.6454004
924,Dav Public School,"No. 58, 67, Kanthaiahna Palya, Pipe Line Road, Kaggalipura, Bangalore - 560116, Near Off Kanakapura Main Road",+(91)-7899762728,134Votes,4.1,12.8012238,77.501336
925,DAV Public School,"Sy. No. 58 &amp; 67, Kanthaiahana Palya, Pipeline Road , Kanakapura Road, Kaggalipura, Bangalore - 560116",+(91)-80-22909296,134Votes,4.1,12.8012238,77.501336
926,Miranda Education Society,"No.CA-52, 10th Main, 6th Cross, Hal 3rd Stage, Indiranagar, New Thippasandra, Bangalore - 560075",+(91)-80-25281760,134Votes,3.8,12.9757693,77.6460294
927,Amrita Vidyalayam Bangalore,"Amritanandamayi Ashram, Jnana Ganga Nagar, Bangalore - 560056",+(91)-80-23241565,133Votes,4.3,12.9457439,77.4859968
928,Holy Spirit School,"Kalena Agrahara, Bannerghatta Road, Bangalore - 560076, Opposite Mantri Residency",+(91)-80-26493037,133Votes,4.1,12.8718119,77.5930652
929,Jss Public School,"No.5, 2nd Block, 1st Stage, HBR Layout, Bangalore - 560043, Near Bda Complex",+(91)-80-25437788,133Votes,3.9,13.0253691,77.628548
930,Vls International School,"No.7/1, 7th B Main, 3rd Stage, 4th Block, Sharada Colony, Basaveshwara Nagar, Bangalore - 560079",+(91)-80-23481564,132Votes,3.7,12.9912264,77.5356326
931,Kenneth George English Scho..,"No.14/B/1, HMT Layout, Rt Nagar, Bangalore - 560032, Behind Presidency School",+(91)-80-23431328,132Votes,3.6,13.026043,77.5949751
932,MTB Jnana Jyothi Vidyaniket..,"No.707, Maheshwari Temple Rd, Mahadevapura, Bangalore - 560048",+(91)-80-28510947,131Votes,3.9,12.9906102,77.6939687
933,Edify School,"No.226/227, Somanahalli, 25th Mile, Kanakapura Road, Bangalore - 560062, Near APS College Of Engineering",+(91)-80-28432645,130Votes,4.0,12.788725,77.503164
934,Frank Anthony Junior School,"No.26, Wellington Street, Richmond Town, Bangalore - 560025, Near Wellington Post Office",+(91)-080-22212386,129Votes,4.1,12.9626751,77.6041756
935,St Teresa Girls High School,"Chamarajpet, Bangalore - 560018, Near Royan Circle",+(91)-080-26502392,129Votes,3.9,12.9624386,77.5687806
936,St Annes Girls High School,"No.2, Cambridge Road, Ulsoor, Bangalore - 560008",+(91)-80-25547088,128Votes,3.9,12.974505,77.625426
937,Carmel Convent High School,"East End Main Road, Jayanagar 4th T Block, Bangalore - 560041, Opposite Bank Of Baroda, Next to Sagar Hospital",+(91)-080-26656599,127Votes,4.5,12.9269388,77.599722
938,Gem School,"No:81, 7th Main,Ganganagar Extension, Rt Nagar, Bangalore - 560032, Opposite RT Nagar Post Office",+(91)-80-23335519,127Votes,4.2,13.0215734,77.5911425
939,St Philomenas English Schoo..,"Subbana Layout, Doddabommasandra, Vidyaranyapura, Bangalore - 560097, Near Bel Quartz",+(91)-80-23643443,127Votes,4.0,13.0618976,77.5587495
940,Sacred Heart Boys High Scho..,"No.62, Thimmiah Road,Ashok Nagar, Richmond Road, Bangalore - 560025",,126Votes,4.5,12.9664326,77.609957
941,Al Burooj International Sch..,"No.27/4, 4th B Cross, Khb Main Road, Kanaka Nagar-rt Nagar, Bangalore - 560032, Opposite to Iibs College",+(91)-80-42160063,126Votes,4.2,13.0350547,77.6095138
942,RNS International School,"RNSIT Campus, Dr.  Vishnuvardhan Road, Uttarahalli-Kengeri Main Road, Channasandra, Bangalore - 560067",+(91)-80-28612003,125Votes,4.0,12.97951,77.763802
943,Orchids The International S..,"Survey No 136/3b, Khata No:152,Jagadish Nagar,, Jagdish Nagar, Bangalore - 560075, Behind Utipura Village",+(91)-9513900155,125Votes,3.9,12.9694459,77.6684798
944,Florence High School & Comp..,"No.22, Viviani Road, Richards Town, Frazer Town, Bangalore - 560005, Near Richards Park",+(91)-80-25492577,125Votes,3.8,13.0042353,77.6147242
945,Royale Concorde Internation..,"No.81/1, Hongasandra, Begur Road, Bangalore - 560068, Next State Bank Of India",+(91)-080-25742060,125Votes,3.7,12.8907043,77.625737
946,Aryan Presidency School,"No.283, 13th Main, Vinayaka Layout, 2nd Stage, Nagarbhavi, Bangalore - 560072, Behind Ambedkar Institution Of Technology",+(91)-80-23391472,124Votes,3.9,12.9624757,77.5077977
947,Deva Matha Central School,"#2, Defence Layout, Vidyaranyapura, Bangalore - 560097, Near Last Bus Stop",+(91)-80-23643752,124Votes,3.9,13.0841303,77.5570298
948,Bangalore School Of Speech ..,"No.529, 16th A Cross, 3rd Main, Hsr Layout Sector 6, Bangalore - 560034",+(91)-080-41688713,123Votes,4.2,12.9124272,77.649282
949,St. Xaviers High School,"Tasker Town, Shivaji Nagar, Bangalore - 560051",+(91)-80-22866287,122Votes,4.0,12.9869826,77.6007812
